{"type": "FeatureCollection", "features": [{"type": "Feature", "geometry": {"type": "Point", "coordinates": [-94.638321062869, 35.80858489459]}, "properties": {"name": "Stilwell Memorial Hospital", "address": "1401 WEST LOCUST", "city": "STILWELL", "state": "OK", "zip": "74960", "county": "Adair", "beds": 30, "closure_year": 2025, "closure_month": "July", "closure_type": "Closed", "medicare_payment": "MDH", "source": "UNC Sheps Center"}}, {"type": "Feature", "geometry": {"type": "Point", "coordinates": [-97.21409421228, 34.720187305292]}, "properties": {"name": "Valley Community Hospital", "address": "100 VALLEY DRIVE", "city": "PAULS VALLEY", "state": "OK", "zip": "73075", "county": "Garvin", "beds": 43, "closure_year": 2025, "closure_month": "January", "closure_type": "Closed", "medicare_payment": "PPS", "source": "UNC Sheps Center"}}, {"type": "Feature", "geometry": {"type": "Point", "coordinates": [-97.977213298872, 35.530596468023]}, "properties": {"name": "Mercy Hospital El Reno", "address": "2115 PARKVIEW DRIVE", "city": "El Reno", "state": "OK", "zip": "73036", "county": "Canadian   ", "beds": 48, "closure_year": 2019, "closure_month": "April", "closure_type": "Closed", "medicare_payment": "PPS", "source": "UNC Sheps Center"}}, {"type": "Feature", "geometry": {"type": "Point", "coordinates": [-95.320165421141, 34.919933306115]}, "properties": {"name": "Latimer County General Hospital", "address": "806 STATE HIGHWAY 2 NORTH", "city": "Wilburton", "state": "OK", "zip": "74578", "county": "Latimer   ", "beds": 33, "closure_year": 2018, "closure_month": "October", "closure_type": "Closed", "medicare_payment": "MDH", "source": "UNC Sheps Center"}}, {"type": "Feature", "geometry": {"type": "Point", "coordinates": [-99.014293744666, 34.403336697751]}, "properties": {"name": "Memorial Hospital & Physician Group", "address": "319 EAST JOSEPHINE", "city": "Frederick", "state": "OK", "zip": "73542", "county": "Tillman   ", "beds": 37, "closure_year": 2016, "closure_month": "March", "closure_type": "Converted", "medicare_payment": "SCH", "source": "UNC Sheps Center"}}, {"type": "Feature", "geometry": {"type": "Point", "coordinates": [-95.35813951586, 35.782057440687]}, "properties": {"name": "Muskogee Community Hospital", "address": "2900 NORTH MAIN STREET", "city": "Muskogee", "state": "OK", "zip": "74402", "county": "Muskogee   ", "beds": 45, "closure_year": 2012, "closure_month": "July", "closure_type": "Converted", "medicare_payment": "PPS", "source": "UNC Sheps Center"}}, {"type": "Feature", "geometry": {"type": "Point", "coordinates": [-96.800768867165, 36.330760531274]}, "properties": {"name": "Pawnee Municipal Hospital", "address": "1212 FOURTH STREET", "city": "Pawnee", "state": "OK", "zip": "74058", "county": "Pawnee   ", "beds": 25, "closure_year": 2007, "closure_month": "August", "closure_type": "Closed", "medicare_payment": "PPS", "source": "UNC Sheps Center"}}]}