{"type": "FeatureCollection", "features": [{"type": "Feature", "geometry": {"type": "Point", "coordinates": [-96.699602577887, 35.24484003925]}, "properties": {"name": "Central Oklahoma Family Medical Center - Seminole II", "address": "2249 Boren Blvd", "city": "Seminole", "state": "OK", "zip": "74868", "phone": "580-925-3286", "type": "FQHC", "site_type": "All Other Clinic Types", "center_type": "Federally Qualified Health Center (FQHC)", "source": "HRSA"}}, {"type": "Feature", "geometry": {"type": "Point", "coordinates": [-98.440822953325, 34.608975298884]}, "properties": {"name": "LCHC Dental", "address": "3811 W Gore Blvd, Ste 1", "city": "Lawton", "state": "OK", "zip": "73505", "phone": "580-357-4943", "type": "FQHC", "site_type": "All Other Clinic Types", "center_type": "Federally Qualified Health Center (FQHC)", "source": "HRSA"}}, {"type": "Feature", "geometry": {"type": "Point", "coordinates": [-96.758900643635, 34.960275417205]}, "properties": {"name": "Central Oklahoma Family Medical Center - Main", "address": "527 W 3rd St", "city": "Konawa", "state": "OK", "zip": "74849", "phone": "580-925-3286", "type": "FQHC", "site_type": "All Other Clinic Types", "center_type": "Federally Qualified Health Center (FQHC)", "source": "HRSA"}}, {"type": "Feature", "geometry": {"type": "Point", "coordinates": [-94.726499776106, 36.792611129934]}, "properties": {"name": "Community Health Center of Wyandotte Schools", "address": "7 1st St", "city": "Wyandotte", "state": "OK", "zip": "74370", "phone": "918-678-2299", "type": "FQHC", "site_type": "School", "center_type": "Federally Qualified Health Center (FQHC)", "source": "HRSA"}}, {"type": "Feature", "geometry": {"type": "Point", "coordinates": [-94.993589642461, 35.951934754363]}, "properties": {"name": "HWC Adventure Head Start-Grand View", "address": "15481 N Jarvis Rd", "city": "Tahlequah", "state": "OK", "zip": "74464", "phone": "918-967-0748", "type": "FQHC", "site_type": "School", "center_type": "Federally Qualified Health Center (FQHC)", "source": "HRSA"}}, {"type": "Feature", "geometry": {"type": "Point", "coordinates": [-97.408464929866, 34.817825043563]}, "properties": {"name": "South Central Medical Center-Maysville", "address": "504 Williams", "city": "Maysville", "state": "OK", "zip": "73057", "phone": "405-756-1414", "type": "FQHC", "site_type": "All Other Clinic Types", "center_type": "Federally Qualified Health Center (FQHC)", "source": "HRSA"}}, {"type": "Feature", "geometry": {"type": "Point", "coordinates": [-97.583507489112, 35.525265093917]}, "properties": {"name": "Variety Care Baptist Portland", "address": "5401 N Portland Ave, Ste 500", "city": "Oklahoma City", "state": "OK", "zip": "73112", "phone": "405-632-6688", "type": "FQHC", "site_type": "All Other Clinic Types", "center_type": "Federally Qualified Health Center (FQHC)", "source": "HRSA"}}, {"type": "Feature", "geometry": {"type": "Point", "coordinates": [-96.634822037224, 34.782872856323]}, "properties": {"name": "Central Oklahoma Family Medical Center - Womens Health", "address": "807 N Monte Vista St", "city": "Ada", "state": "OK", "zip": "74820", "phone": "580-332-8855", "type": "FQHC", "site_type": "All Other Clinic Types", "center_type": "Federally Qualified Health Center (FQHC)", "source": "HRSA"}}, {"type": "Feature", "geometry": {"type": "Point", "coordinates": [-97.861946846049, 36.390686957928]}, "properties": {"name": "GSP Health Enid Central", "address": "1120 E Owen K Garriott Rd", "city": "Enid", "state": "OK", "zip": "73701", "phone": "580-233-5300", "type": "FQHC", "site_type": "All Other Clinic Types", "center_type": "Federally Qualified Health Center (FQHC)", "source": "HRSA"}}, {"type": "Feature", "geometry": {"type": "Point", "coordinates": [-97.841313859521, 36.397930380764]}, "properties": {"name": "Temporary Site - GSP Health Enid East Temporary Behavioral Health aka Hedges Regional Speech and Hearing", "address": "2615 E Randolph Ave", "city": "Enid", "state": "OK", "zip": "73701", "phone": "580-596-2800", "type": "FQHC", "site_type": "All Other Clinic Types", "center_type": "Federally Qualified Health Center (FQHC)", "source": "HRSA"}}, {"type": "Feature", "geometry": {"type": "Point", "coordinates": [-101.224581488834, 36.863029159098]}, "properties": {"name": "Panhandle Counseling and Health Center Outreach Center", "address": "208 Medical Dr", "city": "Hooker", "state": "OK", "zip": "73945", "phone": "580-338-0072", "type": "FQHC", "site_type": "All Other Clinic Types", "center_type": "Federally Qualified Health Center (FQHC)", "source": "HRSA"}}, {"type": "Feature", "geometry": {"type": "Point", "coordinates": [-95.107888695409, 35.255909408019]}, "properties": {"name": "HWC - Stigler", "address": "1505 E Main St", "city": "Stigler", "state": "OK", "zip": "74462", "phone": "918-967-3368 x18859", "type": "FQHC", "site_type": "All Other Clinic Types", "center_type": "Federally Qualified Health Center (FQHC)", "source": "HRSA"}}, {"type": "Feature", "geometry": {"type": "Point", "coordinates": [-97.602846060938, 34.838325129247]}, "properties": {"name": "South Central Medical and Resource Center", "address": "216 S Main St", "city": "Lindsay", "state": "OK", "zip": "73052", "phone": "405-756-1414", "type": "FQHC", "site_type": "All Other Clinic Types", "center_type": "Federally Qualified Health Center (FQHC)", "source": "HRSA"}}, {"type": "Feature", "geometry": {"type": "Point", "coordinates": [-97.962395846762, 35.047768773814]}, "properties": {"name": "South Central Medical Center-Chickasha", "address": "2222 W Iowa Ave", "city": "Chickasha", "state": "OK", "zip": "73018", "phone": "405-756-1414", "type": "FQHC", "site_type": "All Other Clinic Types", "center_type": "Federally Qualified Health Center (FQHC)", "source": "HRSA"}}, {"type": "Feature", "geometry": {"type": "Point", "coordinates": [-95.40254450401, 35.757121471141]}, "properties": {"name": "Muskogee Health Center West", "address": "201 N 32nd St", "city": "Muskogee", "state": "OK", "zip": "74401", "phone": "918-682-0222", "type": "FQHC", "site_type": "All Other Clinic Types", "center_type": "Federally Qualified Health Center (FQHC)", "source": "HRSA"}}, {"type": "Feature", "geometry": {"type": "Point", "coordinates": [-96.664146413374, 34.772095035014]}, "properties": {"name": "Central Oklahoma Family Medical Center - ECU", "address": "300 S Highland St", "city": "Ada", "state": "OK", "zip": "74820", "phone": "580-320-1651", "type": "FQHC", "site_type": "School", "center_type": "Federally Qualified Health Center (FQHC)", "source": "HRSA"}}, {"type": "Feature", "geometry": {"type": "Point", "coordinates": [-97.132021519565, 34.173358186574]}, "properties": {"name": "Good Shepherd Community Clinic, Inc. - 310 W Main", "address": "310 W Main St, Ste 311", "city": "Ardmore", "state": "OK", "zip": "73401", "phone": "580-223-3411", "type": "FQHC", "site_type": "Unknown", "center_type": "Federally Qualified Health Center (FQHC)", "source": "HRSA"}}, {"type": "Feature", "geometry": {"type": "Point", "coordinates": [-97.861945374324, 36.396689044384]}, "properties": {"name": "GSP Health Enid Central", "address": "1106 E Broadway Ave", "city": "Enid", "state": "OK", "zip": "73701", "phone": "580-596-2800", "type": "FQHC", "site_type": "All Other Clinic Types", "center_type": "Federally Qualified Health Center (FQHC)", "source": "HRSA"}}, {"type": "Feature", "geometry": {"type": "Point", "coordinates": [-95.582557684872, 35.283363283586]}, "properties": {"name": "HWC - Eufaula Pharmacy", "address": "401 S Main St", "city": "Eufaula", "state": "OK", "zip": "74432", "phone": "918-689-7701", "type": "FQHC", "site_type": "All Other Clinic Types", "center_type": "Federally Qualified Health Center (FQHC)", "source": "HRSA"}}, {"type": "Feature", "geometry": {"type": "Point", "coordinates": [-97.534259085657, 35.387101853605]}, "properties": {"name": "Variety Care Mobile Van #1", "address": "1025 Straka Ter", "city": "Oklahoma City", "state": "OK", "zip": "73139", "phone": "405-632-6688", "type": "FQHC", "site_type": "All Other Clinic Types", "center_type": "Federally Qualified Health Center (FQHC)", "source": "HRSA"}}, {"type": "Feature", "geometry": {"type": "Point", "coordinates": [-95.992655656543, 36.191391532468]}, "properties": {"name": "Morton Comprehensive Health Services at F&CS Apache", "address": "240 E Apache St", "city": "Tulsa", "state": "OK", "zip": "74106", "phone": "918-587-2171", "type": "FQHC", "site_type": "All Other Clinic Types", "center_type": "Federally Qualified Health Center (FQHC)", "source": "HRSA"}}, {"type": "Feature", "geometry": {"type": "Point", "coordinates": [-94.948854467376, 35.915301142498]}, "properties": {"name": "NeoHealth OB", "address": "1500 E Downing St STE 208", "city": "Tahlequah", "state": "OK", "zip": "74464", "phone": "918-456-2496", "type": "FQHC", "site_type": "All Other Clinic Types", "center_type": "Federally Qualified Health Center (FQHC)", "source": "HRSA"}}, {"type": "Feature", "geometry": {"type": "Point", "coordinates": [-101.476972782103, 36.692989566087]}, "properties": {"name": "Panhandle Counseling and Health Center, Inc.", "address": "501 NE 15th St", "city": "Guymon", "state": "OK", "zip": "73942", "phone": "580-338-4638", "type": "FQHC", "site_type": "All Other Clinic Types", "center_type": "Federally Qualified Health Center (FQHC)", "source": "HRSA"}}, {"type": "Feature", "geometry": {"type": "Point", "coordinates": [-97.958161274041, 34.662161269668]}, "properties": {"name": "Marlow Community Health Center", "address": "1324 S Broadway St", "city": "Marlow", "state": "OK", "zip": "73055", "phone": "580-280-4413", "type": "FQHC", "site_type": "All Other Clinic Types", "center_type": "Federally Qualified Health Center (FQHC)", "source": "HRSA"}}, {"type": "Feature", "geometry": {"type": "Point", "coordinates": [-95.142638060413, 35.933565815209]}, "properties": {"name": "NeoHealth Mobile Medical Van", "address": "225 N Elm St", "city": "Hulbert", "state": "OK", "zip": "74441", "phone": "918-772-3390", "type": "FQHC", "site_type": "All Other Clinic Types", "center_type": "Federally Qualified Health Center (FQHC)", "source": "HRSA"}}, {"type": "Feature", "geometry": {"type": "Point", "coordinates": [-97.547916862279, 35.477288098376]}, "properties": {"name": "Salvation Army Chesapeake Center of Hope", "address": "1001 N Pennsylvania Ave", "city": "Oklahoma City", "state": "OK", "zip": "73107", "phone": "405-246-1060", "type": "FQHC", "site_type": "All Other Clinic Types", "center_type": "Federally Qualified Health Center (FQHC)", "source": "HRSA"}}, {"type": "Feature", "geometry": {"type": "Point", "coordinates": [-94.951912437486, 35.912541801062]}, "properties": {"name": "NeoHealth Tahlequah Pediatrics", "address": "1310 E Boone St", "city": "Tahlequah", "state": "OK", "zip": "74464", "phone": "918-456-7700", "type": "FQHC", "site_type": "All Other Clinic Types", "center_type": "Federally Qualified Health Center (FQHC)", "source": "HRSA"}}, {"type": "Feature", "geometry": {"type": "Point", "coordinates": [-97.14323137747, 34.198566054954]}, "properties": {"name": "Good Shepherd Community Clinic, Inc-2401 N Commerce", "address": "2401 N Commerce St", "city": "Ardmore", "state": "OK", "zip": "73401", "phone": "580-226-0543", "type": "FQHC", "site_type": "All Other Clinic Types", "center_type": "Federally Qualified Health Center (FQHC)", "source": "HRSA"}}, {"type": "Feature", "geometry": {"type": "Point", "coordinates": [-99.914798884396, 34.695672357024]}, "properties": {"name": "Shortgrass Community Health Center, Inc.", "address": "400 E Sycamore St", "city": "Hollis", "state": "OK", "zip": "73550", "phone": "580-688-2800", "type": "FQHC", "site_type": "All Other Clinic Types", "center_type": "Federally Qualified Health Center (FQHC)", "source": "HRSA"}}, {"type": "Feature", "geometry": {"type": "Point", "coordinates": [-95.152791938144, 36.641491540979]}, "properties": {"name": "Allensworth Community Health Center", "address": "248 N Wilson St", "city": "Vinita", "state": "OK", "zip": "74301", "phone": "918-276-2667", "type": "FQHC", "site_type": "All Other Clinic Types", "center_type": "Federally Qualified Health Center (FQHC)", "source": "HRSA"}}, {"type": "Feature", "geometry": {"type": "Point", "coordinates": [-94.805566748139, 35.440442286892]}, "properties": {"name": "HWC - Mobile Services Unit", "address": "1630 S Kerr Blvd", "city": "Sallisaw", "state": "OK", "zip": "74955", "phone": "918-967-3368", "type": "FQHC", "site_type": "All Other Clinic Types", "center_type": "Federally Qualified Health Center (FQHC)", "source": "HRSA"}}, {"type": "Feature", "geometry": {"type": "Point", "coordinates": [-96.704252148263, 36.572295436644]}, "properties": {"name": "ROBERT CLARK FAMILY HEALTH CENTER (DBA)", "address": "212 N Main St", "city": "Fairfax", "state": "OK", "zip": "74637", "phone": "918-642-3100", "type": "FQHC", "site_type": "All Other Clinic Types", "center_type": "Federally Qualified Health Center (FQHC)", "source": "HRSA"}}, {"type": "Feature", "geometry": {"type": "Point", "coordinates": [-95.321162085716, 34.914634355713]}, "properties": {"name": "HWC Adventure Head Start/Early Head Start  -  Wilburton", "address": "607 SW 8th St", "city": "Wilburton", "state": "OK", "zip": "74578", "phone": "918-967-0748", "type": "FQHC", "site_type": "School", "center_type": "Federally Qualified Health Center (FQHC)", "source": "HRSA"}}, {"type": "Feature", "geometry": {"type": "Point", "coordinates": [-99.914798884396, 34.695672357024]}, "properties": {"name": "Shortgrass Community Health Moblie1", "address": "400 E Sycamore St", "city": "Hollis", "state": "OK", "zip": "73550", "phone": "580-688-2800", "type": "FQHC", "site_type": "All Other Clinic Types", "center_type": "Federally Qualified Health Center (FQHC)", "source": "HRSA"}}, {"type": "Feature", "geometry": {"type": "Point", "coordinates": [-99.914798884396, 34.695672357024]}, "properties": {"name": "Shortgrass Community Health Center Mobile", "address": "400 E Sycamore St", "city": "Hollis", "state": "OK", "zip": "73550", "phone": "580-688-2800", "type": "FQHC", "site_type": "All Other Clinic Types", "center_type": "Federally Qualified Health Center (FQHC)", "source": "HRSA"}}, {"type": "Feature", "geometry": {"type": "Point", "coordinates": [-95.630324401204, 36.697774699348]}, "properties": {"name": "Morton Nowata Health Center", "address": "207 S Locust St", "city": "Nowata", "state": "OK", "zip": "74048", "phone": "918-273-9911", "type": "FQHC", "site_type": "All Other Clinic Types", "center_type": "Federally Qualified Health Center (FQHC)", "source": "HRSA"}}, {"type": "Feature", "geometry": {"type": "Point", "coordinates": [-95.996819567502, 36.156120175629]}, "properties": {"name": "Morton Midtown Homeless Health Center", "address": "102 N Denver Ave", "city": "Tulsa", "state": "OK", "zip": "74103", "phone": "918-295-6942", "type": "FQHC", "site_type": "All Other Clinic Types", "center_type": "Federally Qualified Health Center (FQHC)", "source": "HRSA"}}, {"type": "Feature", "geometry": {"type": "Point", "coordinates": [-96.634827350707, 34.776426202306]}, "properties": {"name": "Central Oklahoma Family Medical Center - Medcalf/Freeland", "address": "301 N Monte Vista St", "city": "Ada", "state": "OK", "zip": "74820", "phone": "580-436-5111", "type": "FQHC", "site_type": "All Other Clinic Types", "center_type": "Federally Qualified Health Center (FQHC)", "source": "HRSA"}}, {"type": "Feature", "geometry": {"type": "Point", "coordinates": [-94.805566748139, 35.440442286892]}, "properties": {"name": "HWC - Sallisaw", "address": "1630 S Kerr Blvd", "city": "Sallisaw", "state": "OK", "zip": "74955", "phone": "918-790-2653", "type": "FQHC", "site_type": "All Other Clinic Types", "center_type": "Federally Qualified Health Center (FQHC)", "source": "HRSA"}}, {"type": "Feature", "geometry": {"type": "Point", "coordinates": [-98.459908894376, 34.59430517308]}, "properties": {"name": "Lawton Community Health Center", "address": "5404 SW Lee Blvd", "city": "Lawton", "state": "OK", "zip": "73505", "phone": "580-355-5242", "type": "FQHC", "site_type": "All Other Clinic Types", "center_type": "Federally Qualified Health Center (FQHC)", "source": "HRSA"}}, {"type": "Feature", "geometry": {"type": "Point", "coordinates": [-97.557614550149, 35.473921861087]}, "properties": {"name": "Variety Care, General Pershing Wellness Campus", "address": "2617 General Pershing Blvd", "city": "Oklahoma City", "state": "OK", "zip": "73107", "phone": "405-632-6688", "type": "FQHC", "site_type": "All Other Clinic Types", "center_type": "Federally Qualified Health Center (FQHC)", "source": "HRSA"}}, {"type": "Feature", "geometry": {"type": "Point", "coordinates": [-98.440822953325, 34.608975298884]}, "properties": {"name": "LCHC Center for Health Suite 10", "address": "3811 W Gore Blvd, Ste 10", "city": "Lawton", "state": "OK", "zip": "73505", "phone": "580-510-7076", "type": "FQHC", "site_type": "All Other Clinic Types", "center_type": "Federally Qualified Health Center (FQHC)", "source": "HRSA"}}, {"type": "Feature", "geometry": {"type": "Point", "coordinates": [-96.241353845589, 35.237267486503]}, "properties": {"name": "Administration Offices", "address": "120 E Broadway St", "city": "Wetumka", "state": "OK", "zip": "74883", "phone": "405-452-3151", "type": "FQHC", "site_type": "Unknown", "center_type": "Federally Qualified Health Center (FQHC)", "source": "HRSA"}}, {"type": "Feature", "geometry": {"type": "Point", "coordinates": [-94.948854467376, 35.915301142498]}, "properties": {"name": "Tahlequah Family Practice", "address": "1500 E Downing St, Ste 101", "city": "Tahlequah", "state": "OK", "zip": "74464", "phone": "918-708-3570", "type": "FQHC", "site_type": "All Other Clinic Types", "center_type": "Federally Qualified Health Center (FQHC)", "source": "HRSA"}}, {"type": "Feature", "geometry": {"type": "Point", "coordinates": [-98.440822953325, 34.608975298884]}, "properties": {"name": "LCHC Center for Health", "address": "3811 W Gore Blvd STE 6", "city": "Lawton", "state": "OK", "zip": "73505", "phone": "580-355-5242", "type": "FQHC", "site_type": "All Other Clinic Types", "center_type": "Federally Qualified Health Center (FQHC)", "source": "HRSA"}}, {"type": "Feature", "geometry": {"type": "Point", "coordinates": [-97.305673415056, 35.507582491472]}, "properties": {"name": "Community Health Mobile Unit #1", "address": "12716 NE 36th St", "city": "Spencer", "state": "OK", "zip": "73084", "phone": "405-769-3301", "type": "FQHC", "site_type": "All Other Clinic Types", "center_type": "Federally Qualified Health Center (FQHC)", "source": "HRSA"}}, {"type": "Feature", "geometry": {"type": "Point", "coordinates": [-96.672950230306, 34.223256016971]}, "properties": {"name": "Family Health Center Of Southern Oklahoma", "address": "610 E 24th St", "city": "Tishomingo", "state": "OK", "zip": "73460", "phone": "580-371-2343", "type": "FQHC", "site_type": "All Other Clinic Types", "center_type": "Federally Qualified Health Center (FQHC)", "source": "HRSA"}}, {"type": "Feature", "geometry": {"type": "Point", "coordinates": [-97.583366689757, 35.524711626375]}, "properties": {"name": "Variety Care Portland", "address": "5320 N Portland Ave", "city": "Oklahoma City", "state": "OK", "zip": "73112", "phone": "405-632-6688", "type": "FQHC", "site_type": "All Other Clinic Types", "center_type": "Federally Qualified Health Center (FQHC)", "source": "HRSA"}}, {"type": "Feature", "geometry": {"type": "Point", "coordinates": [-95.510878481155, 35.466148806124]}, "properties": {"name": "HWC - Checotah Pharmacy", "address": "1002 W Gentry Ave", "city": "Checotah", "state": "OK", "zip": "74426", "phone": "918-473-3838", "type": "FQHC", "site_type": "All Other Clinic Types", "center_type": "Federally Qualified Health Center (FQHC)", "source": "HRSA"}}, {"type": "Feature", "geometry": {"type": "Point", "coordinates": [-97.964571895971, 34.3734961504]}, "properties": {"name": "Comanche Community Health Center", "address": "513 Hillery Rd", "city": "Comanche", "state": "OK", "zip": "73529", "phone": "580-280-4413", "type": "FQHC", "site_type": "All Other Clinic Types", "center_type": "Federally Qualified Health Center (FQHC)", "source": "HRSA"}}, {"type": "Feature", "geometry": {"type": "Point", "coordinates": [-98.432754703649, 34.608922442329]}, "properties": {"name": "LCHC Memorial Medical Clinic", "address": "3201 W Gore Blvd", "city": "Lawton", "state": "OK", "zip": "73505", "phone": "580-353-6760", "type": "FQHC", "site_type": "All Other Clinic Types", "center_type": "Federally Qualified Health Center (FQHC)", "source": "HRSA"}}, {"type": "Feature", "geometry": {"type": "Point", "coordinates": [-97.861945374324, 36.396689044384]}, "properties": {"name": "Temporary Site - GSP Health Enid East Temporary Medical aka Enid Community Clinic", "address": "1106 E Broadway Ave", "city": "Enid", "state": "OK", "zip": "73701", "phone": "580-596-2800", "type": "FQHC", "site_type": "All Other Clinic Types", "center_type": "Federally Qualified Health Center (FQHC)", "source": "HRSA"}}, {"type": "Feature", "geometry": {"type": "Point", "coordinates": [-95.1531767914, 36.292928832846]}, "properties": {"name": "NeoHealth Salina Pharmacy", "address": "103 E Ferry St", "city": "Salina", "state": "OK", "zip": "74365", "phone": "918-434-7442", "type": "FQHC", "site_type": "All Other Clinic Types", "center_type": "Federally Qualified Health Center (FQHC)", "source": "HRSA"}}, {"type": "Feature", "geometry": {"type": "Point", "coordinates": [-96.221764388537, 34.526971011603]}, "properties": {"name": "FHCSO - Coalgate", "address": "107 E Post Ave", "city": "Coalgate", "state": "OK", "zip": "74538", "phone": "580-927-2828", "type": "FQHC", "site_type": "All Other Clinic Types", "center_type": "Federally Qualified Health Center (FQHC)", "source": "HRSA"}}, {"type": "Feature", "geometry": {"type": "Point", "coordinates": [-98.629131023911, 34.628624713278]}, "properties": {"name": "LCHC Cache", "address": "512 W C Ave", "city": "Cache", "state": "OK", "zip": "73527", "phone": "580-699-7355", "type": "FQHC", "site_type": "All Other Clinic Types", "center_type": "Federally Qualified Health Center (FQHC)", "source": "HRSA"}}, {"type": "Feature", "geometry": {"type": "Point", "coordinates": [-97.519088348397, 35.479438638015]}, "properties": {"name": "Variety Care at Palomar", "address": "1140 N Hudson Ave", "city": "Oklahoma City", "state": "OK", "zip": "73103", "phone": "405-636-1675", "type": "FQHC", "site_type": "All Other Clinic Types", "center_type": "Federally Qualified Health Center (FQHC)", "source": "HRSA"}}, {"type": "Feature", "geometry": {"type": "Point", "coordinates": [-96.758900643635, 34.960275417205]}, "properties": {"name": "Central Oklahoma Family Medical Center - Mobile Unit", "address": "527 W 3rd St", "city": "Konawa", "state": "OK", "zip": "74849", "phone": "580-436-5111", "type": "FQHC", "site_type": "All Other Clinic Types", "center_type": "Federally Qualified Health Center (FQHC)", "source": "HRSA"}}, {"type": "Feature", "geometry": {"type": "Point", "coordinates": [-98.478546457649, 34.623377706788]}, "properties": {"name": "LCHC Health Plex", "address": "7102 NW Cache Rd", "city": "Lawton", "state": "OK", "zip": "73505", "phone": "580-280-4652", "type": "FQHC", "site_type": "All Other Clinic Types", "center_type": "Federally Qualified Health Center (FQHC)", "source": "HRSA"}}, {"type": "Feature", "geometry": {"type": "Point", "coordinates": [-96.394363942403, 36.415601726249]}, "properties": {"name": "Hominy Family Health Center", "address": "119 W Main St", "city": "Hominy", "state": "OK", "zip": "74035", "phone": "918-885-4640", "type": "FQHC", "site_type": "All Other Clinic Types", "center_type": "Federally Qualified Health Center (FQHC)", "source": "HRSA"}}, {"type": "Feature", "geometry": {"type": "Point", "coordinates": [-95.766740166305, 34.917584364909]}, "properties": {"name": "HWC-McAlester Behavioral Health Clinic", "address": "609 E Peoria Ave", "city": "McAlester", "state": "OK", "zip": "74501", "phone": "918-967-3368", "type": "FQHC", "site_type": "All Other Clinic Types", "center_type": "Federally Qualified Health Center (FQHC)", "source": "HRSA"}}, {"type": "Feature", "geometry": {"type": "Point", "coordinates": [-96.241587675956, 35.237188330813]}, "properties": {"name": "East Central Oklahoma Family  Health Center, Inc.", "address": "109 S Main St", "city": "Wetumka", "state": "OK", "zip": "74883", "phone": "405-452-5400", "type": "FQHC", "site_type": "All Other Clinic Types", "center_type": "Federally Qualified Health Center (FQHC)", "source": "HRSA"}}, {"type": "Feature", "geometry": {"type": "Point", "coordinates": [-94.784675770145, 35.45986377737]}, "properties": {"name": "HWC Adventure Head Start-Sallisaw", "address": "200 N Holly St", "city": "Sallisaw", "state": "OK", "zip": "74955", "phone": "918-967-0748", "type": "FQHC", "site_type": "School", "center_type": "Federally Qualified Health Center (FQHC)", "source": "HRSA"}}, {"type": "Feature", "geometry": {"type": "Point", "coordinates": [-95.994806038603, 35.439828029047]}, "properties": {"name": "East Central Oklahoma Family Health Center, Inc.", "address": "1102 W Main St", "city": "Henryetta", "state": "OK", "zip": "74437", "phone": "918-652-0842", "type": "FQHC", "site_type": "All Other Clinic Types", "center_type": "Federally Qualified Health Center (FQHC)", "source": "HRSA"}}, {"type": "Feature", "geometry": {"type": "Point", "coordinates": [-97.638383579806, 35.583074476474]}, "properties": {"name": "Variety Care - Putnam North", "address": "11220 N Rockwell Ave", "city": "Oklahoma City", "state": "OK", "zip": "73162", "phone": "405-632-6688", "type": "FQHC", "site_type": "All Other Clinic Types", "center_type": "Federally Qualified Health Center (FQHC)", "source": "HRSA"}}, {"type": "Feature", "geometry": {"type": "Point", "coordinates": [-95.366862052286, 35.754621529873]}, "properties": {"name": "Muskogee Health Center - Green Country Campus", "address": "110 W Martin Luther King St", "city": "Muskogee", "state": "OK", "zip": "74401", "phone": "877-480-0111", "type": "FQHC", "site_type": "All Other Clinic Types", "center_type": "Federally Qualified Health Center (FQHC)", "source": "HRSA"}}, {"type": "Feature", "geometry": {"type": "Point", "coordinates": [-94.977036168701, 35.893735752272]}, "properties": {"name": "NeoHealth Tahlequah Pharmacy", "address": "1721 S Muskogee Ave", "city": "Tahlequah", "state": "OK", "zip": "74464", "phone": "918-772-3390", "type": "FQHC", "site_type": "All Other Clinic Types", "center_type": "Federally Qualified Health Center (FQHC)", "source": "HRSA"}}, {"type": "Feature", "geometry": {"type": "Point", "coordinates": [-98.345758317074, 34.594634805692]}, "properties": {"name": "LCHC Eastside", "address": "1102 SE 36th St", "city": "Lawton", "state": "OK", "zip": "73501", "phone": "580-585-5550", "type": "FQHC", "site_type": "All Other Clinic Types", "center_type": "Federally Qualified Health Center (FQHC)", "source": "HRSA"}}, {"type": "Feature", "geometry": {"type": "Point", "coordinates": [-96.659509207003, 34.781588589572]}, "properties": {"name": "Central Oklahoma Family Medical Center - ENT/Endo", "address": "1221 Arlington St, Ste B", "city": "Ada", "state": "OK", "zip": "74820", "phone": "580-925-3286", "type": "FQHC", "site_type": "All Other Clinic Types", "center_type": "Federally Qualified Health Center (FQHC)", "source": "HRSA"}}, {"type": "Feature", "geometry": {"type": "Point", "coordinates": [-95.519551701623, 35.46785340815]}, "properties": {"name": "HWC Adventure Head Start/Early Head Start  -  Checotah", "address": "214 SE 2nd St", "city": "Checotah", "state": "OK", "zip": "74426", "phone": "918-967-0748", "type": "FQHC", "site_type": "School", "center_type": "Federally Qualified Health Center (FQHC)", "source": "HRSA"}}, {"type": "Feature", "geometry": {"type": "Point", "coordinates": [-97.142885531111, 34.190622223283]}, "properties": {"name": "Good Shepherd Community Clinic, Inc. 1520 N Commerce", "address": "1520 N Commerce St", "city": "Ardmore", "state": "OK", "zip": "73401", "phone": "580-223-2006", "type": "FQHC", "site_type": "All Other Clinic Types", "center_type": "Federally Qualified Health Center (FQHC)", "source": "HRSA"}}, {"type": "Feature", "geometry": {"type": "Point", "coordinates": [-98.294397485682, 34.782498992991]}, "properties": {"name": "Elgin Community Health Center", "address": "7936 US Highway 277", "city": "Elgin", "state": "OK", "zip": "73538", "phone": "580-492-6900", "type": "FQHC", "site_type": "All Other Clinic Types", "center_type": "Federally Qualified Health Center (FQHC)", "source": "HRSA"}}, {"type": "Feature", "geometry": {"type": "Point", "coordinates": [-94.782395363127, 36.449337142074]}, "properties": {"name": "Jay Family Medicine Clinic", "address": "2485 N Main St", "city": "Jay", "state": "OK", "zip": "74346", "phone": "918-253-2550", "type": "FQHC", "site_type": "All Other Clinic Types", "center_type": "Federally Qualified Health Center (FQHC)", "source": "HRSA"}}, {"type": "Feature", "geometry": {"type": "Point", "coordinates": [-98.432754703649, 34.608922442329]}, "properties": {"name": "LCHC Great Plains Pediatrics", "address": "3201 W Gore Blvd", "city": "Lawton", "state": "OK", "zip": "73505", "phone": "580-353-8942", "type": "FQHC", "site_type": "All Other Clinic Types", "center_type": "Federally Qualified Health Center (FQHC)", "source": "HRSA"}}, {"type": "Feature", "geometry": {"type": "Point", "coordinates": [-98.42901910231, 34.594503300872]}, "properties": {"name": "LCHC Family Continuity Clinic", "address": "2609 SW Lee Blvd", "city": "Lawton", "state": "OK", "zip": "73505", "phone": "580-248-5242", "type": "FQHC", "site_type": "All Other Clinic Types", "center_type": "Federally Qualified Health Center (FQHC)", "source": "HRSA"}}, {"type": "Feature", "geometry": {"type": "Point", "coordinates": [-95.557789013125, 34.849932925756]}, "properties": {"name": "HWC Adventure Head Start/Early Head Start -  Hartshorne", "address": "821 Arapahoe Ave", "city": "Hartshorne", "state": "OK", "zip": "74547", "phone": "918-967-0748", "type": "FQHC", "site_type": "School", "center_type": "Federally Qualified Health Center (FQHC)", "source": "HRSA"}}, {"type": "Feature", "geometry": {"type": "Point", "coordinates": [-97.476873985009, 35.451186520881]}, "properties": {"name": "Variety Care Crooked Oak Family Health Center", "address": "1450 S Eastern Ave BLDG A", "city": "Oklahoma City", "state": "OK", "zip": "73129", "phone": "405-632-6688", "type": "FQHC", "site_type": "School", "center_type": "Federally Qualified Health Center (FQHC)", "source": "HRSA"}}, {"type": "Feature", "geometry": {"type": "Point", "coordinates": [-97.544022796981, 35.471020605761]}, "properties": {"name": "WestTown", "address": "1729 NW 3rd St", "city": "Oklahoma City", "state": "OK", "zip": "73106", "phone": "405-272-0476", "type": "FQHC", "site_type": "All Other Clinic Types", "center_type": "Federally Qualified Health Center (FQHC)", "source": "HRSA"}}, {"type": "Feature", "geometry": {"type": "Point", "coordinates": [-94.867414914959, 36.932312777854]}, "properties": {"name": "Commerce Community Health Center", "address": "220 S Mickey Mantle Blvd", "city": "Commerce", "state": "OK", "zip": "74339", "phone": "918-675-0017", "type": "FQHC", "site_type": "All Other Clinic Types", "center_type": "Federally Qualified Health Center (FQHC)", "source": "HRSA"}}, {"type": "Feature", "geometry": {"type": "Point", "coordinates": [-94.948854467376, 35.915301142498]}, "properties": {"name": "Tahlequah Medical Center", "address": "1500 E Downing St, Ste 214", "city": "Tahlequah", "state": "OK", "zip": "74464", "phone": "918-456-0011", "type": "FQHC", "site_type": "All Other Clinic Types", "center_type": "Federally Qualified Health Center (FQHC)", "source": "HRSA"}}, {"type": "Feature", "geometry": {"type": "Point", "coordinates": [-101.478875080486, 36.690632517532]}, "properties": {"name": "Panhandle Counseling and Health Center, Inc.", "address": "309 Medical Dr", "city": "Guymon", "state": "OK", "zip": "73942", "phone": "580-338-4638", "type": "FQHC", "site_type": "All Other Clinic Types", "center_type": "Federally Qualified Health Center (FQHC)", "source": "HRSA"}}, {"type": "Feature", "geometry": {"type": "Point", "coordinates": [-94.791027099505, 35.457151168627]}, "properties": {"name": "HWC Adventure Head Start - Sallisaw EHS", "address": "305 S Walnut St", "city": "Sallisaw", "state": "OK", "zip": "74955", "phone": "918-967-0748", "type": "FQHC", "site_type": "School", "center_type": "Federally Qualified Health Center (FQHC)", "source": "HRSA"}}, {"type": "Feature", "geometry": {"type": "Point", "coordinates": [-97.525853455907, 35.465345510144]}, "properties": {"name": "CITY RESCUE MISSION", "address": "800 W California Ave", "city": "Oklahoma City", "state": "OK", "zip": "73106", "phone": "405-769-3301", "type": "FQHC", "site_type": "All Other Clinic Types", "center_type": "Federally Qualified Health Center (FQHC)", "source": "HRSA"}}, {"type": "Feature", "geometry": {"type": "Point", "coordinates": [-95.848328402188, 36.133520897079]}, "properties": {"name": "Morton East Health Center", "address": "11511 E 21st St", "city": "Tulsa", "state": "OK", "zip": "74129", "phone": "918-439-4422", "type": "FQHC", "site_type": "All Other Clinic Types", "center_type": "Federally Qualified Health Center (FQHC)", "source": "HRSA"}}, {"type": "Feature", "geometry": {"type": "Point", "coordinates": [-95.143438055516, 35.932838897249]}, "properties": {"name": "NeoHealth Business Office", "address": "127 E Main St", "city": "Hulbert", "state": "OK", "zip": "74441", "phone": "918-772-3390", "type": "FQHC", "site_type": "Unknown", "center_type": "Federally Qualified Health Center (FQHC)", "source": "HRSA"}}, {"type": "Feature", "geometry": {"type": "Point", "coordinates": [-94.774357624616, 36.205315488608]}, "properties": {"name": "Kansas Medical Clinic", "address": "1261 E Tulsa Ave", "city": "Kansas", "state": "OK", "zip": "74347", "phone": "479-751-7417", "type": "FQHC", "site_type": "All Other Clinic Types", "center_type": "Federally Qualified Health Center (FQHC)", "source": "HRSA"}}, {"type": "Feature", "geometry": {"type": "Point", "coordinates": [-97.124232334451, 34.184649172704]}, "properties": {"name": "Good Shepherd Community Clinic, Inc.", "address": "20 12th Ave NW", "city": "Ardmore", "state": "OK", "zip": "73401", "phone": "580-223-3411", "type": "FQHC", "site_type": "All Other Clinic Types", "center_type": "Federally Qualified Health Center (FQHC)", "source": "HRSA"}}, {"type": "Feature", "geometry": {"type": "Point", "coordinates": [-94.948854467376, 35.915301142498]}, "properties": {"name": "NeoHealth Tahlequah Primary Care", "address": "1500 E Downing St, Ste 103", "city": "Tahlequah", "state": "OK", "zip": "74464", "phone": "918-708-3580", "type": "FQHC", "site_type": "All Other Clinic Types", "center_type": "Federally Qualified Health Center (FQHC)", "source": "HRSA"}}, {"type": "Feature", "geometry": {"type": "Point", "coordinates": [-97.473229809648, 35.296919111477]}, "properties": {"name": "Variety Care - Inasmuch Pediatric & Wellness Center", "address": "500 SW 44th St", "city": "Oklahoma City", "state": "OK", "zip": "73109", "phone": "405-235-6466", "type": "FQHC", "site_type": "All Other Clinic Types", "center_type": "Federally Qualified Health Center (FQHC)", "source": "HRSA"}}, {"type": "Feature", "geometry": {"type": "Point", "coordinates": [-97.589963532443, 35.53691763471]}, "properties": {"name": "Variety Care Executive Offices at Lakepointe Towers", "address": "4005 NW Expressway", "city": "Oklahoma City", "state": "OK", "zip": "73116", "phone": "405-632-6688", "type": "FQHC", "site_type": "All Other Clinic Types", "center_type": "Federally Qualified Health Center (FQHC)", "source": "HRSA"}}, {"type": "Feature", "geometry": {"type": "Point", "coordinates": [-94.973387970407, 35.495578104527]}, "properties": {"name": "HWC Adventure Head Start  -  Vian", "address": "301 W Hunter", "city": "Vian", "state": "OK", "zip": "74962", "phone": "918-967-0748", "type": "FQHC", "site_type": "School", "center_type": "Federally Qualified Health Center (FQHC)", "source": "HRSA"}}, {"type": "Feature", "geometry": {"type": "Point", "coordinates": [-98.365462590147, 34.888854857779]}, "properties": {"name": "LCHC Apache", "address": "1102 S Coblake St", "city": "Apache", "state": "OK", "zip": "73006", "phone": "580-588-3257", "type": "FQHC", "site_type": "All Other Clinic Types", "center_type": "Federally Qualified Health Center (FQHC)", "source": "HRSA"}}, {"type": "Feature", "geometry": {"type": "Point", "coordinates": [-96.635614965362, 34.781515508996]}, "properties": {"name": "Central Oklahoma Family Medical Center - W&F", "address": "2901 Arlington St", "city": "Ada", "state": "OK", "zip": "74820", "phone": "580-436-5511", "type": "FQHC", "site_type": "All Other Clinic Types", "center_type": "Federally Qualified Health Center (FQHC)", "source": "HRSA"}}, {"type": "Feature", "geometry": {"type": "Point", "coordinates": [-96.634826790814, 34.776659111145]}, "properties": {"name": "Central Oklahoma Family Medical Center - Sonography", "address": "325 N Monte Vista St", "city": "Ada", "state": "OK", "zip": "74820", "phone": "580-436-5111", "type": "FQHC", "site_type": "All Other Clinic Types", "center_type": "Federally Qualified Health Center (FQHC)", "source": "HRSA"}}, {"type": "Feature", "geometry": {"type": "Point", "coordinates": [-97.580231163512, 35.499643472947]}, "properties": {"name": "Variety Care Executive and Administration Offices", "address": "3000 N Grand Blvd", "city": "Oklahoma City", "state": "OK", "zip": "73107", "phone": "405-636-1675", "type": "FQHC", "site_type": "All Other Clinic Types", "center_type": "Federally Qualified Health Center (FQHC)", "source": "HRSA"}}, {"type": "Feature", "geometry": {"type": "Point", "coordinates": [-96.704243427857, 36.571565789251]}, "properties": {"name": "Fairfax Medical Facilities, Inc. - Administration Office", "address": "160 N Main St", "city": "Fairfax", "state": "OK", "zip": "74637", "phone": "918-642-3500 x233", "type": "FQHC", "site_type": "All Other Clinic Types", "center_type": "Federally Qualified Health Center (FQHC)", "source": "HRSA"}}, {"type": "Feature", "geometry": {"type": "Point", "coordinates": [-97.610899375468, 34.831369320237]}, "properties": {"name": "South Central Medical Center- Lindsay Campus", "address": "707 W Comanche St", "city": "Lindsay", "state": "OK", "zip": "73052", "phone": "405-756-1414", "type": "FQHC", "site_type": "School", "center_type": "Federally Qualified Health Center (FQHC)", "source": "HRSA"}}, {"type": "Feature", "geometry": {"type": "Point", "coordinates": [-98.434330829235, 34.608921298574]}, "properties": {"name": "COMANCHE CNTY HOSPITAL AUTHORITY", "address": "3401 W Gore Blvd", "city": "Lawton", "state": "OK", "zip": "73505", "phone": "580-355-5242", "type": "FQHC", "site_type": "All Other Clinic Types", "center_type": "Federally Qualified Health Center (FQHC)", "source": "HRSA"}}, {"type": "Feature", "geometry": {"type": "Point", "coordinates": [-97.083487840584, 36.70362592866]}, "properties": {"name": "Ponca City Family Health Center", "address": "122 E Grand Ave", "city": "Ponca City", "state": "OK", "zip": "74601", "phone": "580-203-8270", "type": "FQHC", "site_type": "All Other Clinic Types", "center_type": "Federally Qualified Health Center (FQHC)", "source": "HRSA"}}, {"type": "Feature", "geometry": {"type": "Point", "coordinates": [-95.894274561664, 36.096584547386]}, "properties": {"name": "HWC Provider + Tulsa", "address": "7485 E 46th Pl STE B", "city": "Tulsa", "state": "OK", "zip": "74145", "phone": "539-200-0415", "type": "FQHC", "site_type": "All Other Clinic Types", "center_type": "Federally Qualified Health Center (FQHC)", "source": "HRSA"}}, {"type": "Feature", "geometry": {"type": "Point", "coordinates": [-97.534259085657, 35.387101853605]}, "properties": {"name": "Variety Care - Straka Family Health Center", "address": "1025 Straka Ter", "city": "Oklahoma City", "state": "OK", "zip": "73139", "phone": "405-632-6688", "type": "FQHC", "site_type": "All Other Clinic Types", "center_type": "Federally Qualified Health Center (FQHC)", "source": "HRSA"}}, {"type": "Feature", "geometry": {"type": "Point", "coordinates": [-95.548438490449, 34.842740254885]}, "properties": {"name": "Caring Hands Healthcare Centers - Hartshorne", "address": "1429 Pennsylvania Ave", "city": "Hartshorne", "state": "OK", "zip": "74547", "phone": "918-297-2403", "type": "FQHC", "site_type": "All Other Clinic Types", "center_type": "Federally Qualified Health Center (FQHC)", "source": "HRSA"}}, {"type": "Feature", "geometry": {"type": "Point", "coordinates": [-96.652286120235, 34.783271090085]}, "properties": {"name": "Central Oklahoma Family Medical Center - Peds I", "address": "930 N Country Club Rd", "city": "Ada", "state": "OK", "zip": "74820", "phone": "580-436-5111", "type": "FQHC", "site_type": "All Other Clinic Types", "center_type": "Federally Qualified Health Center (FQHC)", "source": "HRSA"}}, {"type": "Feature", "geometry": {"type": "Point", "coordinates": [-97.214112640166, 34.720134980971]}, "properties": {"name": "South Central Medical Center- Pauls Valley", "address": "200 Melville Dr", "city": "Pauls Valley", "state": "OK", "zip": "73075", "phone": "405-756-1414", "type": "FQHC", "site_type": "All Other Clinic Types", "center_type": "Federally Qualified Health Center (FQHC)", "source": "HRSA"}}, {"type": "Feature", "geometry": {"type": "Point", "coordinates": [-94.948854467376, 35.915301142498]}, "properties": {"name": "NeoHealth Pediatrics", "address": "1500 E Downing St, Ste 102", "city": "Tahlequah", "state": "OK", "zip": "74464", "phone": "918-207-0773", "type": "FQHC", "site_type": "All Other Clinic Types", "center_type": "Federally Qualified Health Center (FQHC)", "source": "HRSA"}}, {"type": "Feature", "geometry": {"type": "Point", "coordinates": [-96.923597750319, 35.327785305005]}, "properties": {"name": "Community Health Shawnee Family Medical Center", "address": "130 N Broadway Ave STE 300", "city": "Shawnee", "state": "OK", "zip": "74801", "phone": "405-395-0399", "type": "FQHC", "site_type": "All Other Clinic Types", "center_type": "Federally Qualified Health Center (FQHC)", "source": "HRSA"}}, {"type": "Feature", "geometry": {"type": "Point", "coordinates": [-97.443575435139, 35.413169019229]}, "properties": {"name": "Community Health Highland Park Family Medical Center", "address": "5301 S Dimple Dr", "city": "Oklahoma City", "state": "OK", "zip": "73135", "phone": "405-674-0028", "type": "FQHC", "site_type": "All Other Clinic Types", "center_type": "Federally Qualified Health Center (FQHC)", "source": "HRSA"}}, {"type": "Feature", "geometry": {"type": "Point", "coordinates": [-95.97950794028, 36.205910299564]}, "properties": {"name": "Crossover Health Services at 36th Street", "address": "940 E 36th St N", "city": "Tulsa", "state": "OK", "zip": "74106", "phone": "918-398-9460", "type": "FQHC", "site_type": "All Other Clinic Types", "center_type": "Federally Qualified Health Center (FQHC) Look-Alike", "source": "HRSA"}}, {"type": "Feature", "geometry": {"type": "Point", "coordinates": [-97.534259085657, 35.387101853605]}, "properties": {"name": "Variety Care Women's Health Van", "address": "1025 Straka Ter", "city": "Oklahoma City", "state": "OK", "zip": "73139", "phone": "405-632-6688", "type": "FQHC", "site_type": "All Other Clinic Types", "center_type": "Federally Qualified Health Center (FQHC)", "source": "HRSA"}}, {"type": "Feature", "geometry": {"type": "Point", "coordinates": [-98.43123048532, 34.608011944131]}, "properties": {"name": "LCHC Lawton Pediatrics", "address": "2701 SW Cornell Ave", "city": "Lawton", "state": "OK", "zip": "73505", "phone": "580-248-0696", "type": "FQHC", "site_type": "All Other Clinic Types", "center_type": "Federally Qualified Health Center (FQHC)", "source": "HRSA"}}, {"type": "Feature", "geometry": {"type": "Point", "coordinates": [-95.979703434091, 36.156765759972]}, "properties": {"name": "Youth Services Tulsa", "address": "1001 E 3rd St", "city": "Tulsa", "state": "OK", "zip": "74120", "phone": "918-622-0641", "type": "FQHC", "site_type": "All Other Clinic Types", "center_type": "Federally Qualified Health Center (FQHC)", "source": "HRSA"}}, {"type": "Feature", "geometry": {"type": "Point", "coordinates": [-97.421237255404, 35.218428140002]}, "properties": {"name": "Variety Care Women and Children Norman", "address": "1237 Alameda St", "city": "Norman", "state": "OK", "zip": "73071", "phone": "405-632-6688", "type": "FQHC", "site_type": "All Other Clinic Types", "center_type": "Federally Qualified Health Center (FQHC)", "source": "HRSA"}}, {"type": "Feature", "geometry": {"type": "Point", "coordinates": [-96.634837313901, 34.781304750993]}, "properties": {"name": "Central Oklahoma Family Medical Center - Behavioral Health", "address": "625 N Monte Vista St", "city": "Ada", "state": "OK", "zip": "74820", "phone": "580-436-5111", "type": "FQHC", "site_type": "All Other Clinic Types", "center_type": "Federally Qualified Health Center (FQHC)", "source": "HRSA"}}, {"type": "Feature", "geometry": {"type": "Point", "coordinates": [-95.310906687328, 35.494010032226]}, "properties": {"name": "HWC - Warner", "address": "806 Campbell Ave STE A", "city": "Warner", "state": "OK", "zip": "74469", "phone": "918-967-3368", "type": "FQHC", "site_type": "All Other Clinic Types", "center_type": "Federally Qualified Health Center (FQHC)", "source": "HRSA"}}, {"type": "Feature", "geometry": {"type": "Point", "coordinates": [-97.750079739494, 35.493327602315]}, "properties": {"name": "Variety Care - Yukon", "address": "508 W Vandament Ave, Ste 210", "city": "Yukon", "state": "OK", "zip": "73099", "phone": "405-632-6688", "type": "FQHC", "site_type": "All Other Clinic Types", "center_type": "Federally Qualified Health Center (FQHC)", "source": "HRSA"}}, {"type": "Feature", "geometry": {"type": "Point", "coordinates": [-97.590824027826, 35.478808600708]}, "properties": {"name": "Variety Care Tenth Street Family Medical Center", "address": "4023 NW 10th St", "city": "Oklahoma City", "state": "OK", "zip": "73107", "phone": "405-632-6688", "type": "FQHC", "site_type": "All Other Clinic Types", "center_type": "Federally Qualified Health Center (FQHC)", "source": "HRSA"}}, {"type": "Feature", "geometry": {"type": "Point", "coordinates": [-97.442407650055, 35.230590949265]}, "properties": {"name": "Variety Care Norman", "address": "317 E Himes St", "city": "Norman", "state": "OK", "zip": "73069", "phone": "405-632-6688", "type": "FQHC", "site_type": "All Other Clinic Types", "center_type": "Federally Qualified Health Center (FQHC)", "source": "HRSA"}}, {"type": "Feature", "geometry": {"type": "Point", "coordinates": [-97.454450613833, 35.638181476025]}, "properties": {"name": "Variety Care Turtle Creek-Edmond", "address": "2000 E 15th St, Ste 400A", "city": "Edmond", "state": "OK", "zip": "73013", "phone": "405-632-6688", "type": "FQHC", "site_type": "All Other Clinic Types", "center_type": "Federally Qualified Health Center (FQHC)", "source": "HRSA"}}, {"type": "Feature", "geometry": {"type": "Point", "coordinates": [-94.983198257577, 35.89938783721]}, "properties": {"name": "Tahlequah ENT", "address": "1203 E Ross St", "city": "Tahlequah", "state": "OK", "zip": "74464", "phone": "918-772-3390 x23390", "type": "FQHC", "site_type": "All Other Clinic Types", "center_type": "Federally Qualified Health Center (FQHC)", "source": "HRSA"}}, {"type": "Feature", "geometry": {"type": "Point", "coordinates": [-97.942879949216, 36.405374959757]}, "properties": {"name": "GSP Health Enid West", "address": "5320 W Chestnut Ave", "city": "Enid", "state": "OK", "zip": "73703", "phone": "580-233-2900", "type": "FQHC", "site_type": "All Other Clinic Types", "center_type": "Federally Qualified Health Center (FQHC)", "source": "HRSA"}}, {"type": "Feature", "geometry": {"type": "Point", "coordinates": [-96.689218530103, 35.246366507052]}, "properties": {"name": "Central Oklahoma Family Medical Center - Seminole", "address": "2403 W Wrangler Blvd", "city": "Seminole", "state": "OK", "zip": "74868", "phone": "580-925-3286", "type": "FQHC", "site_type": "All Other Clinic Types", "center_type": "Federally Qualified Health Center (FQHC)", "source": "HRSA"}}, {"type": "Feature", "geometry": {"type": "Point", "coordinates": [-95.510878481155, 35.466148806124]}, "properties": {"name": "HWC-Checotah Clinic", "address": "1002 W Gentry Ave", "city": "Checotah", "state": "OK", "zip": "74426", "phone": "918-473-4547", "type": "FQHC", "site_type": "All Other Clinic Types", "center_type": "Federally Qualified Health Center (FQHC)", "source": "HRSA"}}, {"type": "Feature", "geometry": {"type": "Point", "coordinates": [-97.878634336637, 36.396576969622]}, "properties": {"name": "GSP Health Enid Downtown", "address": "115 W Broadway Ave", "city": "Enid", "state": "OK", "zip": "73701", "phone": "580-215-1766", "type": "FQHC", "site_type": "All Other Clinic Types", "center_type": "Federally Qualified Health Center (FQHC)", "source": "HRSA"}}, {"type": "Feature", "geometry": {"type": "Point", "coordinates": [-95.340300848819, 35.751852043664]}, "properties": {"name": "NeoHealth Muskogee Medical Clinic", "address": "922 N York St", "city": "Muskogee", "state": "OK", "zip": "74403", "phone": "918-683-0470", "type": "FQHC", "site_type": "All Other Clinic Types", "center_type": "Federally Qualified Health Center (FQHC)", "source": "HRSA"}}, {"type": "Feature", "geometry": {"type": "Point", "coordinates": [-98.431598912375, 34.609221064962]}, "properties": {"name": "LCHC Primary Health Care Center at Comanche County Memorial Hospital", "address": "110 NW 31st St", "city": "Lawton", "state": "OK", "zip": "73505", "phone": "580-585-5549", "type": "FQHC", "site_type": "Hospital", "center_type": "Federally Qualified Health Center (FQHC)", "source": "HRSA"}}, {"type": "Feature", "geometry": {"type": "Point", "coordinates": [-95.964883487614, 36.750779689961]}, "properties": {"name": "HWC Provider+ Bartlesville", "address": "1120 SE Frank Phillips Blvd", "city": "Bartlesville", "state": "OK", "zip": "74003", "phone": "539-337-0006", "type": "FQHC", "site_type": "All Other Clinic Types", "center_type": "Federally Qualified Health Center (FQHC)", "source": "HRSA"}}, {"type": "Feature", "geometry": {"type": "Point", "coordinates": [-101.474589385258, 36.690835080326]}, "properties": {"name": "Panhandle Counseling and Health Center Outreach Center", "address": "1309 N East St", "city": "Guymon", "state": "OK", "zip": "73942", "phone": "580-338-0072", "type": "FQHC", "site_type": "All Other Clinic Types", "center_type": "Federally Qualified Health Center (FQHC)", "source": "HRSA"}}, {"type": "Feature", "geometry": {"type": "Point", "coordinates": [-98.964830720695, 35.512074440517]}, "properties": {"name": "Variety Care Clinton", "address": "316 S 4th St", "city": "Clinton", "state": "OK", "zip": "73601", "phone": "405-632-6688", "type": "FQHC", "site_type": "All Other Clinic Types", "center_type": "Federally Qualified Health Center (FQHC)", "source": "HRSA"}}, {"type": "Feature", "geometry": {"type": "Point", "coordinates": [-94.626944905918, 35.089479444786]}, "properties": {"name": "HWC - Poteau", "address": "1120 Tarby Rd", "city": "Poteau", "state": "OK", "zip": "74953", "phone": "918-967-3368", "type": "FQHC", "site_type": "All Other Clinic Types", "center_type": "Federally Qualified Health Center (FQHC)", "source": "HRSA"}}, {"type": "Feature", "geometry": {"type": "Point", "coordinates": [-95.940269639136, 36.128787872597]}, "properties": {"name": "Morton Family & Children's Health Center", "address": "2325 S Harvard Ave", "city": "Tulsa", "state": "OK", "zip": "74114", "phone": "918-295-6100", "type": "FQHC", "site_type": "All Other Clinic Types", "center_type": "Federally Qualified Health Center (FQHC)", "source": "HRSA"}}, {"type": "Feature", "geometry": {"type": "Point", "coordinates": [-98.385390444154, 34.602455186658]}, "properties": {"name": "LCHC Call Center", "address": "602 SE Wallock St", "city": "Lawton", "state": "OK", "zip": "73501", "phone": "580-355-5242", "type": "FQHC", "site_type": "All Other Clinic Types", "center_type": "Federally Qualified Health Center (FQHC)", "source": "HRSA"}}, {"type": "Feature", "geometry": {"type": "Point", "coordinates": [-99.095887573316, 35.016507682818]}, "properties": {"name": "Variety Care Hobart", "address": "1000 S Broadway", "city": "Hobart", "state": "OK", "zip": "73651", "phone": "405-632-6688", "type": "FQHC", "site_type": "All Other Clinic Types", "center_type": "Federally Qualified Health Center (FQHC)", "source": "HRSA"}}, {"type": "Feature", "geometry": {"type": "Point", "coordinates": [-97.451264072327, 35.457151430394]}, "properties": {"name": "Variety Care Mid-Del Family Health Center", "address": "3851 Tinker Diagonal", "city": "Oklahoma City", "state": "OK", "zip": "73115", "phone": "405-677-1129", "type": "FQHC", "site_type": "All Other Clinic Types", "center_type": "Federally Qualified Health Center (FQHC)", "source": "HRSA"}}, {"type": "Feature", "geometry": {"type": "Point", "coordinates": [-96.662372364369, 34.781594373243]}, "properties": {"name": "Central Oklahoma Family Medical Center- Arlington Pharmacy", "address": "1131 Arlington St", "city": "Ada", "state": "OK", "zip": "74820", "phone": "580-436-5111", "type": "FQHC", "site_type": "Unknown", "center_type": "Federally Qualified Health Center (FQHC)", "source": "HRSA"}}, {"type": "Feature", "geometry": {"type": "Point", "coordinates": [-95.9591666817, 36.156633381136]}, "properties": {"name": "K-W- Clinical Construction Project", "address": "2321 E 3rd St", "city": "Tulsa", "state": "OK", "zip": "74104", "phone": "918-622-0641", "type": "FQHC", "site_type": "All Other Clinic Types", "center_type": "Federally Qualified Health Center (FQHC)", "source": "HRSA"}}, {"type": "Feature", "geometry": {"type": "Point", "coordinates": [-97.129191607759, 34.172968050213]}, "properties": {"name": "7 A Street NW-Admin", "address": "7 A St NW", "city": "Ardmore", "state": "OK", "zip": "73401", "phone": "580-223-3411", "type": "FQHC", "site_type": "Unknown", "center_type": "Federally Qualified Health Center (FQHC)", "source": "HRSA"}}, {"type": "Feature", "geometry": {"type": "Point", "coordinates": [-95.750609922551, 34.934304841447]}, "properties": {"name": "Caring Hands Healthcare Centers @ MRHC", "address": "4 E Clark Bass Blvd", "city": "McAlester", "state": "OK", "zip": "74501", "phone": "918-426-2442", "type": "FQHC", "site_type": "All Other Clinic Types", "center_type": "Federally Qualified Health Center (FQHC)", "source": "HRSA"}}, {"type": "Feature", "geometry": {"type": "Point", "coordinates": [-94.932346663754, 34.395947579084]}, "properties": {"name": "Kiamichi Family Medical Center", "address": "6026 Battiest Pickens Rd", "city": "Broken Bow", "state": "OK", "zip": "74728", "phone": "580-447-2910", "type": "FQHC", "site_type": "All Other Clinic Types", "center_type": "Federally Qualified Health Center (FQHC)", "source": "HRSA"}}, {"type": "Feature", "geometry": {"type": "Point", "coordinates": [-98.406440075488, 34.609796126029]}, "properties": {"name": "LCHC Midtown", "address": "1202 NW Arlington Ave", "city": "Lawton", "state": "OK", "zip": "73507", "phone": "580-248-2288", "type": "FQHC", "site_type": "All Other Clinic Types", "center_type": "Federally Qualified Health Center (FQHC)", "source": "HRSA"}}, {"type": "Feature", "geometry": {"type": "Point", "coordinates": [-97.48331214975, 35.05596917203]}, "properties": {"name": "South Central Medical Center - Washington Site", "address": "101 E Kerby Ave", "city": "Washington", "state": "OK", "zip": "73093", "phone": "405-756-1414", "type": "FQHC", "site_type": "School", "center_type": "Federally Qualified Health Center (FQHC)", "source": "HRSA"}}, {"type": "Feature", "geometry": {"type": "Point", "coordinates": [-96.061020399397, 36.144434642825]}, "properties": {"name": "Morton West Tulsa Health Center", "address": "6116 W 11th St", "city": "Tulsa", "state": "OK", "zip": "74127", "phone": "918-587-2171", "type": "FQHC", "site_type": "All Other Clinic Types", "center_type": "Federally Qualified Health Center (FQHC)", "source": "HRSA"}}, {"type": "Feature", "geometry": {"type": "Point", "coordinates": [-95.843271782307, 36.118900508022]}, "properties": {"name": "Community Health Connection, Inc. - Ellen Ochoa", "address": "12020 E 31st St", "city": "Tulsa", "state": "OK", "zip": "74146", "phone": "918-622-0641", "type": "FQHC", "site_type": "School", "center_type": "Federally Qualified Health Center (FQHC)", "source": "HRSA"}}, {"type": "Feature", "geometry": {"type": "Point", "coordinates": [-97.305673415056, 35.507582491472]}, "properties": {"name": "Mary Mahoney Memorial Health Center", "address": "12716 NE 36th St", "city": "Spencer", "state": "OK", "zip": "73084", "phone": "405-769-3301", "type": "FQHC", "site_type": "All Other Clinic Types", "center_type": "Federally Qualified Health Center (FQHC)", "source": "HRSA"}}, {"type": "Feature", "geometry": {"type": "Point", "coordinates": [-97.494397594186, 35.486909504735]}, "properties": {"name": "Perry A. Klaassen Family Medical Center", "address": "1006 NE 17th St", "city": "Oklahoma City", "state": "OK", "zip": "73111", "phone": "405-419-9800", "type": "FQHC", "site_type": "All Other Clinic Types", "center_type": "Federally Qualified Health Center (FQHC)", "source": "HRSA"}}, {"type": "Feature", "geometry": {"type": "Point", "coordinates": [-95.143460699367, 35.932724305874]}, "properties": {"name": "Hulbert Health Center", "address": "124 E Main St", "city": "Hulbert", "state": "OK", "zip": "74441", "phone": "918-772-2879", "type": "FQHC", "site_type": "All Other Clinic Types", "center_type": "Federally Qualified Health Center (FQHC)", "source": "HRSA"}}, {"type": "Feature", "geometry": {"type": "Point", "coordinates": [-95.320129777047, 34.919911665054]}, "properties": {"name": "HWC - Wilburton", "address": "802 Highway 2 N", "city": "Wilburton", "state": "OK", "zip": "74578", "phone": "918-465-0005", "type": "FQHC", "site_type": "All Other Clinic Types", "center_type": "Federally Qualified Health Center (FQHC)", "source": "HRSA"}}, {"type": "Feature", "geometry": {"type": "Point", "coordinates": [-95.107888695409, 35.255909408019]}, "properties": {"name": "HWC-Adventure Head Start Stigler", "address": "1505 E Main St, Unit B", "city": "Stigler", "state": "OK", "zip": "74462", "phone": "800-640-9741", "type": "FQHC", "site_type": "School", "center_type": "Federally Qualified Health Center (FQHC)", "source": "HRSA"}}, {"type": "Feature", "geometry": {"type": "Point", "coordinates": [-97.880514261356, 36.398915366115]}, "properties": {"name": "GSP Health Administrative Office", "address": "205 W Maple Ave", "city": "Enid", "state": "OK", "zip": "73701", "phone": "580-596-2800", "type": "FQHC", "site_type": "Unknown", "center_type": "Federally Qualified Health Center (FQHC)", "source": "HRSA"}}, {"type": "Feature", "geometry": {"type": "Point", "coordinates": [-95.15320006999, 36.292928832847]}, "properties": {"name": "NeoHealth Salina", "address": "101 E Ferry St", "city": "Salina", "state": "OK", "zip": "74365", "phone": "918-434-7440", "type": "FQHC", "site_type": "All Other Clinic Types", "center_type": "Federally Qualified Health Center (FQHC)", "source": "HRSA"}}, {"type": "Feature", "geometry": {"type": "Point", "coordinates": [-96.493571656684, 35.158785104536]}, "properties": {"name": "East Central Oklahoma Family Health Center, Inc.", "address": "207 W 1st St", "city": "Wewoka", "state": "OK", "zip": "74884", "phone": "405-257-5433", "type": "FQHC", "site_type": "All Other Clinic Types", "center_type": "Federally Qualified Health Center (FQHC)", "source": "HRSA"}}, {"type": "Feature", "geometry": {"type": "Point", "coordinates": [-99.335328394199, 34.637749966452]}, "properties": {"name": "Shortgrass Community Health Center Altus", "address": "101 S Hudson St", "city": "Altus", "state": "OK", "zip": "73521", "phone": "580-688-2800", "type": "FQHC", "site_type": "All Other Clinic Types", "center_type": "Federally Qualified Health Center (FQHC)", "source": "HRSA"}}, {"type": "Feature", "geometry": {"type": "Point", "coordinates": [-95.824745305111, 36.097034085105]}, "properties": {"name": "Community Health Connection Rosa Parks Clinic", "address": "13702 E 46th Pl", "city": "Tulsa", "state": "OK", "zip": "74134", "phone": "918-622-0641", "type": "FQHC", "site_type": "School", "center_type": "Federally Qualified Health Center (FQHC)", "source": "HRSA"}}, {"type": "Feature", "geometry": {"type": "Point", "coordinates": [-97.974220987183, 34.36472489098]}, "properties": {"name": "Comanche School Health Center", "address": "1030 Ash Ave", "city": "Comanche", "state": "OK", "zip": "73529", "phone": "580-439-2919", "type": "FQHC", "site_type": "School", "center_type": "Federally Qualified Health Center (FQHC)", "source": "HRSA"}}, {"type": "Feature", "geometry": {"type": "Point", "coordinates": [-97.602642633374, 34.835538526675]}, "properties": {"name": "South Central Medical Center - Behavioral Health", "address": "217 S Main St", "city": "Lindsay", "state": "OK", "zip": "73052", "phone": "405-756-1414", "type": "FQHC", "site_type": "All Other Clinic Types", "center_type": "Federally Qualified Health Center (FQHC)", "source": "HRSA"}}, {"type": "Feature", "geometry": {"type": "Point", "coordinates": [-95.76681874492, 34.929218822261]}, "properties": {"name": "Caring Hands Healthcare Centers - 3rd Street", "address": "200 S 3rd St, Ste B", "city": "Mcalester", "state": "OK", "zip": "74501", "phone": "918-426-2442", "type": "FQHC", "site_type": "All Other Clinic Types", "center_type": "Federally Qualified Health Center (FQHC)", "source": "HRSA"}}, {"type": "Feature", "geometry": {"type": "Point", "coordinates": [-97.521420924567, 35.424559090868]}, "properties": {"name": "Variety Care at Pete White Health and Wellness Center", "address": "4021 S Walker Ave, Ste 201", "city": "Oklahoma City", "state": "OK", "zip": "73109", "phone": "405-632-6688", "type": "FQHC", "site_type": "All Other Clinic Types", "center_type": "Federally Qualified Health Center (FQHC)", "source": "HRSA"}}, {"type": "Feature", "geometry": {"type": "Point", "coordinates": [-96.668064319737, 34.230529178499]}, "properties": {"name": "FHCSO-Administration Office", "address": "880 E Main St", "city": "Tishomingo", "state": "OK", "zip": "73460", "phone": "580-371-2343 x3322", "type": "FQHC", "site_type": "Unknown", "center_type": "Federally Qualified Health Center (FQHC)", "source": "HRSA"}}, {"type": "Feature", "geometry": {"type": "Point", "coordinates": [-96.702971964317, 36.573494140851]}, "properties": {"name": "Fairfax Medical Facilities, Inc. - Billing Office", "address": "301 N 2nd St", "city": "Fairfax", "state": "OK", "zip": "74637", "phone": "918-642-3100 x219", "type": "FQHC", "site_type": "All Other Clinic Types", "center_type": "Federally Qualified Health Center (FQHC)", "source": "HRSA"}}, {"type": "Feature", "geometry": {"type": "Point", "coordinates": [-97.590281585856, 35.464049513655]}, "properties": {"name": "Variety Care - Reno", "address": "4000 W Reno Ave", "city": "Oklahoma City", "state": "OK", "zip": "73107", "phone": "405-632-6688", "type": "FQHC", "site_type": "All Other Clinic Types", "center_type": "Federally Qualified Health Center (FQHC)", "source": "HRSA"}}, {"type": "Feature", "geometry": {"type": "Point", "coordinates": [-97.658233959522, 35.13695150984]}, "properties": {"name": "South Central Medical Center- Dibble Campus", "address": "100 Main St", "city": "Blanchard", "state": "OK", "zip": "73010", "phone": "405-756-1414", "type": "FQHC", "site_type": "School", "center_type": "Federally Qualified Health Center (FQHC)", "source": "HRSA"}}, {"type": "Feature", "geometry": {"type": "Point", "coordinates": [-98.433880916693, 35.097446115402]}, "properties": {"name": "Variety Care - Ft. Cobb Health Center", "address": "111 W Main St", "city": "Fort Cobb", "state": "OK", "zip": "73038", "phone": "866-388-6688", "type": "FQHC", "site_type": "All Other Clinic Types", "center_type": "Federally Qualified Health Center (FQHC)", "source": "HRSA"}}, {"type": "Feature", "geometry": {"type": "Point", "coordinates": [-96.959287105953, 34.796689848669]}, "properties": {"name": "Central Oklahoma Family Medical Center - Stratford", "address": "302 W Smith", "city": "Stratford", "state": "OK", "zip": "74872", "phone": "580-925-3286", "type": "FQHC", "site_type": "All Other Clinic Types", "center_type": "Federally Qualified Health Center (FQHC)", "source": "HRSA"}}, {"type": "Feature", "geometry": {"type": "Point", "coordinates": [-94.96470002854, 35.917761172019]}, "properties": {"name": "NeoHealth Medical Center", "address": "529 N Oak Ave", "city": "Tahlequah", "state": "OK", "zip": "74464", "phone": "918-444-2126", "type": "FQHC", "site_type": "All Other Clinic Types", "center_type": "Federally Qualified Health Center (FQHC)", "source": "HRSA"}}, {"type": "Feature", "geometry": {"type": "Point", "coordinates": [-95.645643084691, 35.952420670594]}, "properties": {"name": "AVV Administration Offices", "address": "29692 E State Highway 51", "city": "Coweta", "state": "OK", "zip": "74429", "phone": "918-887-8218", "type": "FQHC", "site_type": "Unknown", "center_type": "Federally Qualified Health Center (FQHC)", "source": "HRSA"}}, {"type": "Feature", "geometry": {"type": "Point", "coordinates": [-97.73242314672, 36.814343055443]}, "properties": {"name": "GSP Health Medford", "address": "619 N Front St", "city": "Medford", "state": "OK", "zip": "73759", "phone": "580-596-2800", "type": "FQHC", "site_type": "All Other Clinic Types", "center_type": "Federally Qualified Health Center (FQHC)", "source": "HRSA"}}, {"type": "Feature", "geometry": {"type": "Point", "coordinates": [-97.836715775286, 36.39594627249]}, "properties": {"name": "GSP Health Mobile Medical Clinic 1", "address": "231 S 30th St", "city": "Enid", "state": "OK", "zip": "73701", "phone": "580-233-2900", "type": "FQHC", "site_type": "All Other Clinic Types", "center_type": "Federally Qualified Health Center (FQHC)", "source": "HRSA"}}, {"type": "Feature", "geometry": {"type": "Point", "coordinates": [-98.432754703649, 34.608922442329]}, "properties": {"name": "LCHC Family Care Clinic", "address": "3201 W Gore Blvd", "city": "Lawton", "state": "OK", "zip": "73505", "phone": "580-250-6540", "type": "FQHC", "site_type": "All Other Clinic Types", "center_type": "Federally Qualified Health Center (FQHC)", "source": "HRSA"}}, {"type": "Feature", "geometry": {"type": "Point", "coordinates": [-97.476527700448, 35.542133494079]}, "properties": {"name": "Millwood School Clinic", "address": "6724 N Martin Luther King Ave", "city": "Oklahoma City", "state": "OK", "zip": "73111", "phone": "405-419-9800", "type": "FQHC", "site_type": "School", "center_type": "Federally Qualified Health Center (FQHC)", "source": "HRSA"}}, {"type": "Feature", "geometry": {"type": "Point", "coordinates": [-98.395448571668, 34.594217707877]}, "properties": {"name": "LCHC Southcare Clinic", "address": "512 SW Lee Blvd", "city": "Lawton", "state": "OK", "zip": "73501", "phone": "580-280-4413", "type": "FQHC", "site_type": "All Other Clinic Types", "center_type": "Federally Qualified Health Center (FQHC)", "source": "HRSA"}}, {"type": "Feature", "geometry": {"type": "Point", "coordinates": [-96.648239292991, 34.781685180406]}, "properties": {"name": "Central Oklahoma Family Medical Center - HIO", "address": "2020 Arlington St", "city": "Ada", "state": "OK", "zip": "74820", "phone": "580-436-5111", "type": "FQHC", "site_type": "Unknown", "center_type": "Federally Qualified Health Center (FQHC)", "source": "HRSA"}}, {"type": "Feature", "geometry": {"type": "Point", "coordinates": [-97.519401921422, 35.480067098614]}, "properties": {"name": "HEALING HANDS HLTH CARE SVCS", "address": "411 NW 11th St", "city": "Oklahoma City", "state": "OK", "zip": "73103", "phone": "405-272-0476", "type": "FQHC", "site_type": "All Other Clinic Types", "center_type": "Federally Qualified Health Center (FQHC)", "source": "HRSA"}}, {"type": "Feature", "geometry": {"type": "Point", "coordinates": [-94.739642055735, 34.022574313381]}, "properties": {"name": "Kiamichi Family Medical Center, Inc. - Broken Bow", "address": "510 S Park Dr", "city": "Broken Bow", "state": "OK", "zip": "74728", "phone": "580-286-6688", "type": "FQHC", "site_type": "All Other Clinic Types", "center_type": "Federally Qualified Health Center (FQHC)", "source": "HRSA"}}, {"type": "Feature", "geometry": {"type": "Point", "coordinates": [-95.143391869594, 35.932838558419]}, "properties": {"name": "NeoHealth Hulbert Pharmacy", "address": "131 E Main St", "city": "Hulbert", "state": "OK", "zip": "74441", "phone": "918-772-2727", "type": "FQHC", "site_type": "All Other Clinic Types", "center_type": "Federally Qualified Health Center (FQHC)", "source": "HRSA"}}, {"type": "Feature", "geometry": {"type": "Point", "coordinates": [-94.873010351518, 35.926308422606]}, "properties": {"name": "HWC Adventure Head Start - Briggs", "address": "17210 S 569 Rd", "city": "Tahlequah", "state": "OK", "zip": "74464", "phone": "918-967-0748", "type": "FQHC", "site_type": "School", "center_type": "Federally Qualified Health Center (FQHC)", "source": "HRSA"}}, {"type": "Feature", "geometry": {"type": "Point", "coordinates": [-95.650369378362, 35.945812142957]}, "properties": {"name": "Coweta Health Center", "address": "607 S Broadway", "city": "Coweta", "state": "OK", "zip": "74429", "phone": "918-486-5564", "type": "FQHC", "site_type": "All Other Clinic Types", "center_type": "Federally Qualified Health Center (FQHC)", "source": "HRSA"}}, {"type": "Feature", "geometry": {"type": "Point", "coordinates": [-95.332985863933, 36.260629287004]}, "properties": {"name": "NeoHealth Pryor Family Medical Center", "address": "5319 S Mill St", "city": "Pryor", "state": "OK", "zip": "74361", "phone": "918-772-3390", "type": "FQHC", "site_type": "All Other Clinic Types", "center_type": "Federally Qualified Health Center (FQHC)", "source": "HRSA"}}, {"type": "Feature", "geometry": {"type": "Point", "coordinates": [-96.638272945369, 34.781525588555]}, "properties": {"name": "Central Oklahoma Family Medical Center - Lab", "address": "2721 Arlington St", "city": "Ada", "state": "OK", "zip": "74820", "phone": "580-436-5111", "type": "FQHC", "site_type": "Unknown", "center_type": "Federally Qualified Health Center (FQHC)", "source": "HRSA"}}, {"type": "Feature", "geometry": {"type": "Point", "coordinates": [-95.094975003884, 36.87458363797]}, "properties": {"name": "Welch Community Health Center", "address": "343 S Commercial St", "city": "Welch", "state": "OK", "zip": "74369", "phone": "918-257-8029", "type": "FQHC", "site_type": "All Other Clinic Types", "center_type": "Federally Qualified Health Center (FQHC)", "source": "HRSA"}}, {"type": "Feature", "geometry": {"type": "Point", "coordinates": [-98.358443263463, 36.753569376159]}, "properties": {"name": "GSP Health Cherokee", "address": "405 S Oklahoma Ave", "city": "Cherokee", "state": "OK", "zip": "73728", "phone": "580-596-2800", "type": "FQHC", "site_type": "All Other Clinic Types", "center_type": "Federally Qualified Health Center (FQHC)", "source": "HRSA"}}, {"type": "Feature", "geometry": {"type": "Point", "coordinates": [-96.634688802117, 34.776027066007]}, "properties": {"name": "Central Oklahoma Family Medical Center - Ada Dental", "address": "304 N Monte Vista St", "city": "Ada", "state": "OK", "zip": "74820", "phone": "580-925-3286", "type": "FQHC", "site_type": "All Other Clinic Types", "center_type": "Federally Qualified Health Center (FQHC)", "source": "HRSA"}}, {"type": "Feature", "geometry": {"type": "Point", "coordinates": [-97.836715775286, 36.39594627249]}, "properties": {"name": "GSP Health East Enid", "address": "231 S 30th St", "city": "Enid", "state": "OK", "zip": "73701", "phone": "580-596-2800", "type": "FQHC", "site_type": "All Other Clinic Types", "center_type": "Federally Qualified Health Center (FQHC)", "source": "HRSA"}}, {"type": "Feature", "geometry": {"type": "Point", "coordinates": [-96.129830517253, 34.382357052816]}, "properties": {"name": "FHCSO-Atoka", "address": "457 S Mississippi Ave", "city": "Atoka", "state": "OK", "zip": "74525", "phone": "580-889-4746", "type": "FQHC", "site_type": "All Other Clinic Types", "center_type": "Federally Qualified Health Center (FQHC)", "source": "HRSA"}}, {"type": "Feature", "geometry": {"type": "Point", "coordinates": [-97.525674082892, 35.565612083852]}, "properties": {"name": "Britton Health Center", "address": "721 W Britton Rd", "city": "Oklahoma City", "state": "OK", "zip": "73114", "phone": "405-632-6688", "type": "FQHC", "site_type": "All Other Clinic Types", "center_type": "Federally Qualified Health Center (FQHC)", "source": "HRSA"}}, {"type": "Feature", "geometry": {"type": "Point", "coordinates": [-95.582809556129, 35.282411445904]}, "properties": {"name": "HWC - Eufaula", "address": "111 W Forrest Ave STE A", "city": "Eufaula", "state": "OK", "zip": "74432", "phone": "918-689-3333", "type": "FQHC", "site_type": "All Other Clinic Types", "center_type": "Federally Qualified Health Center (FQHC)", "source": "HRSA"}}, {"type": "Feature", "geometry": {"type": "Point", "coordinates": [-97.554422232491, 35.50764411416]}, "properties": {"name": "Variety Care at Sequoyah", "address": "2400 NW 36th St", "city": "Oklahoma City", "state": "OK", "zip": "73112", "phone": "405-632-6688", "type": "FQHC", "site_type": "All Other Clinic Types", "center_type": "Federally Qualified Health Center (FQHC)", "source": "HRSA"}}, {"type": "Feature", "geometry": {"type": "Point", "coordinates": [-95.98069070969, 36.17407304338]}, "properties": {"name": "Morton Comprehensive Health Center", "address": "1334 N Lansing Ave", "city": "Tulsa", "state": "OK", "zip": "74106", "phone": "918-587-2171", "type": "FQHC", "site_type": "All Other Clinic Types", "center_type": "Federally Qualified Health Center (FQHC)", "source": "HRSA"}}, {"type": "Feature", "geometry": {"type": "Point", "coordinates": [-97.011728225309, 35.809372330908]}, "properties": {"name": "Dorothy M. Smith Family Medical Center", "address": "105 E Santa Fe St", "city": "Carney", "state": "OK", "zip": "74832", "phone": "405-865-2020", "type": "FQHC", "site_type": "All Other Clinic Types", "center_type": "Federally Qualified Health Center (FQHC)", "source": "HRSA"}}]}