{"type": "FeatureCollection", "features": [{"type": "Feature", "geometry": {"type": "Point", "coordinates": [-95.96613815436, 36.060371705915]}, "properties": {"name": "HILLCREST MEDICAL CENTER", "address": "1120 SOUTH UTICA AVENUE", "city": "TULSA", "state": "OK", "zip": "74104", "phone": "(918) 579-1000", "hospital_type": "Acute Care Hospitals", "ownership": "Proprietary", "rating": "3", "emergency_services": "Yes", "source": "CMS"}}, {"type": "Feature", "geometry": {"type": "Point", "coordinates": [-99.40089090981, 36.437456330928]}, "properties": {"name": "ALLIANCEHEALTH WOODWARD", "address": "900 17TH STREET", "city": "WOODWARD", "state": "OK", "zip": "73801", "phone": "(580) 256-5511", "hospital_type": "Acute Care Hospitals", "ownership": "Proprietary", "rating": "2", "emergency_services": "Yes", "source": "CMS"}}, {"type": "Feature", "geometry": {"type": "Point", "coordinates": [-94.87984536021, 36.872228721209]}, "properties": {"name": "INTEGRIS MIAMI HOSPITAL", "address": "200 SECOND AVENUE SOUTHWEST", "city": "MIAMI", "state": "OK", "zip": "74355", "phone": "(918) 542-6611", "hospital_type": "Acute Care Hospitals", "ownership": "Voluntary non-profit - Other", "rating": "Not Available", "emergency_services": "Yes", "source": "CMS"}}, {"type": "Feature", "geometry": {"type": "Point", "coordinates": [-97.067303923025, 36.724101401771]}, "properties": {"name": "INTEGRIS HEALTH PONCA CITY", "address": "1900 NORTH 14TH STREET", "city": "PONCA CITY", "state": "OK", "zip": "74601", "phone": "(580) 765-3321", "hospital_type": "Acute Care Hospitals", "ownership": "Voluntary non-profit - Other", "rating": "3", "emergency_services": "Yes", "source": "CMS"}}, {"type": "Feature", "geometry": {"type": "Point", "coordinates": [-97.601637221445, 35.608966821525]}, "properties": {"name": "MERCY HOSPITAL OKLAHOMA CITY, INC", "address": "4300 WEST MEMORIAL ROAD", "city": "OKLAHOMA CITY", "state": "OK", "zip": "73120", "phone": "(405) 755-1515", "hospital_type": "Acute Care Hospitals", "ownership": "Voluntary non-profit - Church", "rating": "4", "emergency_services": "Yes", "source": "CMS"}}, {"type": "Feature", "geometry": {"type": "Point", "coordinates": [-95.305300015833, 36.307541413297]}, "properties": {"name": "HILLCREST HOSPITAL PRYOR", "address": "111 NORTH BAILEY STREET", "city": "PRYOR", "state": "OK", "zip": "74361", "phone": "(918) 825-1600", "hospital_type": "Acute Care Hospitals", "ownership": "Proprietary", "rating": "Not Available", "emergency_services": "Yes", "source": "CMS"}}, {"type": "Feature", "geometry": {"type": "Point", "coordinates": [-97.886556119563, 36.390833367828]}, "properties": {"name": "INTEGRIS HEALTH ENID HOSPITAL", "address": "600 SOUTH MONROE", "city": "ENID", "state": "OK", "zip": "73701", "phone": "(580) 233-2300", "hospital_type": "Acute Care Hospitals", "ownership": "Voluntary non-profit - Private", "rating": "4", "emergency_services": "Yes", "source": "CMS"}}, {"type": "Feature", "geometry": {"type": "Point", "coordinates": [-95.933893598496, 36.750643298634]}, "properties": {"name": "ASCENSION ST JOHN JANE PHILLIPS", "address": "3500 EAST FRANK PHILLIPS BOULEVARD", "city": "BARTLESVILLE", "state": "OK", "zip": "74006", "phone": "(918) 333-7200", "hospital_type": "Acute Care Hospitals", "ownership": "Voluntary non-profit - Private", "rating": "3", "emergency_services": "Yes", "source": "CMS"}}, {"type": "Feature", "geometry": {"type": "Point", "coordinates": [-99.425562866169, 35.411754271194]}, "properties": {"name": "GREAT PLAINS REGIONAL MEDICAL CENTER", "address": "1801 WEST 3RD STREET", "city": "ELK CITY", "state": "OK", "zip": "73644", "phone": "(580) 225-2511", "hospital_type": "Acute Care Hospitals", "ownership": "Voluntary non-profit - Private", "rating": "2", "emergency_services": "Yes", "source": "CMS"}}, {"type": "Feature", "geometry": {"type": "Point", "coordinates": [-96.634686630365, 34.776979589124]}, "properties": {"name": "MERCY HOSPITAL ADA", "address": "430 NORTH MONTE VISTA", "city": "ADA", "state": "OK", "zip": "74820", "phone": "(580) 332-2323", "hospital_type": "Acute Care Hospitals", "ownership": "Voluntary non-profit - Private", "rating": "4", "emergency_services": "Yes", "source": "CMS"}}, {"type": "Feature", "geometry": {"type": "Point", "coordinates": [-95.406069190514, 35.753579599462]}, "properties": {"name": "SAINT FRANCIS HOSPITAL MUSKOGEE", "address": "300 ROCKEFELLER DRIVE", "city": "MUSKOGEE", "state": "OK", "zip": "74401", "phone": "(918) 682-5501", "hospital_type": "Acute Care Hospitals", "ownership": "Voluntary non-profit - Private", "rating": "4", "emergency_services": "Yes", "source": "CMS"}}, {"type": "Feature", "geometry": {"type": "Point", "coordinates": [-97.871710367609, 36.394185271264]}, "properties": {"name": "ST MARY'S REGIONAL MEDICAL CENTER", "address": "305 SOUTH 5TH STREET", "city": "ENID", "state": "OK", "zip": "73701", "phone": "(580) 233-6100", "hospital_type": "Acute Care Hospitals", "ownership": "Proprietary", "rating": "4", "emergency_services": "Yes", "source": "CMS"}}, {"type": "Feature", "geometry": {"type": "Point", "coordinates": [-97.524245749907, 35.477304099349]}, "properties": {"name": "SSM HEALTH ST ANTHONY HOSPITAL - OKLAHOMA CITY", "address": "1000 NORTH LEE AVENUE", "city": "OKLAHOMA CITY", "state": "OK", "zip": "73101", "phone": "(405) 272-7000", "hospital_type": "Acute Care Hospitals", "ownership": "Voluntary non-profit - Church", "rating": "3", "emergency_services": "Yes", "source": "CMS"}}, {"type": "Feature", "geometry": {"type": "Point", "coordinates": [-95.605220423071, 36.321910618797]}, "properties": {"name": "HILLCREST HOSPITAL CLAREMORE", "address": "1202 N MUSKOGEE PLACE", "city": "CLAREMORE", "state": "OK", "zip": "74017", "phone": "(918) 341-2556", "hospital_type": "Acute Care Hospitals", "ownership": "Proprietary", "rating": "3", "emergency_services": "Yes", "source": "CMS"}}, {"type": "Feature", "geometry": {"type": "Point", "coordinates": [-97.140797424485, 34.188505452898]}, "properties": {"name": "MERCY HOSPITAL ARDMORE, INC", "address": "1011 14TH AVE NW", "city": "ARDMORE", "state": "OK", "zip": "73401", "phone": "(580) 223-5400", "hospital_type": "Acute Care Hospitals", "ownership": "Voluntary non-profit - Church", "rating": "4", "emergency_services": "Yes", "source": "CMS"}}, {"type": "Feature", "geometry": {"type": "Point", "coordinates": [-97.07413989519, 36.115827068087]}, "properties": {"name": "STILLWATER MEDICAL CENTER", "address": "1323 WEST 6TH STREET", "city": "STILLWATER", "state": "OK", "zip": "74076", "phone": "(405) 372-1480", "hospital_type": "Acute Care Hospitals", "ownership": "Government - Hospital District or Authority", "rating": "4", "emergency_services": "Yes", "source": "CMS"}}, {"type": "Feature", "geometry": {"type": "Point", "coordinates": [-97.962327158575, 35.047767393144]}, "properties": {"name": "GRADY MEMORIAL HOSPITAL", "address": "2220 IOWA STREET", "city": "CHICKASHA", "state": "OK", "zip": "73018", "phone": "(405) 224-2300", "hospital_type": "Acute Care Hospitals", "ownership": "Government - Hospital District or Authority", "rating": "3", "emergency_services": "Yes", "source": "CMS"}}, {"type": "Feature", "geometry": {"type": "Point", "coordinates": [-98.434330829235, 34.608921298574]}, "properties": {"name": "COMANCHE COUNTY MEMORIAL HOSPITAL", "address": "3401 WEST GORE BLVD", "city": "LAWTON", "state": "OK", "zip": "73505", "phone": "(580) 355-8620", "hospital_type": "Acute Care Hospitals", "ownership": "Government - Hospital District or Authority", "rating": "1", "emergency_services": "Yes", "source": "CMS"}}, {"type": "Feature", "geometry": {"type": "Point", "coordinates": [-95.953230075307, 35.610419401599]}, "properties": {"name": "MUSCOGEE (CREEK) NATION MEDICAL CENTER", "address": "1401 MORRIS DRIVE", "city": "OKMULGEE", "state": "OK", "zip": "74447", "phone": "(918) 756-4233", "hospital_type": "Acute Care Hospitals", "ownership": "Tribal", "rating": "Not Available", "emergency_services": "Yes", "source": "CMS"}}, {"type": "Feature", "geometry": {"type": "Point", "coordinates": [-95.99999901362, 36.146906311113]}, "properties": {"name": "OKLAHOMA STATE UNIVERSITY MEDICAL CENTER", "address": "744 WEST 9TH STREET", "city": "TULSA", "state": "OK", "zip": "74127", "phone": "(918) 599-1000", "hospital_type": "Acute Care Hospitals", "ownership": "Voluntary non-profit - Other", "rating": "2", "emergency_services": "Yes", "source": "CMS"}}, {"type": "Feature", "geometry": {"type": "Point", "coordinates": [-95.615458179855, 34.231675240273]}, "properties": {"name": "PUSHMATAHA HOSPITAL", "address": "510 EAST MAIN STREET", "city": "ANTLERS", "state": "OK", "zip": "74523", "phone": "(580) 298-3341", "hospital_type": "Acute Care Hospitals", "ownership": "Government - Hospital District or Authority", "rating": "Not Available", "emergency_services": "Yes", "source": "CMS"}}, {"type": "Feature", "geometry": {"type": "Point", "coordinates": [-94.949917493198, 35.915300299303]}, "properties": {"name": "NORTHEASTERN HEALTH SYSTEM", "address": "1400 EAST DOWNING STREET", "city": "TAHLEQUAH", "state": "OK", "zip": "74465", "phone": "(918) 456-0641", "hospital_type": "Acute Care Hospitals", "ownership": "Government - Hospital District or Authority", "rating": "2", "emergency_services": "Yes", "source": "CMS"}}, {"type": "Feature", "geometry": {"type": "Point", "coordinates": [-95.922068736746, 36.075073172486]}, "properties": {"name": "SAINT FRANCIS HOSPITAL, INC", "address": "6161 SOUTH YALE", "city": "TULSA", "state": "OK", "zip": "74136", "phone": "(918) 494-8467", "hospital_type": "Acute Care Hospitals", "ownership": "Voluntary non-profit - Private", "rating": "4", "emergency_services": "Yes", "source": "CMS"}}, {"type": "Feature", "geometry": {"type": "Point", "coordinates": [-97.50278059168, 35.482288089048]}, "properties": {"name": "O U MEDICAL CENTER", "address": "700 NE 13TH STREET", "city": "OKLAHOMA CITY", "state": "OK", "zip": "73104", "phone": "(405) 271-5911", "hospital_type": "Acute Care Hospitals", "ownership": "Voluntary non-profit - Private", "rating": "2", "emergency_services": "Yes", "source": "CMS"}}, {"type": "Feature", "geometry": {"type": "Point", "coordinates": [-97.393239419021, 35.466067420222]}, "properties": {"name": "SSM HEALTH ST ANTHONY HOSPITAL - MIDWEST", "address": "2825 PARKLAWN DRIVE", "city": "MIDWEST CITY", "state": "OK", "zip": "73110", "phone": "(405) 610-4411", "hospital_type": "Acute Care Hospitals", "ownership": "Voluntary non-profit - Private", "rating": "2", "emergency_services": "Yes", "source": "CMS"}}, {"type": "Feature", "geometry": {"type": "Point", "coordinates": [-96.757125962293, 35.978858380019]}, "properties": {"name": "HILLCREST HOSPITAL CUSHING", "address": "1027 EAST CHERRY STREET", "city": "CUSHING", "state": "OK", "zip": "74023", "phone": "(918) 225-8152", "hospital_type": "Acute Care Hospitals", "ownership": "Proprietary", "rating": "Not Available", "emergency_services": "Yes", "source": "CMS"}}, {"type": "Feature", "geometry": {"type": "Point", "coordinates": [-95.492301040493, 34.011681268377]}, "properties": {"name": "CHOCTAW MEMORIAL HOSPITAL", "address": "1405 EAST KIRK ROAD", "city": "HUGO", "state": "OK", "zip": "74743", "phone": "(580) 317-9500", "hospital_type": "Acute Care Hospitals", "ownership": "Government - Hospital District or Authority", "rating": "2", "emergency_services": "Yes", "source": "CMS"}}, {"type": "Feature", "geometry": {"type": "Point", "coordinates": [-97.530294919155, 35.420687518258]}, "properties": {"name": "INTEGRIS SOUTHWEST MEDICAL CENTER", "address": "4401 SOUTH WESTERN AVENUE", "city": "OKLAHOMA CITY", "state": "OK", "zip": "73109", "phone": "(405) 636-7000", "hospital_type": "Acute Care Hospitals", "ownership": "Voluntary non-profit - Private", "rating": "3", "emergency_services": "Yes", "source": "CMS"}}, {"type": "Feature", "geometry": {"type": "Point", "coordinates": [-94.791872931525, 35.463513505904]}, "properties": {"name": "SEQUOYAH COUNTY-CITY OF SALLISAW HOSPITAL AUTHORIT", "address": "213 EAST REDWOOD", "city": "SALLISAW", "state": "OK", "zip": "74955", "phone": "(918) 774-1100", "hospital_type": "Acute Care Hospitals", "ownership": "Government - Local", "rating": "Not Available", "emergency_services": "Yes", "source": "CMS"}}, {"type": "Feature", "geometry": {"type": "Point", "coordinates": [-95.967152953031, 36.13461792004]}, "properties": {"name": "ASCENSION ST JOHN MEDICAL CENTER", "address": "1923 SOUTH UTICA AVENUE", "city": "TULSA", "state": "OK", "zip": "74104", "phone": "(918) 744-2296", "hospital_type": "Acute Care Hospitals", "ownership": "Voluntary non-profit - Private", "rating": "2", "emergency_services": "Yes", "source": "CMS"}}, {"type": "Feature", "geometry": {"type": "Point", "coordinates": [-95.413267103146, 35.763927969232]}, "properties": {"name": "MUSKOGEE VA MEDICAL CENTER", "address": "1011 HONOR HEIGHTS DRIVE", "city": "MUSKOGEE", "state": "OK", "zip": "74401", "phone": "(918) 577-3000", "hospital_type": "Acute Care - Veterans Administration", "ownership": "Veterans Health Administration", "rating": "5", "emergency_services": "Yes", "source": "CMS"}}, {"type": "Feature", "geometry": {"type": "Point", "coordinates": [-96.938915721199, 35.36179049894]}, "properties": {"name": "SSM HEALTH ST ANTHONY HOSPITAL - SHAWNEE", "address": "1102 W MACARTHUR", "city": "SHAWNEE", "state": "OK", "zip": "74801", "phone": "(405) 273-2270", "hospital_type": "Acute Care Hospitals", "ownership": "Voluntary non-profit - Private", "rating": "3", "emergency_services": "Yes", "source": "CMS"}}, {"type": "Feature", "geometry": {"type": "Point", "coordinates": [-97.496507377533, 35.48245895627]}, "properties": {"name": "OKLAHOMA CITY VA MEDICAL CENTER", "address": "921 NE 13TH STREET", "city": "OKLAHOMA CITY", "state": "OK", "zip": "73104", "phone": "(405) 270-0501", "hospital_type": "Acute Care - Veterans Administration", "ownership": "Veterans Health Administration", "rating": "2", "emergency_services": "Yes", "source": "CMS"}}, {"type": "Feature", "geometry": {"type": "Point", "coordinates": [-97.365836070837, 35.028778557327]}, "properties": {"name": "PURCELL MUNICIPAL HOSPITAL", "address": "1500 NORTH GREEN AVENUE", "city": "PURCELL", "state": "OK", "zip": "73080", "phone": "(405) 527-6524", "hospital_type": "Acute Care Hospitals", "ownership": "Government - Local", "rating": "Not Available", "emergency_services": "Yes", "source": "CMS"}}, {"type": "Feature", "geometry": {"type": "Point", "coordinates": [-95.39245829272, 35.959951468079]}, "properties": {"name": "WAGONER COMMUNITY HOSPITAL", "address": "1200 WEST CHEROKEE STREET", "city": "WAGONER", "state": "OK", "zip": "74467", "phone": "(918) 485-5514", "hospital_type": "Acute Care Hospitals", "ownership": "Government - Hospital District or Authority", "rating": "Not Available", "emergency_services": "Yes", "source": "CMS"}}, {"type": "Feature", "geometry": {"type": "Point", "coordinates": [-98.385182097213, 34.620358936259]}, "properties": {"name": "LAWTON INDIAN HOSPITAL", "address": "1515 LAWRIE TATUM ROAD", "city": "LAWTON", "state": "OK", "zip": "73507", "phone": "(580) 353-0350", "hospital_type": "Acute Care Hospitals", "ownership": "Government - Federal", "rating": "Not Available", "emergency_services": "Yes", "source": "CMS"}}, {"type": "Feature", "geometry": {"type": "Point", "coordinates": [-94.949206834642, 35.912498660949]}, "properties": {"name": "CHEROKEE NATION W W HASTINGS INDIAN HOSPITAL", "address": "100 S BLISS AVENUE", "city": "TAHLEQUAH", "state": "OK", "zip": "74464", "phone": "(918) 458-3100", "hospital_type": "Acute Care Hospitals", "ownership": "Voluntary non-profit - Other", "rating": "3", "emergency_services": "Yes", "source": "CMS"}}, {"type": "Feature", "geometry": {"type": "Point", "coordinates": [-95.628290138039, 36.316619261693]}, "properties": {"name": "CLAREMORE INDIAN HOSPITAL", "address": "101 SOUTH MOORE AVE", "city": "CLAREMORE", "state": "OK", "zip": "74017", "phone": "(918) 341-8430", "hospital_type": "Acute Care Hospitals", "ownership": "Government - Federal", "rating": "Not Available", "emergency_services": "Yes", "source": "CMS"}}, {"type": "Feature", "geometry": {"type": "Point", "coordinates": [-94.638321062869, 35.80858489459]}, "properties": {"name": "MEMORIAL HOSPITAL", "address": "1401 WEST LOCUST", "city": "STILWELL", "state": "OK", "zip": "74960", "phone": "(918) 696-3101", "hospital_type": "Acute Care Hospitals", "ownership": "Voluntary non-profit - Private", "rating": "4", "emergency_services": "Yes", "source": "CMS"}}, {"type": "Feature", "geometry": {"type": "Point", "coordinates": [-97.567117156596, 35.563729636749]}, "properties": {"name": "NORTHWEST SURGICAL HOSPITAL", "address": "9204 NORTH MAY AVENUE", "city": "OKLAHOMA CITY", "state": "OK", "zip": "73120", "phone": "(405) 848-1918", "hospital_type": "Acute Care Hospitals", "ownership": "Physician", "rating": "Not Available", "emergency_services": "Yes", "source": "CMS"}}, {"type": "Feature", "geometry": {"type": "Point", "coordinates": [-97.584964549781, 35.58332442043]}, "properties": {"name": "LAKESIDE WOMEN'S HOSPITAL, A MEMBER OF INTEGRIS HE", "address": "11200 NORTH PORTLAND AVENUE", "city": "OKLAHOMA CITY", "state": "OK", "zip": "73120", "phone": "(405) 936-1500", "hospital_type": "Acute Care Hospitals", "ownership": "Voluntary non-profit - Private", "rating": "Not Available", "emergency_services": "Yes", "source": "CMS"}}, {"type": "Feature", "geometry": {"type": "Point", "coordinates": [-97.510269053196, 35.406160969527]}, "properties": {"name": "SURGICAL HOSPITAL OF OKLAHOMA", "address": "100 SOUTHEAST 59TH STREET", "city": "OKLAHOMA CITY", "state": "OK", "zip": "73129", "phone": "(405) 634-9300", "hospital_type": "Acute Care Hospitals", "ownership": "Physician", "rating": "Not Available", "emergency_services": "Yes", "source": "CMS"}}, {"type": "Feature", "geometry": {"type": "Point", "coordinates": [-95.864769000812, 36.03535837501]}, "properties": {"name": "HILLCREST HOSPITAL SOUTH", "address": "8801 SOUTH 101ST EAST AVENUE", "city": "TULSA", "state": "OK", "zip": "74133", "phone": "(918) 294-4499", "hospital_type": "Acute Care Hospitals", "ownership": "Proprietary", "rating": "4", "emergency_services": "Yes", "source": "CMS"}}, {"type": "Feature", "geometry": {"type": "Point", "coordinates": [-97.570887449978, 35.377057562986]}, "properties": {"name": "COMMUNITY HOSPITAL, LLC", "address": "3100 SOUTHWEST 89TH STREET", "city": "OKLAHOMA CITY", "state": "OK", "zip": "73159", "phone": "(405) 602-8100", "hospital_type": "Acute Care Hospitals", "ownership": "Physician", "rating": "4", "emergency_services": "Yes", "source": "CMS"}}, {"type": "Feature", "geometry": {"type": "Point", "coordinates": [-97.582641173969, 35.614979521578]}, "properties": {"name": "OKLAHOMA SPINE HOSPITAL", "address": "14101 PARKWAY COMMONS DRIVE", "city": "OKLAHOMA CITY", "state": "OK", "zip": "73134", "phone": "(405) 749-2700", "hospital_type": "Acute Care Hospitals", "ownership": "Physician", "rating": "Not Available", "emergency_services": "Yes", "source": "CMS"}}, {"type": "Feature", "geometry": {"type": "Point", "coordinates": [-95.894591263939, 36.045745303288]}, "properties": {"name": "OKLAHOMA SURGICAL HOSPITAL, LLC", "address": "2408 EAST 81ST STREET, SUITE 300", "city": "TULSA", "state": "OK", "zip": "74137", "phone": "(918) 477-5000", "hospital_type": "Acute Care Hospitals", "ownership": "Physician", "rating": "4", "emergency_services": "Yes", "source": "CMS"}}, {"type": "Feature", "geometry": {"type": "Point", "coordinates": [-97.765212405005, 35.484116190565]}, "properties": {"name": "INTEGRIS CANADIAN VALLEY HOSPITAL", "address": "1201 HEALTH CENTER PARKWAY", "city": "YUKON", "state": "OK", "zip": "73099", "phone": "(405) 717-6800", "hospital_type": "Acute Care Hospitals", "ownership": "Voluntary non-profit - Private", "rating": "3", "emergency_services": "Yes", "source": "CMS"}}, {"type": "Feature", "geometry": {"type": "Point", "coordinates": [-97.52119933713, 35.386109523909]}, "properties": {"name": "OKLAHOMA CENTER FOR ORTHOPAEDIC & MULTI-SP", "address": "8100 SOUTH WALKER BLDG C", "city": "OKLAHOMA CITY", "state": "OK", "zip": "73139", "phone": "(405) 602-6500", "hospital_type": "Acute Care Hospitals", "ownership": "Physician", "rating": "Not Available", "emergency_services": "Yes", "source": "CMS"}}, {"type": "Feature", "geometry": {"type": "Point", "coordinates": [-97.624805312212, 34.839399857049]}, "properties": {"name": "LINDSAY MUNICIPAL HOSPITAL", "address": "1305 W CHEROKEE STREET - HIGHWAY 19 WEST", "city": "LINDSAY", "state": "OK", "zip": "73052", "phone": "(405) 756-1404", "hospital_type": "Acute Care Hospitals", "ownership": "Government - Hospital District or Authority", "rating": "Not Available", "emergency_services": "Yes", "source": "CMS"}}, {"type": "Feature", "geometry": {"type": "Point", "coordinates": [-97.59599359847, 35.608975483953]}, "properties": {"name": "OKLAHOMA HEART HOSPITAL, LLC", "address": "4050 WEST MEMORIAL ROAD", "city": "OKLAHOMA CITY", "state": "OK", "zip": "73120", "phone": "(405) 608-3200", "hospital_type": "Acute Care Hospitals", "ownership": "Physician", "rating": "5", "emergency_services": "Yes", "source": "CMS"}}, {"type": "Feature", "geometry": {"type": "Point", "coordinates": [-96.003977713231, 36.066555192855]}, "properties": {"name": "TULSA SPINE & SPECIALTY HOSPITAL", "address": "6901 SOUTH OLYMPIA AVENUE", "city": "TULSA", "state": "OK", "zip": "74132", "phone": "(918) 388-5701", "hospital_type": "Acute Care Hospitals", "ownership": "Proprietary", "rating": "Not Available", "emergency_services": "Yes", "source": "CMS"}}, {"type": "Feature", "geometry": {"type": "Point", "coordinates": [-95.859092642353, 36.031982915758]}, "properties": {"name": "SAINT FRANCIS HOSPITAL SOUTH, LLC", "address": "10501 EAST 91ST STREET SOUTH", "city": "TULSA", "state": "OK", "zip": "74133", "phone": "(918) 307-6010", "hospital_type": "Acute Care Hospitals", "ownership": "Voluntary non-profit - Private", "rating": "5", "emergency_services": "Yes", "source": "CMS"}}, {"type": "Feature", "geometry": {"type": "Point", "coordinates": [-97.514288532869, 35.55784749324]}, "properties": {"name": "ONECORE HEALTH", "address": "100 NE 85TH STREET", "city": "OKLAHOMA CITY", "state": "OK", "zip": "73114", "phone": "(405) 631-3085", "hospital_type": "Acute Care Hospitals", "ownership": "Voluntary non-profit - Other", "rating": "Not Available", "emergency_services": "Yes", "source": "CMS"}}, {"type": "Feature", "geometry": {"type": "Point", "coordinates": [-97.512798038612, 35.567686981289]}, "properties": {"name": "MCBRIDE ORTHOPEDIC HOSPITAL", "address": "9600 NORTH BROADWAY EXTENSION", "city": "OKLAHOMA CITY", "state": "OK", "zip": "73114", "phone": "(405) 486-2100", "hospital_type": "Acute Care Hospitals", "ownership": "Physician", "rating": "Not Available", "emergency_services": "Yes", "source": "CMS"}}, {"type": "Feature", "geometry": {"type": "Point", "coordinates": [-97.499099266998, 35.635982265132]}, "properties": {"name": "SUMMIT MEDICAL CENTER, LLC", "address": "1800 SOUTH RENAISSANCE BOULEVARD", "city": "EDMOND", "state": "OK", "zip": "73034", "phone": "(405) 359-2400", "hospital_type": "Acute Care Hospitals", "ownership": "Physician", "rating": "Not Available", "emergency_services": "Yes", "source": "CMS"}}, {"type": "Feature", "geometry": {"type": "Point", "coordinates": [-95.834474056062, 36.298413619721]}, "properties": {"name": "ST JOHN OWASSO", "address": "12451 EAST 100TH STREET NORTH", "city": "OWASSO", "state": "OK", "zip": "74055", "phone": "(918) 274-5100", "hospital_type": "Acute Care Hospitals", "ownership": "Voluntary non-profit - Private", "rating": "Not Available", "emergency_services": "Yes", "source": "CMS"}}, {"type": "Feature", "geometry": {"type": "Point", "coordinates": [-95.851877699262, 36.303118574438]}, "properties": {"name": "BAILEY MEDICAL CENTER, LLC", "address": "10502 NORTH 110TH EAST AVENUE", "city": "OWASSO", "state": "OK", "zip": "74055", "phone": "(918) 376-8500", "hospital_type": "Acute Care Hospitals", "ownership": "Proprietary", "rating": "4", "emergency_services": "Yes", "source": "CMS"}}, {"type": "Feature", "geometry": {"type": "Point", "coordinates": [-95.79909639601, 36.077939313075]}, "properties": {"name": "ASCENSION ST JOHN BROKEN ARROW", "address": "1000 WEST BOISE CIRCLE", "city": "BROKEN ARROW", "state": "OK", "zip": "74012", "phone": "(918) 994-8100", "hospital_type": "Acute Care Hospitals", "ownership": "Voluntary non-profit - Private", "rating": "5", "emergency_services": "Yes", "source": "CMS"}}, {"type": "Feature", "geometry": {"type": "Point", "coordinates": [-95.155792461957, 36.653218315452]}, "properties": {"name": "SAINT FRANCIS HOSPITAL VINITA, INC", "address": "735 NORTH FOREMAN STREET", "city": "VINITA", "state": "OK", "zip": "74301", "phone": "(918) 256-7551", "hospital_type": "Acute Care Hospitals", "ownership": "Voluntary non-profit - Private", "rating": "4", "emergency_services": "Yes", "source": "CMS"}}, {"type": "Feature", "geometry": {"type": "Point", "coordinates": [-97.656292199695, 35.565230061279]}, "properties": {"name": "INTEGRIS COMMUNITY HOSPITAL - COUNCIL CROSSING", "address": "9417 N COUNCIL ROAD", "city": "OKLAHOMA CITY", "state": "OK", "zip": "73162", "phone": "(405) 550-3280", "hospital_type": "Acute Care Hospitals", "ownership": "Proprietary", "rating": "Not Available", "emergency_services": "No", "source": "CMS"}}, {"type": "Feature", "geometry": {"type": "Point", "coordinates": [-97.21409421228, 34.720187305292]}, "properties": {"name": "VALLEY COMMUNITY HOSPITAL", "address": "100 VALLEY DRIVE", "city": "PAULS VALLEY", "state": "OK", "zip": "73075", "phone": "(405) 866-5100", "hospital_type": "Acute Care Hospitals", "ownership": "Proprietary", "rating": "Not Available", "emergency_services": "Yes", "source": "CMS"}}, {"type": "Feature", "geometry": {"type": "Point", "coordinates": [-95.867924495699, 36.050106399058]}, "properties": {"name": "COUNCIL OAK COMPREHENSIVE HEALTHCARE", "address": "10109 E 79TH ST", "city": "TULSA", "state": "OK", "zip": "74133", "phone": "(918) 940-7543", "hospital_type": "Acute Care Hospitals", "ownership": "Tribal", "rating": "Not Available", "emergency_services": "No", "source": "CMS"}}, {"type": "Feature", "geometry": {"type": "Point", "coordinates": [-98.996933113184, 35.514399251754]}, "properties": {"name": "CLINTON REGIONAL HOSPITAL", "address": "100 N 30TH STREET", "city": "CLINTON", "state": "OK", "zip": "73601", "phone": "(580) 323-0346", "hospital_type": "Acute Care Hospitals", "ownership": "Government - Local", "rating": "Not Available", "emergency_services": "Yes", "source": "CMS"}}, {"type": "Feature", "geometry": {"type": "Point", "coordinates": [-96.401680257577, 35.832386272749]}, "properties": {"name": "CARRUS LAKESIDE HOSPITAL", "address": "700 WEST 7TH STREET", "city": "BRISTOW", "state": "OK", "zip": "74010", "phone": "(918) 367-2215", "hospital_type": "Acute Care Hospitals", "ownership": "Proprietary", "rating": "Not Available", "emergency_services": "Yes", "source": "CMS"}}, {"type": "Feature", "geometry": {"type": "Point", "coordinates": [-97.162893288175, 34.191365577065]}, "properties": {"name": "EXCEPTIONAL COMMUNITY HOSPITAL ARDMORE", "address": "1641 WOERZ WAY", "city": "ARDMORE", "state": "OK", "zip": "73401", "phone": "(469) 341-7800", "hospital_type": "Acute Care Hospitals", "ownership": "Proprietary", "rating": "Not Available", "emergency_services": "Yes", "source": "CMS"}}, {"type": "Feature", "geometry": {"type": "Point", "coordinates": [-97.299279184171, 36.289130945456]}, "properties": {"name": "STILLWATER MEDICAL - PERRY", "address": "501 N 14TH ST", "city": "PERRY", "state": "OK", "zip": "73077", "phone": "(580) 336-3541", "hospital_type": "Rural Emergency Hospital", "ownership": "Government - Hospital District or Authority", "rating": "Not Available", "emergency_services": "Yes", "source": "CMS"}}, {"type": "Feature", "geometry": {"type": "Point", "coordinates": [-97.30081950702, 36.798028036398]}, "properties": {"name": "STILLWATER MEDICAL-BLACKWELL", "address": "710 S 13TH STREET", "city": "BLACKWELL", "state": "OK", "zip": "74631", "phone": "(580) 363-2311", "hospital_type": "Rural Emergency Hospital", "ownership": "Government - Hospital District or Authority", "rating": "Not Available", "emergency_services": "Yes", "source": "CMS"}}, {"type": "Feature", "geometry": {"type": "Point", "coordinates": [-99.630225015668, 36.842800923818]}, "properties": {"name": "HARPER COUNTY COMMUNITY HOSPITAL", "address": "1003 US HIGHWAY 64 NORTH", "city": "BUFFALO", "state": "OK", "zip": "73834", "phone": "(580) 735-2555", "hospital_type": "Rural Emergency Hospital", "ownership": "Government - Local", "rating": "Not Available", "emergency_services": "Yes", "source": "CMS"}}, {"type": "Feature", "geometry": {"type": "Point", "coordinates": [-99.098249085069, 35.036855091296]}, "properties": {"name": "ELKVIEW GENERAL HOSPITAL", "address": "429 WEST ELM STREET", "city": "HOBART", "state": "OK", "zip": "73651", "phone": "(580) 726-3324", "hospital_type": "Rural Emergency Hospital", "ownership": "Government - Hospital District or Authority", "rating": "Not Available", "emergency_services": "Yes", "source": "CMS"}}, {"type": "Feature", "geometry": {"type": "Point", "coordinates": [-96.148084581174, 34.394015497111]}, "properties": {"name": "ATOKA COUNTY MEDICAL CENTER", "address": "1590 WEST LIBERTY ROAD", "city": "ATOKA", "state": "OK", "zip": "74525", "phone": "(580) 889-3333", "hospital_type": "Critical Access Hospitals", "ownership": "Government - Local", "rating": "Not Available", "emergency_services": "Yes", "source": "CMS"}}, {"type": "Feature", "geometry": {"type": "Point", "coordinates": [-96.684490800303, 35.489805384937]}, "properties": {"name": "PRAGUE REGIONAL MEMORIAL HOSPITAL", "address": "1322 KLABZUBA AVENUE", "city": "PRAGUE", "state": "OK", "zip": "74864", "phone": "(405) 567-4922", "hospital_type": "Critical Access Hospitals", "ownership": "Government - Local", "rating": "Not Available", "emergency_services": "Yes", "source": "CMS"}}, {"type": "Feature", "geometry": {"type": "Point", "coordinates": [-98.419187167098, 35.848932080849]}, "properties": {"name": "MERCY HOSPITAL WATONGA, INC", "address": "500 NORTH CLARENCE NASH BOULEVARD", "city": "WATONGA", "state": "OK", "zip": "73772", "phone": "(580) 623-7211", "hospital_type": "Critical Access Hospitals", "ownership": "Proprietary", "rating": "Not Available", "emergency_services": "Yes", "source": "CMS"}}, {"type": "Feature", "geometry": {"type": "Point", "coordinates": [-96.675209662396, 34.223798511088]}, "properties": {"name": "MERCY HOSPITAL TISHOMINGO INC", "address": "1000 SOUTH BYRD ST", "city": "TISHOMINGO", "state": "OK", "zip": "73460", "phone": "(580) 371-2327", "hospital_type": "Critical Access Hospitals", "ownership": "Voluntary non-profit - Church", "rating": "Not Available", "emergency_services": "Yes", "source": "CMS"}}, {"type": "Feature", "geometry": {"type": "Point", "coordinates": [-95.630392039943, 36.696947520308]}, "properties": {"name": "ASCENSION ST JOHN NOWATA", "address": "237 SOUTH LOCUST STREET", "city": "NOWATA", "state": "OK", "zip": "74048", "phone": "(918) 273-3102", "hospital_type": "Critical Access Hospitals", "ownership": "Voluntary non-profit - Private", "rating": "Not Available", "emergency_services": "Yes", "source": "CMS"}}, {"type": "Feature", "geometry": {"type": "Point", "coordinates": [-97.131259284157, 33.942543356637]}, "properties": {"name": "MERCY HOSPITAL MARIETTA", "address": "300 WANDA STREET", "city": "MARIETTA", "state": "OK", "zip": "73448", "phone": "(580) 276-3347", "hospital_type": "Critical Access Hospitals", "ownership": "Government - Local", "rating": "Not Available", "emergency_services": "Yes", "source": "CMS"}}, {"type": "Feature", "geometry": {"type": "Point", "coordinates": [-96.325799256038, 36.672872826831]}, "properties": {"name": "PAWHUSKA HOSPITAL, INC", "address": "1101 EAST 15TH STREET", "city": "PAWHUSKA", "state": "OK", "zip": "74056", "phone": "(918) 287-3232", "hospital_type": "Critical Access Hospitals", "ownership": "Voluntary non-profit - Private", "rating": "Not Available", "emergency_services": "Yes", "source": "CMS"}}, {"type": "Feature", "geometry": {"type": "Point", "coordinates": [-97.492127566683, 34.222893565357]}, "properties": {"name": "MERCY HOSPITAL HEALDTON, INC.", "address": "3462 HOSPITAL RD", "city": "HEALDTON", "state": "OK", "zip": "73438", "phone": "(580) 229-0701", "hospital_type": "Critical Access Hospitals", "ownership": "Voluntary non-profit - Private", "rating": "Not Available", "emergency_services": "Yes", "source": "CMS"}}, {"type": "Feature", "geometry": {"type": "Point", "coordinates": [-96.100842967094, 35.993248496165]}, "properties": {"name": "ASCENSION ST JOHN SAPULPA", "address": "1004 EAST BRYAN", "city": "SAPULPA", "state": "OK", "zip": "74066", "phone": "(918) 224-4280", "hospital_type": "Critical Access Hospitals", "ownership": "Voluntary non-profit - Private", "rating": "Not Available", "emergency_services": "Yes", "source": "CMS"}}, {"type": "Feature", "geometry": {"type": "Point", "coordinates": [-98.228569029998, 35.072208398952]}, "properties": {"name": "THE PHYSICIANS' HOSPITAL IN ANADARKO", "address": "1002 E CENTRAL BLVD", "city": "ANADARKO", "state": "OK", "zip": "73005", "phone": "(405) 247-8236", "hospital_type": "Critical Access Hospitals", "ownership": "Proprietary", "rating": "Not Available", "emergency_services": "Yes", "source": "CMS"}}, {"type": "Feature", "geometry": {"type": "Point", "coordinates": [-96.621223417678, 35.767525483588]}, "properties": {"name": "RURAL WELLNESS STROUD HOSPITAL", "address": "2308 HIGHWAY 66 WEST", "city": "STROUD", "state": "OK", "zip": "74079", "phone": "(918) 968-3571", "hospital_type": "Critical Access Hospitals", "ownership": "Proprietary", "rating": "Not Available", "emergency_services": "Yes", "source": "CMS"}}, {"type": "Feature", "geometry": {"type": "Point", "coordinates": [-97.460396307482, 35.876446227538]}, "properties": {"name": "MERCY HOSPITAL LOGAN COUNTY", "address": "200 S ACADEMY RD", "city": "GUTHRIE", "state": "OK", "zip": "73044", "phone": "(405) 282-6700", "hospital_type": "Critical Access Hospitals", "ownership": "Voluntary non-profit - Private", "rating": "Not Available", "emergency_services": "Yes", "source": "CMS"}}, {"type": "Feature", "geometry": {"type": "Point", "coordinates": [-96.705254081661, 36.562681633565]}, "properties": {"name": "RURAL WELLNESS FAIRFAX HOSPITAL", "address": "40 HOSPITAL ROAD", "city": "FAIRFAX", "state": "OK", "zip": "74637", "phone": "(918) 642-3291", "hospital_type": "Critical Access Hospitals", "ownership": "Proprietary", "rating": "Not Available", "emergency_services": "Yes", "source": "CMS"}}, {"type": "Feature", "geometry": {"type": "Point", "coordinates": [-96.224261970165, 34.538913258004]}, "properties": {"name": "COAL COUNTY GENERAL HOSPITAL, INC.", "address": "6 NORTH COVINGTON", "city": "COALGATE", "state": "OK", "zip": "74538", "phone": "(580) 927-2327", "hospital_type": "Critical Access Hospitals", "ownership": "Voluntary non-profit - Private", "rating": "Not Available", "emergency_services": "Yes", "source": "CMS"}}, {"type": "Feature", "geometry": {"type": "Point", "coordinates": [-96.480419912702, 36.309956080383]}, "properties": {"name": "CLEVELAND AREA HOSPITAL", "address": "1401 WEST PAWNEE", "city": "CLEVELAND", "state": "OK", "zip": "74020", "phone": "(918) 358-2501", "hospital_type": "Critical Access Hospitals", "ownership": "Government - Hospital District or Authority", "rating": "Not Available", "emergency_services": "Yes", "source": "CMS"}}, {"type": "Feature", "geometry": {"type": "Point", "coordinates": [-96.379628434169, 35.088676723071]}, "properties": {"name": "HOLDENVILLE GENERAL HOSPITAL", "address": "100 MCDOUGAL DRIVE", "city": "HOLDENVILLE", "state": "OK", "zip": "74848", "phone": "(405) 379-4200", "hospital_type": "Critical Access Hospitals", "ownership": "Government - Hospital District or Authority", "rating": "Not Available", "emergency_services": "Yes", "source": "CMS"}}, {"type": "Feature", "geometry": {"type": "Point", "coordinates": [-98.987645266121, 35.301976660998]}, "properties": {"name": "CORDELL MEMORIAL HOSPITAL", "address": "1220 NORTH GLENN ENGLISH STREET", "city": "CORDELL", "state": "OK", "zip": "73632", "phone": "(580) 832-3339", "hospital_type": "Critical Access Hospitals", "ownership": "Government - Hospital District or Authority", "rating": "Not Available", "emergency_services": "Yes", "source": "CMS"}}, {"type": "Feature", "geometry": {"type": "Point", "coordinates": [-98.314605375437, 36.116990437775]}, "properties": {"name": "OKEENE MUNICIPAL HOSPITAL", "address": "207 EAST F STREET", "city": "OKEENE", "state": "OK", "zip": "73763", "phone": "(580) 822-4417", "hospital_type": "Critical Access Hospitals", "ownership": "Government - Local", "rating": "Not Available", "emergency_services": "Yes", "source": "CMS"}}, {"type": "Feature", "geometry": {"type": "Point", "coordinates": [-96.995120172126, 34.506243112622]}, "properties": {"name": "ARBUCKLE MEMORIAL HOSPITAL", "address": "2011 WEST BROADWAY", "city": "SULPHUR", "state": "OK", "zip": "73086", "phone": "(580) 622-2161", "hospital_type": "Critical Access Hospitals", "ownership": "Government - Local", "rating": "Not Available", "emergency_services": "Yes", "source": "CMS"}}, {"type": "Feature", "geometry": {"type": "Point", "coordinates": [-98.474677832437, 36.275250146559]}, "properties": {"name": "FAIRVIEW REGIONAL MEDICAL CENTER AUTHORITY", "address": "523 EAST STATE ROAD", "city": "FAIRVIEW", "state": "OK", "zip": "73737", "phone": "(580) 227-3721", "hospital_type": "Critical Access Hospitals", "ownership": "Government - Hospital District or Authority", "rating": "Not Available", "emergency_services": "Yes", "source": "CMS"}}, {"type": "Feature", "geometry": {"type": "Point", "coordinates": [-99.501245485712, 34.891760569625]}, "properties": {"name": "MANGUM REGIONAL MEDICAL CENTER", "address": "1 WICKERSHAM DRIVE", "city": "MANGUM", "state": "OK", "zip": "73554", "phone": "(580) 782-3353", "hospital_type": "Critical Access Hospitals", "ownership": "Government - Hospital District or Authority", "rating": "Not Available", "emergency_services": "Yes", "source": "CMS"}}, {"type": "Feature", "geometry": {"type": "Point", "coordinates": [-98.924236338867, 36.153071729437]}, "properties": {"name": "SEILING MUNICIPAL HOSPITAL", "address": "809 NE HIGHWAY 60", "city": "SEILING", "state": "OK", "zip": "73663", "phone": "(580) 922-7361", "hospital_type": "Critical Access Hospitals", "ownership": "Government - Hospital District or Authority", "rating": "Not Available", "emergency_services": "Yes", "source": "CMS"}}, {"type": "Feature", "geometry": {"type": "Point", "coordinates": [-96.285531120163, 35.420703046979]}, "properties": {"name": "CREEK NATION COMMUNITY HOSPITAL", "address": "1800 E COPLIN", "city": "OKEMAH", "state": "OK", "zip": "74859", "phone": "(918) 623-1424", "hospital_type": "Critical Access Hospitals", "ownership": "Tribal", "rating": "Not Available", "emergency_services": "Yes", "source": "CMS"}}, {"type": "Feature", "geometry": {"type": "Point", "coordinates": [-98.604925902122, 35.108882516629]}, "properties": {"name": "CARNEGIE TRI-COUNTY MUNICIPAL HOSPITAL", "address": "102 NORTH BROADWAY", "city": "CARNEGIE", "state": "OK", "zip": "73015", "phone": "(580) 654-1050", "hospital_type": "Critical Access Hospitals", "ownership": "Government - Hospital District or Authority", "rating": "Not Available", "emergency_services": "Yes", "source": "CMS"}}, {"type": "Feature", "geometry": {"type": "Point", "coordinates": [-95.128297038225, 35.260846507711]}, "properties": {"name": "HASKELL REGIONAL HOSPITAL, INC", "address": "401 NORTHWEST H STREET", "city": "STIGLER", "state": "OK", "zip": "74462", "phone": "(918) 967-4682", "hospital_type": "Critical Access Hospitals", "ownership": "Voluntary non-profit - Private", "rating": "Not Available", "emergency_services": "Yes", "source": "CMS"}}, {"type": "Feature", "geometry": {"type": "Point", "coordinates": [-99.881562687369, 36.268621513792]}, "properties": {"name": "NEWMAN MEMORIAL HOSPITAL", "address": "905 SOUTH MAIN STREET", "city": "SHATTUCK", "state": "OK", "zip": "73858", "phone": "(580) 938-2551", "hospital_type": "Critical Access Hospitals", "ownership": "Government - Hospital District or Authority", "rating": "Not Available", "emergency_services": "Yes", "source": "CMS"}}, {"type": "Feature", "geometry": {"type": "Point", "coordinates": [-94.612192838259, 35.044538371728]}, "properties": {"name": "EASTERN OKLAHOMA MEDICAL CENTER", "address": "105 WALL STREET", "city": "POTEAU", "state": "OK", "zip": "74953", "phone": "(918) 647-8161", "hospital_type": "Critical Access Hospitals", "ownership": "Government - Local", "rating": "Not Available", "emergency_services": "Yes", "source": "CMS"}}, {"type": "Feature", "geometry": {"type": "Point", "coordinates": [-99.914803388186, 34.691532357739]}, "properties": {"name": "HARMON MEMORIAL HOSPITAL", "address": "400 EAST CHESTNUT STREET", "city": "HOLLIS", "state": "OK", "zip": "73550", "phone": "(580) 688-3363", "hospital_type": "Critical Access Hospitals", "ownership": "Voluntary non-profit - Other", "rating": "Not Available", "emergency_services": "Yes", "source": "CMS"}}, {"type": "Feature", "geometry": {"type": "Point", "coordinates": [-101.47609787351, 36.690749236997]}, "properties": {"name": "MEMORIAL HOSPITAL OF TEXAS COUNTY AUTHORITY", "address": "520 MEDICAL DRIVE", "city": "GUYMON", "state": "OK", "zip": "73942", "phone": "(580) 338-6515", "hospital_type": "Critical Access Hospitals", "ownership": "Government - Hospital District or Authority", "rating": "Not Available", "emergency_services": "Yes", "source": "CMS"}}, {"type": "Feature", "geometry": {"type": "Point", "coordinates": [-98.671125380445, 36.787029016507]}, "properties": {"name": "SHARE MEDICAL CENTER", "address": "800 SHARE DRIVE", "city": "ALVA", "state": "OK", "zip": "73717", "phone": "(580) 430-3355", "hospital_type": "Critical Access Hospitals", "ownership": "Government - Hospital District or Authority", "rating": "Not Available", "emergency_services": "Yes", "source": "CMS"}}, {"type": "Feature", "geometry": {"type": "Point", "coordinates": [-94.812324432443, 33.880947262368]}, "properties": {"name": "MCCURTAIN MEMORIAL HOSPITAL", "address": "1301 LINCOLN ROAD", "city": "IDABEL", "state": "OK", "zip": "74745", "phone": "(580) 286-7623", "hospital_type": "Critical Access Hospitals", "ownership": "Voluntary non-profit - Private", "rating": "2", "emergency_services": "Yes", "source": "CMS"}}, {"type": "Feature", "geometry": {"type": "Point", "coordinates": [-97.411823782161, 35.232714330171]}, "properties": {"name": "J D MCCARTY CENTER FOR CHILDREN", "address": "2002 EAST ROBINSON", "city": "NORMAN", "state": "OK", "zip": "73071", "phone": "(405) 307-2800", "hospital_type": "Childrens", "ownership": "Government - State", "rating": "Not Available", "emergency_services": "No", "source": "CMS"}}, {"type": "Feature", "geometry": {"type": "Point", "coordinates": [-97.632268672892, 35.512047310729]}, "properties": {"name": "THE CHILDREN'S CENTER, INC", "address": "6800 NW 39TH EXPRESSWAY", "city": "BETHANY", "state": "OK", "zip": "73008", "phone": "(405) 789-6711", "hospital_type": "Childrens", "ownership": "Voluntary non-profit - Private", "rating": "Not Available", "emergency_services": "Yes", "source": "CMS"}}, {"type": "Feature", "geometry": {"type": "Point", "coordinates": [-97.432317084849, 35.225495282128]}, "properties": {"name": "GRIFFIN MEMORIAL HOSPITAL", "address": "900 EAST MAIN STREET", "city": "NORMAN", "state": "OK", "zip": "73070", "phone": "(405) 321-4880", "hospital_type": "Psychiatric", "ownership": "Government - State", "rating": "Not Available", "emergency_services": "No", "source": "CMS"}}, {"type": "Feature", "geometry": {"type": "Point", "coordinates": [-98.439622514136, 34.602190778944]}, "properties": {"name": "JIM TALIAFERRO COMM MENTAL HEALTH CTR", "address": "602 SOUTHWEST 38TH STREET", "city": "LAWTON", "state": "OK", "zip": "73505", "phone": "(580) 248-5780", "hospital_type": "Psychiatric", "ownership": "Government - State", "rating": "Not Available", "emergency_services": "No", "source": "CMS"}}, {"type": "Feature", "geometry": {"type": "Point", "coordinates": [-95.851190793799, 36.158004212268]}, "properties": {"name": "BROOKHAVEN HOSPITAL, LLC", "address": "201 SOUTH GARNETT ROAD", "city": "TULSA", "state": "OK", "zip": "74128", "phone": "(918) 438-4257", "hospital_type": "Psychiatric", "ownership": "Proprietary", "rating": "Not Available", "emergency_services": "No", "source": "CMS"}}, {"type": "Feature", "geometry": {"type": "Point", "coordinates": [-96.629519227505, 34.784003733911]}, "properties": {"name": "ROLLING HILLS HOSPITAL, LLC", "address": "1000 ROLLING HILLS LANE", "city": "ADA", "state": "OK", "zip": "74820", "phone": "(580) 436-3600", "hospital_type": "Psychiatric", "ownership": "Proprietary", "rating": "Not Available", "emergency_services": "No", "source": "CMS"}}, {"type": "Feature", "geometry": {"type": "Point", "coordinates": [-95.92207584269, 36.066378159974]}, "properties": {"name": "LAUREATE PSYCHIATRIC CLINIC AND HOSPITAL, INC", "address": "6655 SOUTH YALE AVENUE", "city": "TULSA", "state": "OK", "zip": "74136", "phone": "(918) 481-4000", "hospital_type": "Psychiatric", "ownership": "Voluntary non-profit - Private", "rating": "Not Available", "emergency_services": "No", "source": "CMS"}}, {"type": "Feature", "geometry": {"type": "Point", "coordinates": [-95.969670043313, 36.144690927726]}, "properties": {"name": "PARKSIDE, INC", "address": "1239 S TRENTON AVE", "city": "TULSA", "state": "OK", "zip": "74120", "phone": "(918) 582-2131", "hospital_type": "Psychiatric", "ownership": "Voluntary non-profit - Private", "rating": "Not Available", "emergency_services": "No", "source": "CMS"}}, {"type": "Feature", "geometry": {"type": "Point", "coordinates": [-97.412542267662, 35.522292777226]}, "properties": {"name": "CEDAR RIDGE BEHAVIORAL HOSPITAL", "address": "6501 NORTHEAST 50TH STREET", "city": "OKLAHOMA CITY", "state": "OK", "zip": "73141", "phone": "(405) 605-6111", "hospital_type": "Psychiatric", "ownership": "Proprietary", "rating": "Not Available", "emergency_services": "No", "source": "CMS"}}, {"type": "Feature", "geometry": {"type": "Point", "coordinates": [-95.94026980198, 36.128797806117]}, "properties": {"name": "TULSA CENTER FOR BEHAVIORAL HEALTH", "address": "2323 S HARVARD AVE", "city": "TULSA", "state": "OK", "zip": "74114", "phone": "(918) 293-2140", "hospital_type": "Psychiatric", "ownership": "Government - State", "rating": "Not Available", "emergency_services": "No", "source": "CMS"}}]}