{"type": "FeatureCollection", "features": [{"type": "Feature", "geometry": {"type": "Point", "coordinates": [-95.628290138039, 36.316619261693]}, "properties": {"name": "Claremore Indian Hospital", "address": "101 S Moore Ave", "city": "Claremore", "state": "OK", "zip": "74017", "facility_type": "Hospital", "tribe": "Cherokee Nation", "source": "IHS / Tribal Health Authority"}}, {"type": "Feature", "geometry": {"type": "Point", "coordinates": [-98.385182097213, 34.620358936259]}, "properties": {"name": "Lawton Indian Hospital", "address": "1515 Lawrie Tatum Rd", "city": "Lawton", "state": "OK", "zip": "73507", "facility_type": "Hospital", "tribe": "IHS", "source": "IHS / Tribal Health Authority"}}, {"type": "Feature", "geometry": {"type": "Point", "coordinates": [-98.419187167092, 35.849010351628]}, "properties": {"name": "Watonga Indian Health Center", "address": "516 N Clarence Nash Blvd", "city": "Watonga", "state": "OK", "zip": "73772", "facility_type": "Health Center", "tribe": "Cheyenne & Arapaho", "source": "IHS / Tribal Health Authority"}}, {"type": "Feature", "geometry": {"type": "Point", "coordinates": [-98.253156361973, 35.066636832933]}, "properties": {"name": "Anadarko Indian Health Center", "address": "711 W Texas Ave", "city": "Anadarko", "state": "OK", "zip": "73005", "facility_type": "Health Center", "tribe": "IHS", "source": "IHS / Tribal Health Authority"}}, {"type": "Feature", "geometry": {"type": "Point", "coordinates": [-94.949206834642, 35.912498660949]}, "properties": {"name": "W.W. Hastings Hospital", "address": "100 S Bliss Ave", "city": "Tahlequah", "state": "OK", "zip": "74464", "facility_type": "Hospital", "tribe": "Cherokee Nation", "source": "IHS / Tribal Health Authority"}}, {"type": "Feature", "geometry": {"type": "Point", "coordinates": [-94.949920619156, 35.908149726048]}, "properties": {"name": "Cherokee Nation Outpatient Health Center", "address": "19600 E Ross St", "city": "Tahlequah", "state": "OK", "zip": "74464", "facility_type": "Health Center", "tribe": "Cherokee Nation", "source": "IHS / Tribal Health Authority"}}, {"type": "Feature", "geometry": {"type": "Point", "coordinates": [-95.310323956333, 35.733806121254]}, "properties": {"name": "Three Rivers Health Center", "address": "1001 S 41st St E", "city": "Muskogee", "state": "OK", "zip": "74403", "facility_type": "Health Center", "tribe": "Cherokee Nation", "source": "IHS / Tribal Health Authority"}}, {"type": "Feature", "geometry": {"type": "Point", "coordinates": [-95.630461740738, 36.69578933072]}, "properties": {"name": "Nowata Health Center", "address": "305 N Locust St", "city": "Nowata", "state": "OK", "zip": "74048", "facility_type": "Health Center", "tribe": "Cherokee Nation", "source": "IHS / Tribal Health Authority"}}, {"type": "Feature", "geometry": {"type": "Point", "coordinates": [-96.661161721568, 34.230490791759]}, "properties": {"name": "Chickasaw Nation Health Clinic - Tishomingo", "address": "1500 E Main St", "city": "Tishomingo", "state": "OK", "zip": "73460", "facility_type": "Health Center", "tribe": "Chickasaw Nation", "source": "IHS / Tribal Health Authority"}}, {"type": "Feature", "geometry": {"type": "Point", "coordinates": [-97.140428522665, 34.200429872792]}, "properties": {"name": "Chickasaw Nation Health Clinic - Ardmore", "address": "2350 Chickasaw Blvd", "city": "Ardmore", "state": "OK", "zip": "73401", "facility_type": "Health Center", "tribe": "Chickasaw Nation", "source": "IHS / Tribal Health Authority"}}, {"type": "Feature", "geometry": {"type": "Point", "coordinates": [-96.372878645344, 34.007261943618]}, "properties": {"name": "Chickasaw Nation Health Clinic - Durant", "address": "1702 S 1st Ave", "city": "Durant", "state": "OK", "zip": "74701", "facility_type": "Health Center", "tribe": "Chickasaw Nation", "source": "IHS / Tribal Health Authority"}}, {"type": "Feature", "geometry": {"type": "Point", "coordinates": [-97.370985477673, 34.992271074828]}, "properties": {"name": "Chickasaw Nation Health Clinic - Purcell", "address": "1800 Hardcastle Blvd", "city": "Purcell", "state": "OK", "zip": "73080", "facility_type": "Health Center", "tribe": "Chickasaw Nation", "source": "IHS / Tribal Health Authority"}}, {"type": "Feature", "geometry": {"type": "Point", "coordinates": [-95.759702686041, 34.89835208491]}, "properties": {"name": "Choctaw Nation Health Clinic - McAlester", "address": "1127 S George Nigh Expy", "city": "McAlester", "state": "OK", "zip": "74501", "facility_type": "Health Center", "tribe": "Choctaw Nation", "source": "IHS / Tribal Health Authority"}}, {"type": "Feature", "geometry": {"type": "Point", "coordinates": [-94.659647596621, 35.021750920022]}, "properties": {"name": "Choctaw Nation Health Clinic - Poteau", "address": "109 Kerr Ave", "city": "Poteau", "state": "OK", "zip": "74953", "facility_type": "Health Center", "tribe": "Choctaw Nation", "source": "IHS / Tribal Health Authority"}}, {"type": "Feature", "geometry": {"type": "Point", "coordinates": [-95.508443155063, 34.01166414654]}, "properties": {"name": "Choctaw Nation Health Clinic - Hugo", "address": "410 E Kirk St", "city": "Hugo", "state": "OK", "zip": "74743", "facility_type": "Health Center", "tribe": "Choctaw Nation", "source": "IHS / Tribal Health Authority"}}, {"type": "Feature", "geometry": {"type": "Point", "coordinates": [-94.739624274319, 34.011602831651]}, "properties": {"name": "Choctaw Nation Health Clinic - Broken Bow", "address": "1500 S Park Dr", "city": "Broken Bow", "state": "OK", "zip": "74728", "facility_type": "Health Center", "tribe": "Choctaw Nation", "source": "IHS / Tribal Health Authority"}}, {"type": "Feature", "geometry": {"type": "Point", "coordinates": [-94.791433679341, 33.887511193528]}, "properties": {"name": "Choctaw Nation Health Clinic - Idabel", "address": "902 SE Lincoln Rd", "city": "Idabel", "state": "OK", "zip": "74745", "facility_type": "Health Center", "tribe": "Choctaw Nation", "source": "IHS / Tribal Health Authority"}}, {"type": "Feature", "geometry": {"type": "Point", "coordinates": [-96.317495139669, 35.433763970616]}, "properties": {"name": "Creek Nation Community Hospital", "address": "309 N 14th St", "city": "Okemah", "state": "OK", "zip": "74859", "facility_type": "Hospital", "tribe": "Muscogee Creek Nation", "source": "IHS / Tribal Health Authority"}}, {"type": "Feature", "geometry": {"type": "Point", "coordinates": [-95.962117494434, 35.63732399178]}, "properties": {"name": "Creek Nation Health Center - Okmulgee", "address": "1500 N Wood Dr", "city": "Okmulgee", "state": "OK", "zip": "74447", "facility_type": "Health Center", "tribe": "Muscogee Creek Nation", "source": "IHS / Tribal Health Authority"}}, {"type": "Feature", "geometry": {"type": "Point", "coordinates": [-96.118398652764, 35.988457477741]}, "properties": {"name": "Creek Nation Health Center - Sapulpa", "address": "367 W Taft Ave", "city": "Sapulpa", "state": "OK", "zip": "74066", "facility_type": "Health Center", "tribe": "Muscogee Creek Nation", "source": "IHS / Tribal Health Authority"}}, {"type": "Feature", "geometry": {"type": "Point", "coordinates": [-96.925877316758, 35.301823904887]}, "properties": {"name": "Citizen Potawatomi Nation Health Center", "address": "1601 S Gordon Cooper Dr", "city": "Shawnee", "state": "OK", "zip": "74801", "facility_type": "Health Center", "tribe": "Citizen Potawatomi Nation", "source": "IHS / Tribal Health Authority"}}, {"type": "Feature", "geometry": {"type": "Point", "coordinates": [-98.385182097213, 34.620358936259]}, "properties": {"name": "Comanche Nation Health Center", "address": "1515 Lawrie Tatum Rd Bldg 29", "city": "Lawton", "state": "OK", "zip": "73507", "facility_type": "Health Center", "tribe": "Comanche Nation", "source": "IHS / Tribal Health Authority"}}, {"type": "Feature", "geometry": {"type": "Point", "coordinates": [-96.339018152606, 36.664317295016]}, "properties": {"name": "Wah-Zha-Zhi Health Center", "address": "128 E 6th St", "city": "Pawhuska", "state": "OK", "zip": "74056", "facility_type": "Health Center", "tribe": "Osage Nation", "source": "IHS / Tribal Health Authority"}}, {"type": "Feature", "geometry": {"type": "Point", "coordinates": [-95.975673758817, 36.153230204718]}, "properties": {"name": "Indian Health Care Resource Center of Tulsa", "address": "550 S Peoria Ave", "city": "Tulsa", "state": "OK", "zip": "74120", "facility_type": "Urban Indian Health", "tribe": "Urban Indian", "source": "IHS / Tribal Health Authority"}}, {"type": "Feature", "geometry": {"type": "Point", "coordinates": [-97.607588955781, 35.464481486421]}, "properties": {"name": "Oklahoma City Indian Clinic", "address": "4913 W Reno Ave", "city": "Oklahoma City", "state": "OK", "zip": "73127", "facility_type": "Urban Indian Health", "tribe": "Urban Indian", "source": "IHS / Tribal Health Authority"}}]}