{"type": "FeatureCollection", "features": [{"type": "Feature", "properties": {"npi": "1205285988", "name": "ABC MEDICAL CLINIC OF HOLDENVILLE, LLC", "address": "1011 N HINCKLEY ST", "city": "HOLDENVILLE", "state": "OK", "zip": "74848", "phone": "405-592-3500", "county": ""}, "geometry": {"type": "Point", "coordinates": [-96.389782, 35.0859544]}}, {"type": "Feature", "properties": {"npi": "1194586461", "name": "ACCESS MEDICAL CLINIC LLC", "address": "709 E DOWNING ST", "city": "TAHLEQUAH", "state": "OK", "zip": "74464", "phone": "918-458-9444", "county": ""}, "geometry": {"type": "Point", "coordinates": [-94.960177, 35.915466]}}, {"type": "Feature", "properties": {"npi": "1134772981", "name": "ADAIR COUNTY HEALTH CENTER, INC", "address": "1401 W LOCUST ST", "city": "STILWELL", "state": "OK", "zip": "74960", "phone": "918-696-3101", "county": ""}, "geometry": {"type": "Point", "coordinates": [-94.6429087, 35.8095033]}}, {"type": "Feature", "properties": {"npi": "1356974687", "name": "AHS CLAREMORE REGIONAL HOSPITAL LLC", "address": "201 W BLUE STARR DR", "city": "CLAREMORE", "state": "OK", "zip": "74017", "phone": "918-341-5200", "county": ""}, "geometry": {"type": "Point", "coordinates": [-95.6049077, 36.3218355]}}, {"type": "Feature", "properties": {"npi": "1316579642", "name": "AHS CLAREMORE REGIONAL HOSPITAL, LLC", "address": "1501 N FLORENCE AVE STE 101, 201, 250 & 300", "city": "CLAREMORE", "state": "OK", "zip": "74017", "phone": "918-342-3633", "county": ""}, "geometry": {"type": "Point", "coordinates": [-95.6160686, 36.3126005]}}, {"type": "Feature", "properties": {"npi": "1871008722", "name": "AHS HENRYETTA HOSPITAL LLC", "address": "2403 W MAIN ST", "city": "HENRYETTA", "state": "OK", "zip": "74437", "phone": "918-652-6950", "county": ""}, "geometry": {"type": "Point", "coordinates": [-96.0030943, 35.4397697]}}, {"type": "Feature", "properties": {"npi": "1295232478", "name": "AHS HENRYETTA HOSPITAL LLC", "address": "2405 W MAIN ST STE A", "city": "HENRYETTA", "state": "OK", "zip": "74437", "phone": "918-650-1180", "county": ""}, "geometry": {"type": "Point", "coordinates": [-95.9865145, 35.4396625]}}, {"type": "Feature", "properties": {"npi": "1922683051", "name": "AHS OKLAHOMA PHYSICIAN GROUP,LLC", "address": "1025 E 2ND ST", "city": "CUSHING", "state": "OK", "zip": "74023", "phone": "918-225-3627", "county": ""}, "geometry": {"type": "Point", "coordinates": [-96.758326, 35.9778717]}}, {"type": "Feature", "properties": {"npi": "1740787928", "name": "AHS PRYOR HOSPITAL, LLC", "address": "1301 NE 1ST ST STE 400", "city": "PRYOR", "state": "OK", "zip": "74361", "phone": "918-824-8000", "county": ""}, "geometry": {"type": "Point", "coordinates": [-95.3169136, 36.3084275]}}, {"type": "Feature", "properties": {"npi": "1134632037", "name": "AHS PRYOR HOSPITAL, LLC", "address": "562 S ELLIOTT ST", "city": "PRYOR", "state": "OK", "zip": "74361", "phone": "918-824-8000", "county": ""}, "geometry": {"type": "Point", "coordinates": [-95.3099401, 36.2955669]}}, {"type": "Feature", "properties": {"npi": "1144534603", "name": "ALVA HOSPITAL AUTHORITY", "address": "800 SHARE DR STE 100", "city": "ALVA", "state": "OK", "zip": "73717", "phone": "580-430-3366", "county": ""}, "geometry": {"type": "Point", "coordinates": [-98.6660278, 36.8030501]}}, {"type": "Feature", "properties": {"npi": "1497945851", "name": "ALVA HOSPITAL AUTHORITY", "address": "410 4TH ST STE J", "city": "ALVA", "state": "OK", "zip": "73717", "phone": "580-430-3333", "county": ""}, "geometry": {"type": "Point", "coordinates": [-98.6660278, 36.8030501]}}, {"type": "Feature", "properties": {"npi": "1295368587", "name": "AMC MEDICAL CLINIC I LLC", "address": "218 N MAIN ST", "city": "EUFAULA", "state": "OK", "zip": "74432", "phone": "918-689-7705", "county": ""}, "geometry": {"type": "Point", "coordinates": [-95.5865312, 35.2727184]}}, {"type": "Feature", "properties": {"npi": "1407030356", "name": "ANGELS HEALTH CARE CLINIC INC", "address": "47922 ST HWY 99", "city": "PAWHUSKA", "state": "OK", "zip": "74056", "phone": "918-349-2290", "county": ""}, "geometry": {"type": "Point", "coordinates": [-96.3401208, 36.6633403]}}, {"type": "Feature", "properties": {"npi": "1821972076", "name": "ARBUCKLE MEMORIAL HOSPITAL", "address": "109-C W. MAIN ST", "city": "DAVIS", "state": "OK", "zip": "73030", "phone": "580-622-8205", "county": ""}, "geometry": {"type": "Point", "coordinates": [-97.1223174, 34.503642]}}, {"type": "Feature", "properties": {"npi": "1730541673", "name": "ARBUCKLE MEMORIAL HOSPITAL", "address": "2011 W BROADWAY AVE", "city": "SULPHUR", "state": "OK", "zip": "73086", "phone": "580-622-4482", "county": ""}, "geometry": {"type": "Point", "coordinates": [-96.9961595, 34.5052002]}}, {"type": "Feature", "properties": {"npi": "1053266353", "name": "ARYAN P. KADIVAR, M.D., P.C.", "address": "256800 HIGHWAY 5", "city": "WALTERS", "state": "OK", "zip": "73572", "phone": "580-699-7699", "county": ""}, "geometry": {"type": "Point", "coordinates": [-98.3078258, 34.3598075]}}, {"type": "Feature", "properties": {"npi": "1275061467", "name": "AYANDEH HEALTH LLC", "address": "7 N MAIN STREET", "city": "KINGSTON", "state": "OK", "zip": "73439", "phone": "405-659-5656", "county": ""}, "geometry": {"type": "Point", "coordinates": [-96.7187435, 34.0046038]}}, {"type": "Feature", "properties": {"npi": "1710378294", "name": "BLACKHAWK MANGUM LLC", "address": "1601 WATTS ST", "city": "SAYRE", "state": "OK", "zip": "73662", "phone": "580-928-9933", "county": ""}, "geometry": {"type": "Point", "coordinates": [-99.633066, 35.307908]}}, {"type": "Feature", "properties": {"npi": "1295069151", "name": "BLACKHAWK MANGUM LLC", "address": "118 S LOUIS TITTLE AVE", "city": "MANGUM", "state": "OK", "zip": "73554", "phone": "580-782-3353", "county": ""}, "geometry": {"type": "Point", "coordinates": [-99.5026342, 34.8733843]}}, {"type": "Feature", "properties": {"npi": "1225362015", "name": "BLACKHAWK MANGUM LLC", "address": "ONE WICKERSHAM DRIVE", "city": "MANGUM", "state": "OK", "zip": "73554", "phone": "580-782-3353", "county": ""}, "geometry": {"type": "Point", "coordinates": [-99.5013243, 34.891816]}}, {"type": "Feature", "properties": {"npi": "1609355312", "name": "BLACKWELL HOSPITAL TRUST AUTHORITY", "address": "706 S 13TH ST STE C", "city": "BLACKWELL", "state": "OK", "zip": "74631", "phone": "580-363-2311", "county": ""}, "geometry": {"type": "Point", "coordinates": [-97.2861191, 36.8018163]}}, {"type": "Feature", "properties": {"npi": "1194572040", "name": "BRADLEY BIBB MD PLLC", "address": "1201 E HARTFORD AVE", "city": "PONCA CITY", "state": "OK", "zip": "74601", "phone": "580-762-1911", "county": ""}, "geometry": {"type": "Point", "coordinates": [-97.069781, 36.724164]}}, {"type": "Feature", "properties": {"npi": "1669289310", "name": "BRADLEY BIBB MD PLLC", "address": "2400 S COUNTRY CLUB RD", "city": "EL RENO", "state": "OK", "zip": "73036", "phone": "405-276-3800", "county": ""}, "geometry": {"type": "Point", "coordinates": [-97.9759453, 35.511135]}}, {"type": "Feature", "properties": {"npi": "1013724764", "name": "BRADLEY BIBB MD PLLC", "address": "2001 S 1ST ST", "city": "CHICKASHA", "state": "OK", "zip": "73018", "phone": "405-320-9444", "county": ""}, "geometry": {"type": "Point", "coordinates": [-97.931081, 35.031027]}}, {"type": "Feature", "properties": {"npi": "1194477521", "name": "BRIDGING FAMILY HEALTHCARE, LLC", "address": "117 S BRIDGE BLVD", "city": "GRANDFIELD", "state": "OK", "zip": "73546", "phone": "580-560-5715", "county": ""}, "geometry": {"type": "Point", "coordinates": [-98.6845075, 34.2284233]}}, {"type": "Feature", "properties": {"npi": "1598039620", "name": "CAH ACQUISITION COMPANY 12 LLC", "address": "535 6TH ST", "city": "PAWNEE", "state": "OK", "zip": "74058", "phone": "918-762-3942", "county": ""}, "geometry": {"type": "Point", "coordinates": [-96.8040805, 36.3386598]}}, {"type": "Feature", "properties": {"npi": "1306145339", "name": "CAH ACQUISITION COMPANY 12 LLC", "address": "40 HOSPITAL RD", "city": "FAIRFAX", "state": "OK", "zip": "74637", "phone": "918-642-8827", "county": ""}, "geometry": {"type": "Point", "coordinates": [-96.7070313, 36.5631709]}}, {"type": "Feature", "properties": {"npi": "1811376619", "name": "CAH ACQUISITION COMPANY 16 LLC", "address": "901 NW 6TH ST", "city": "STIGLER", "state": "OK", "zip": "74462", "phone": "918-967-5036", "county": ""}, "geometry": {"type": "Point", "coordinates": [-95.130946, 35.260987]}}, {"type": "Feature", "properties": {"npi": "1659600815", "name": "CAH ACQUISITION COMPANY 4 INC", "address": "612 W. BYPASS", "city": "DRUMRIGHT", "state": "OK", "zip": "74030", "phone": "918-382-5955", "county": ""}, "geometry": {"type": "Point", "coordinates": [-96.6011294, 35.9884013]}}, {"type": "Feature", "properties": {"npi": "1538432984", "name": "CAH ACQUISITION COMPANY 9 LLC", "address": "US HIGHWAY 60 NORTHEAST", "city": "SEILING", "state": "OK", "zip": "73663", "phone": "580-922-7361", "county": ""}, "geometry": {"type": "Point", "coordinates": [-98.9244672, 36.1480287]}}, {"type": "Feature", "properties": {"npi": "1982934261", "name": "CAH ACQUISITION COMPANY 9 LLC", "address": "104 W. BROADWAY", "city": "VICI", "state": "OK", "zip": "73859", "phone": "580-995-3004", "county": ""}, "geometry": {"type": "Point", "coordinates": [-99.2909659, 36.1496583]}}, {"type": "Feature", "properties": {"npi": "1275657017", "name": "CARNEGIE TRI-COUNTY MUNICIPAL HOSPITAL MANAGEMENT, INC", "address": "102 N. BROADWAY", "city": "CARNEGIE", "state": "OK", "zip": "73015", "phone": "580-654-1050", "county": ""}, "geometry": {"type": "Point", "coordinates": [-98.6052112, 35.1075795]}}, {"type": "Feature", "properties": {"npi": "1649057431", "name": "CARRUS LAKESIDE HOSPITAL LLC", "address": "700 W 7TH AVE STE 102", "city": "BRISTOW", "state": "OK", "zip": "74010", "phone": "918-367-2215", "county": ""}, "geometry": {"type": "Point", "coordinates": [-96.3907747, 35.8308944]}}, {"type": "Feature", "properties": {"npi": "1326095381", "name": "CHARLES C CARTER MD DPH PLLC", "address": "1015 E BROADWAY ST", "city": "ALTUS", "state": "OK", "zip": "73521", "phone": "580-480-1600", "county": ""}, "geometry": {"type": "Point", "coordinates": [-99.3217638, 34.6378725]}}, {"type": "Feature", "properties": {"npi": "1679543581", "name": "CIMARRON MEMORIAL HOSPITAL AND NURSING HOME", "address": "102 SOUTH ELLIS", "city": "BOISE CITY", "state": "OK", "zip": "73933", "phone": "580-544-3008", "county": ""}, "geometry": {"type": "Point", "coordinates": [-102.5175303, 36.7243866]}}, {"type": "Feature", "properties": {"npi": "1164493904", "name": "CIMARRON MEMORIAL HOSPITAL AND NURSING HOME", "address": "100 S ELLIS", "city": "BOISE CITY", "state": "OK", "zip": "73933", "phone": "580-544-2501", "county": ""}, "geometry": {"type": "Point", "coordinates": [-102.5181867, 36.7288342]}}, {"type": "Feature", "properties": {"npi": "1588160774", "name": "CLEVELAND AREA HOSPITAL HOLDINGS, INC.", "address": "1400 W PAWNEE ST", "city": "CLEVELAND", "state": "OK", "zip": "74020", "phone": "918-358-3588", "county": ""}, "geometry": {"type": "Point", "coordinates": [-96.480502, 36.309813]}}, {"type": "Feature", "properties": {"npi": "1497766000", "name": "CLINICO LLC", "address": "103 E MAIN", "city": "BEGGS", "state": "OK", "zip": "74421", "phone": "918-267-7000", "county": ""}, "geometry": {"type": "Point", "coordinates": [-96.0698032, 35.742792]}}, {"type": "Feature", "properties": {"npi": "1285286138", "name": "CLINTON HMA LLC", "address": "209 S 30TH ST", "city": "CLINTON", "state": "OK", "zip": "73601", "phone": "580-323-2300", "county": ""}, "geometry": {"type": "Point", "coordinates": [-98.997046, 35.5132316]}}, {"type": "Feature", "properties": {"npi": "1386171460", "name": "CLINTON HMA LLC", "address": "123 S 9TH ST", "city": "CLINTON", "state": "OK", "zip": "73601", "phone": "580-323-2300", "county": ""}, "geometry": {"type": "Point", "coordinates": [-98.970688, 35.5142026]}}, {"type": "Feature", "properties": {"npi": "1548797954", "name": "CLINTON HMA LLC", "address": "523 E FRANKLIN AVE", "city": "WEATHERFORD", "state": "OK", "zip": "73096", "phone": "580-774-7902", "county": ""}, "geometry": {"type": "Point", "coordinates": [-98.7021311, 35.5271854]}}, {"type": "Feature", "properties": {"npi": "1750091500", "name": "COAL COUNTY GENERAL HOSPITAL", "address": "108 W OHIO AVE", "city": "COALGATE", "state": "OK", "zip": "74538", "phone": "580-927-2337", "county": ""}, "geometry": {"type": "Point", "coordinates": [-96.2189873, 34.5396898]}}, {"type": "Feature", "properties": {"npi": "1245938497", "name": "COAL COUNTY GENERAL HOSPITAL", "address": "1308 E CARL ALBERT PKWY", "city": "MCALESTER", "state": "OK", "zip": "74501", "phone": "918-423-7191", "county": ""}, "geometry": {"type": "Point", "coordinates": [-95.7516706, 34.9287691]}}, {"type": "Feature", "properties": {"npi": "1639877871", "name": "COAL COUNTY GENERAL HOSPITAL", "address": "1668 W LIBERTY RD", "city": "ATOKA", "state": "OK", "zip": "74525", "phone": "580-889-3355", "county": ""}, "geometry": {"type": "Point", "coordinates": [-96.1511598, 34.3939608]}}, {"type": "Feature", "properties": {"npi": "1598117137", "name": "CORDELL MEMORIAL HOSPITAL 0189", "address": "1200 N GLENN L ENGLISH ST", "city": "CORDELL", "state": "OK", "zip": "73632", "phone": "580-832-3838", "county": ""}, "geometry": {"type": "Point", "coordinates": [-98.9875888, 35.296088]}}, {"type": "Feature", "properties": {"npi": "1861295792", "name": "CORNERSTONE WELLNESS", "address": "320 E MOCKINGBIRD LN", "city": "MCALESTER", "state": "OK", "zip": "74501", "phone": "918-470-2383", "county": ""}, "geometry": {"type": "Point", "coordinates": [-95.7679291, 34.9084137]}}, {"type": "Feature", "properties": {"npi": "1972491470", "name": "DCS MEDICAL PA", "address": "921 E HWY 199", "city": "SPRINGTOWN", "state": "TX", "zip": "76082", "phone": "405-445-1210", "county": ""}, "geometry": {"type": "Point", "coordinates": [-95.6625416, 36.1059408]}}, {"type": "Feature", "properties": {"npi": "1003642208", "name": "DCS MEDICAL PA", "address": "900 E END BLVD N STE E", "city": "MARSHALL", "state": "TX", "zip": "75670", "phone": "903-472-5191", "county": ""}, "geometry": {"type": "Point", "coordinates": [-94.3661004, 32.5447756]}}, {"type": "Feature", "properties": {"npi": "1962271692", "name": "DCS MEDICAL PA", "address": "1501 SE 1ST ST", "city": "MINERAL WELLS", "state": "TX", "zip": "76067", "phone": "940-468-4080", "county": ""}, "geometry": {"type": "Point", "coordinates": [-97.4285078, 35.8681136]}}, {"type": "Feature", "properties": {"npi": "1659194058", "name": "DCS MEDICAL PA", "address": "8440 S STATE HWY 34", "city": "QUINLAN", "state": "TX", "zip": "75474", "phone": "405-445-1210", "county": ""}, "geometry": {"type": "Point", "coordinates": [-99.0453756, 36.45448]}}, {"type": "Feature", "properties": {"npi": "1598583361", "name": "DCS MEDICAL PA", "address": "1643 N MARKET ST", "city": "HEARNE", "state": "TX", "zip": "77859", "phone": "405-445-1210", "county": ""}, "geometry": {"type": "Point", "coordinates": [-96.5962378, 30.8788819]}}, {"type": "Feature", "properties": {"npi": "1801644018", "name": "DCS MEDICAL PA", "address": "2857 W WASHINGTON ST", "city": "STEPHENVILLE", "state": "TX", "zip": "76401", "phone": "254-965-5273", "county": ""}, "geometry": {"type": "Point", "coordinates": [-98.2045388, 32.2201387]}}, {"type": "Feature", "properties": {"npi": "1700560984", "name": "DCS MEDICAL PA", "address": "2608 HIGHWAY 36 S", "city": "BRENHAM", "state": "TX", "zip": "77833", "phone": "979-451-6000", "county": ""}, "geometry": {"type": "Point", "coordinates": [-96.3977442, 30.1668828]}}, {"type": "Feature", "properties": {"npi": "1063138741", "name": "DCS MEDICAL PA", "address": "2140 N STATE HIGHWAY 121", "city": "BONHAM", "state": "TX", "zip": "75418", "phone": "430-703-1550", "county": ""}, "geometry": {"type": "Point", "coordinates": [-96.5619514, 33.8983124]}}, {"type": "Feature", "properties": {"npi": "1740178144", "name": "DCS MEDICAL PA", "address": "1960 S LOOP 256", "city": "PALESTINE", "state": "TX", "zip": "75801", "phone": "903-212-1839", "county": ""}, "geometry": {"type": "Point", "coordinates": [-95.4660902, 35.1506531]}}, {"type": "Feature", "properties": {"npi": "1720802028", "name": "DCS MEDICAL PA", "address": "500 S STEMMONS FWY", "city": "SANGER", "state": "TX", "zip": "76266", "phone": "940-302-3042", "county": ""}, "geometry": {"type": "Point", "coordinates": [-97.1739028, 33.3631706]}}, {"type": "Feature", "properties": {"npi": "1619703824", "name": "DCS MEDICAL PA", "address": "3014 E BUSINESS 190", "city": "COPPERAS COVE", "state": "TX", "zip": "76522", "phone": "254-577-4384", "county": ""}, "geometry": {"type": "Point", "coordinates": [-97.9030785, 31.124062]}}, {"type": "Feature", "properties": {"npi": "1518793728", "name": "DCS MEDICAL PA", "address": "1404 S FM 51", "city": "DECATUR", "state": "TX", "zip": "76234", "phone": "940-539-4860", "county": ""}, "geometry": {"type": "Point", "coordinates": [-97.4381328, 35.188203]}}, {"type": "Feature", "properties": {"npi": "1851914113", "name": "DLS MEDICAL CLINIC", "address": "907 NW 5TH ST", "city": "STIGLER", "state": "OK", "zip": "74462", "phone": "918-967-0055", "county": ""}, "geometry": {"type": "Point", "coordinates": [-95.129383, 35.2610021]}}, {"type": "Feature", "properties": {"npi": "1457558827", "name": "DOCTORS CLINIC OF DURANT INC", "address": "1400 BRYAN DR", "city": "DURANT", "state": "OK", "zip": "74701", "phone": "580-924-1700", "county": ""}, "geometry": {"type": "Point", "coordinates": [-96.3975816, 34.0067734]}}, {"type": "Feature", "properties": {"npi": "1275161457", "name": "DRUMRIGHT COMMUNITY HOSPITAL LLC", "address": "612 W BYPASS", "city": "DRUMRIGHT", "state": "OK", "zip": "74030", "phone": "918-382-5955", "county": ""}, "geometry": {"type": "Point", "coordinates": [-96.6011294, 35.9884013]}}, {"type": "Feature", "properties": {"npi": "1700323870", "name": "DUNCAN REGIONAL HOSPITAL INC", "address": "502 S 6TH", "city": "RINGLING", "state": "OK", "zip": "73456", "phone": "580-662-2316", "county": ""}, "geometry": {"type": "Point", "coordinates": [-97.5913323, 34.1802376]}}, {"type": "Feature", "properties": {"npi": "1699211474", "name": "DUNCAN REGIONAL HOSPITAL INC", "address": "1104 6TH ST", "city": "RYAN", "state": "OK", "zip": "73565", "phone": "580-757-2451", "county": ""}, "geometry": {"type": "Point", "coordinates": [-97.9592327, 34.0241304]}}, {"type": "Feature", "properties": {"npi": "1457863441", "name": "DUNCAN REGIONAL HOSPITAL, INC", "address": "501 N 4TH ST", "city": "MARLOW", "state": "OK", "zip": "73055", "phone": "580-658-6679", "county": ""}, "geometry": {"type": "Point", "coordinates": [-97.959356, 34.653098]}}, {"type": "Feature", "properties": {"npi": "1902347651", "name": "DUNCAN REGIONAL HOSPITAL, INC", "address": "2515 N WHISENANT DRIVE", "city": "DUNCAN", "state": "OK", "zip": "73533", "phone": "580-251-6806", "county": ""}, "geometry": {"type": "Point", "coordinates": [-97.9757788, 34.5178676]}}, {"type": "Feature", "properties": {"npi": "1306477146", "name": "DUNCAN REGIONAL HOSPITAL, INC", "address": "8148 STATE HIGHWAY 17", "city": "ELGIN", "state": "OK", "zip": "73538", "phone": "580-454-2273", "county": ""}, "geometry": {"type": "Point", "coordinates": [-98.292273, 34.7803469]}}, {"type": "Feature", "properties": {"npi": "1386156321", "name": "DUNCAN REGIONAL HOSPITAL, INC", "address": "2560 W ELK AVE", "city": "DUNCAN", "state": "OK", "zip": "73533", "phone": "580-252-9600", "county": ""}, "geometry": {"type": "Point", "coordinates": [-97.9815677, 34.5215364]}}, {"type": "Feature", "properties": {"npi": "1528509163", "name": "DUNCAN REGIONAL HOSPITAL, INC,", "address": "303 N HIGHWAY 81", "city": "COMANCHE", "state": "OK", "zip": "73529", "phone": "580-439-6889", "county": ""}, "geometry": {"type": "Point", "coordinates": [-97.9649568, 34.3956128]}}, {"type": "Feature", "properties": {"npi": "1467963850", "name": "DUNCAN REGIONAL HOSPITAL, INC.", "address": "9170 US HIGHWAY 70", "city": "WAURIKA", "state": "OK", "zip": "73573", "phone": "580-228-3669", "county": ""}, "geometry": {"type": "Point", "coordinates": [-97.997536, 34.1670371]}}, {"type": "Feature", "properties": {"npi": "1164963708", "name": "DUNCAN REGIONAL HOSPITAL, INC.", "address": "2635 W ELK AVE", "city": "DUNCAN", "state": "OK", "zip": "73533", "phone": "580-252-6080", "county": ""}, "geometry": {"type": "Point", "coordinates": [-97.9819789, 34.5217001]}}, {"type": "Feature", "properties": {"npi": "1609317247", "name": "DUNCAN REGIONAL HOSPITAL, INC.", "address": "2434 HARVILLE RD STE 200&300", "city": "DUNCAN", "state": "OK", "zip": "73533", "phone": "580-252-1373", "county": ""}, "geometry": {"type": "Point", "coordinates": [-97.9578129, 34.5023029]}}, {"type": "Feature", "properties": {"npi": "1124569744", "name": "DUNCAN REGIONAL HOSPITAL, INC.", "address": "404 MAIN ST", "city": "VELMA", "state": "OK", "zip": "73491", "phone": "580-444-2630", "county": ""}, "geometry": {"type": "Point", "coordinates": [-97.6740004, 34.458941]}}, {"type": "Feature", "properties": {"npi": "1144704115", "name": "DUNCAN REGIONAL HOSPITAL, INC.", "address": "117 W MISSOURI ST", "city": "WALTERS", "state": "OK", "zip": "73572", "phone": "580-875-5622", "county": ""}, "geometry": {"type": "Point", "coordinates": [-98.3078258, 34.3598075]}}, {"type": "Feature", "properties": {"npi": "1447734405", "name": "DUNCAN REGIONAL HOSPITAL, INC.", "address": "2340 W ELK AVE", "city": "DUNCAN", "state": "OK", "zip": "73533", "phone": "580-251-6822", "county": ""}, "geometry": {"type": "Point", "coordinates": [-97.978158, 34.5215377]}}, {"type": "Feature", "properties": {"npi": "1114276425", "name": "EASTERN OKLAHOMA MEDICAL CONSULTANTS, PLLC", "address": "700 NORTH MAIN", "city": "GORE", "state": "OK", "zip": "74435", "phone": "918-489-5757", "county": ""}, "geometry": {"type": "Point", "coordinates": [-95.1115928, 35.534771]}}, {"type": "Feature", "properties": {"npi": "1588147938", "name": "EASTERN OKLAHOMA MEDICAL CONSULTANTS, PLLC", "address": "700 N MAIN ST", "city": "GORE", "state": "OK", "zip": "74435", "phone": "918-489-5757", "county": ""}, "geometry": {"type": "Point", "coordinates": [-95.1115928, 35.534771]}}, {"type": "Feature", "properties": {"npi": "1437446127", "name": "ESSENT PRMC, LP", "address": "514 EAST WILSON", "city": "VALLIANT", "state": "OK", "zip": "74764", "phone": "615-312-5103", "county": ""}, "geometry": {"type": "Point", "coordinates": [-95.0938386, 34.0023293]}}, {"type": "Feature", "properties": {"npi": "1699953687", "name": "FAMILY CLINIC OF WELEETKA", "address": "315 W. 9TH", "city": "WELEETKA", "state": "OK", "zip": "74880", "phone": "405-786-2248", "county": ""}, "geometry": {"type": "Point", "coordinates": [-96.1363921, 35.3356496]}}, {"type": "Feature", "properties": {"npi": "1164583878", "name": "FAMILY PRACTICE OF ELK CITY, P.C.", "address": "601 W 3RD ST", "city": "ELK CITY", "state": "OK", "zip": "73644", "phone": "580-225-5900", "county": ""}, "geometry": {"type": "Point", "coordinates": [-99.411084, 35.411796]}}, {"type": "Feature", "properties": {"npi": "1023512308", "name": "FARMERS UNION HOSPITAL ASSOCIATION", "address": "1901 W 3RD ST STE A", "city": "ELK CITY", "state": "OK", "zip": "73644", "phone": "580-225-2513", "county": ""}, "geometry": {"type": "Point", "coordinates": [-99.4138648, 35.4140081]}}, {"type": "Feature", "properties": {"npi": "1114421492", "name": "FARMERS UNION HOSPITAL ASSOCIATION", "address": "1800 W 1ST ST", "city": "ELK CITY", "state": "OK", "zip": "73644", "phone": "580-225-2515", "county": ""}, "geometry": {"type": "Point", "coordinates": [-99.426215, 35.413601]}}, {"type": "Feature", "properties": {"npi": "1033103452", "name": "GLENN CROWSON MD INC", "address": "1401 W 1ST ST", "city": "WEWOKA", "state": "OK", "zip": "74884", "phone": "405-257-3396", "county": ""}, "geometry": {"type": "Point", "coordinates": [-96.4985552, 35.1587362]}}, {"type": "Feature", "properties": {"npi": "1164859260", "name": "GRADY MEMORIAL HOSPITAL", "address": "2100 W IOWA AVE", "city": "CHICKASHA", "state": "OK", "zip": "73018", "phone": "405-224-2100", "county": ""}, "geometry": {"type": "Point", "coordinates": [-97.96013, 35.047724]}}, {"type": "Feature", "properties": {"npi": "1578592788", "name": "GRADY MEMORIAL HOSPITAL", "address": "113 SOUTH RUSH AVE", "city": "RUSH SPRINGS", "state": "OK", "zip": "73082", "phone": "580-476-2527", "county": ""}, "geometry": {"type": "Point", "coordinates": [-97.9569845, 34.7825721]}}, {"type": "Feature", "properties": {"npi": "1750715439", "name": "GRADY MEMORIAL HOSPITAL", "address": "4805 E HIGHWAY 37", "city": "TUTTLE", "state": "OK", "zip": "73089", "phone": "405-381-2301", "county": ""}, "geometry": {"type": "Point", "coordinates": [-97.8122658, 35.2908947]}}, {"type": "Feature", "properties": {"npi": "1184217606", "name": "HASKELL REGIONAL HOSPITAL, INC", "address": "503 NW H ST", "city": "STIGLER", "state": "OK", "zip": "74462", "phone": "918-967-0055", "county": ""}, "geometry": {"type": "Point", "coordinates": [-95.1296419, 35.2609005]}}, {"type": "Feature", "properties": {"npi": "1144902214", "name": "HASKELL REGIONAL HOSPITAL, INC", "address": "109 W MAIN ST", "city": "STIGLER", "state": "OK", "zip": "74462", "phone": "918-967-2130", "county": ""}, "geometry": {"type": "Point", "coordinates": [-95.1258226, 35.254307]}}, {"type": "Feature", "properties": {"npi": "1427641943", "name": "HASKELL REGIONAL HOSPITAL, INC", "address": "714 W MAIN ST", "city": "STIGLER", "state": "OK", "zip": "74462", "phone": "918-967-8010", "county": ""}, "geometry": {"type": "Point", "coordinates": [-95.1327521, 35.2558679]}}, {"type": "Feature", "properties": {"npi": "1609469121", "name": "HASKELL REGIONAL HOSPITAL, INC", "address": "903 W MAIN ST STE A", "city": "STIGLER", "state": "OK", "zip": "74462", "phone": "918-967-0055", "county": ""}, "geometry": {"type": "Point", "coordinates": [-95.1230169, 35.253708]}}, {"type": "Feature", "properties": {"npi": "1760111801", "name": "HASKELL REGIONAL HOSPITAL, INC", "address": "402 HIGHWAY 2", "city": "WARNER", "state": "OK", "zip": "74469", "phone": "918-463-2095", "county": ""}, "geometry": {"type": "Point", "coordinates": [-95.3060603, 35.494675]}}, {"type": "Feature", "properties": {"npi": "1255902292", "name": "HASKELL REGIONAL HOSPITAL, INC.", "address": "106 N BROADWAY ST", "city": "HOLDENVILLE", "state": "OK", "zip": "74848", "phone": "405-592-4590", "county": ""}, "geometry": {"type": "Point", "coordinates": [-96.401369, 35.0829101]}}, {"type": "Feature", "properties": {"npi": "1194348961", "name": "HASKELL REGIONAL HOSPITAL, INC.", "address": "401 NW H ST", "city": "STIGLER", "state": "OK", "zip": "74462", "phone": "888-339-7339", "county": ""}, "geometry": {"type": "Point", "coordinates": [-95.1288737, 35.2612842]}}, {"type": "Feature", "properties": {"npi": "1508511270", "name": "HASKELL REGIONAL HOSPITAL, INC.", "address": "714 HIGHWAY 59 N", "city": "HEAVENER", "state": "OK", "zip": "74937", "phone": "918-653-2345", "county": ""}, "geometry": {"type": "Point", "coordinates": [-94.600781, 34.8892677]}}, {"type": "Feature", "properties": {"npi": "1073274643", "name": "HASKELL REGIONAL HOSPITAL, INC.", "address": "1705 CRADDUCK RD STE A", "city": "ADA", "state": "OK", "zip": "74820", "phone": "580-279-6313", "county": ""}, "geometry": {"type": "Point", "coordinates": [-96.6783651, 34.7743383]}}, {"type": "Feature", "properties": {"npi": "1902534209", "name": "HASKELL REGIONAL HOSPITAL, INC.", "address": "810 HIGHWAY 2 N", "city": "WILBURTON", "state": "OK", "zip": "74578", "phone": "918-205-4972", "county": ""}, "geometry": {"type": "Point", "coordinates": [-95.3097807, 34.9187023]}}, {"type": "Feature", "properties": {"npi": "1528475522", "name": "HELPING HANDS HEALTHCARE LLC", "address": "230 1/2 E MISSOURI ST", "city": "WALTERS", "state": "OK", "zip": "73572", "phone": "580-281-0070", "county": ""}, "geometry": {"type": "Point", "coordinates": [-98.3078258, 34.3598075]}}, {"type": "Feature", "properties": {"npi": "1780003970", "name": "HOLDENVILLE HOSPITAL AUTHORITY", "address": "100 MCDOUGAL DR", "city": "HOLDENVILLE", "state": "OK", "zip": "74848", "phone": "405-379-4200", "county": ""}, "geometry": {"type": "Point", "coordinates": [-96.3790856, 35.0896237]}}, {"type": "Feature", "properties": {"npi": "1467182741", "name": "HOMETOWN HEALTHCARE SOLUTION, LLC.", "address": "811 W MAIN ST", "city": "HENRYETTA", "state": "OK", "zip": "74437", "phone": "918-319-5021", "county": ""}, "geometry": {"type": "Point", "coordinates": [-95.9911412, 35.4397118]}}, {"type": "Feature", "properties": {"npi": "1730180894", "name": "INTEGRIS BASS BAPTIST HEALTH CENTER", "address": "158 E SUNSET DR", "city": "MEDFORD", "state": "OK", "zip": "73759", "phone": "580-395-2319", "county": ""}, "geometry": {"type": "Point", "coordinates": [-97.7339328, 36.8139183]}}, {"type": "Feature", "properties": {"npi": "1629679089", "name": "INTEGRIS BASS BAPTIST HEALTH CENTER", "address": "2821 N VAN BUREN ST STE B", "city": "ENID", "state": "OK", "zip": "73703", "phone": "580-213-9794", "county": ""}, "geometry": {"type": "Point", "coordinates": [-97.8791341, 36.3967623]}}, {"type": "Feature", "properties": {"npi": "1205436938", "name": "INTEGRIS BASS BAPTIST HEALTH CENTER", "address": "1805 W OWEN K GARRIOTT RD", "city": "ENID", "state": "OK", "zip": "73703", "phone": "580-233-9012", "county": ""}, "geometry": {"type": "Point", "coordinates": [-97.9005047, 36.3907297]}}, {"type": "Feature", "properties": {"npi": "1659971398", "name": "INTEGRIS BASS BAPTIST HEALTH CENTER", "address": "300 N CHEROKEE ST", "city": "HENNESSEY", "state": "OK", "zip": "73742", "phone": "405-853-7171", "county": ""}, "geometry": {"type": "Point", "coordinates": [-97.897694, 36.111635]}}, {"type": "Feature", "properties": {"npi": "1740880483", "name": "INTEGRIS BASS BAPTIST HEALTH CENTER", "address": "620 S MADISON ST", "city": "ENID", "state": "OK", "zip": "73701", "phone": "580-233-2300", "county": ""}, "geometry": {"type": "Point", "coordinates": [-97.8853447, 36.3906915]}}, {"type": "Feature", "properties": {"npi": "1124029293", "name": "INTEGRIS BASS BAPTIST HEALTH CENTER", "address": "1084 NICKERSON ST", "city": "WAYNOKA", "state": "OK", "zip": "73860", "phone": "580-824-2281", "county": ""}, "geometry": {"type": "Point", "coordinates": [-98.8753017, 36.5796487]}}, {"type": "Feature", "properties": {"npi": "1689274391", "name": "INTEGRIS GROVE HOSPITAL", "address": "10 E 13TH ST", "city": "GROVE", "state": "OK", "zip": "74344", "phone": "918-786-1909", "county": ""}, "geometry": {"type": "Point", "coordinates": [-94.7689214, 36.5829905]}}, {"type": "Feature", "properties": {"npi": "1275133993", "name": "INTEGRIS GROVE HOSPITAL", "address": "216 S 7TH ST STE 1", "city": "VINITA", "state": "OK", "zip": "74301", "phone": "918-256-1500", "county": ""}, "geometry": {"type": "Point", "coordinates": [-95.156363, 36.6408372]}}, {"type": "Feature", "properties": {"npi": "1134720592", "name": "INTEGRIS GROVE HOSPITAL", "address": "601 E 13TH ST", "city": "GROVE", "state": "OK", "zip": "74344", "phone": "918-786-2243", "county": ""}, "geometry": {"type": "Point", "coordinates": [-94.7616958, 36.5831722]}}, {"type": "Feature", "properties": {"npi": "1528830163", "name": "INTEGRIS HEALTH PONCA CITY HOSPITAL INC", "address": "1908 N 14TH ST", "city": "PONCA CITY", "state": "OK", "zip": "74601", "phone": "580-718-4501", "county": ""}, "geometry": {"type": "Point", "coordinates": [-97.0673344, 36.7243014]}}, {"type": "Feature", "properties": {"npi": "1447022090", "name": "INTEGRIS HEALTH WOODWARD HOSPITAL INC", "address": "417 SW 7TH ST", "city": "MOORELAND", "state": "OK", "zip": "73852", "phone": "580-994-2180", "county": ""}, "geometry": {"type": "Point", "coordinates": [-99.2053165, 36.4462333]}}, {"type": "Feature", "properties": {"npi": "1457123960", "name": "INTEGRIS HEALTH WOODWARD HOSPITAL INC", "address": "908 19TH ST", "city": "WOODWARD", "state": "OK", "zip": "73801", "phone": "580-254-3396", "county": ""}, "geometry": {"type": "Point", "coordinates": [-99.4034173, 36.4381235]}}, {"type": "Feature", "properties": {"npi": "1932971579", "name": "INTEGRIS HEALTH WOODWARD HOSPITAL INC", "address": "1101 HILLCREST DR", "city": "WOODWARD", "state": "OK", "zip": "73801", "phone": "580-256-3608", "county": ""}, "geometry": {"type": "Point", "coordinates": [-99.399751, 36.43585]}}, {"type": "Feature", "properties": {"npi": "1033981675", "name": "INTEGRIS HEALTH WOODWARD HOSPITAL INC", "address": "1611 MAIN ST STE 102", "city": "WOODWARD", "state": "OK", "zip": "73801", "phone": "580-254-8486", "county": ""}, "geometry": {"type": "Point", "coordinates": [-99.3903862, 36.4336481]}}, {"type": "Feature", "properties": {"npi": "1649042284", "name": "INTEGRIS HEALTH WOODWARD HOSPITAL INC", "address": "1818 KANSAS AVE", "city": "WOODWARD", "state": "OK", "zip": "73801", "phone": "580-256-2188", "county": ""}, "geometry": {"type": "Point", "coordinates": [-99.4025738, 36.437244]}}, {"type": "Feature", "properties": {"npi": "1386245744", "name": "INTEGRIS MIAMI HOSPITAL", "address": "310 2ND AVE SW", "city": "MIAMI", "state": "OK", "zip": "74354", "phone": "918-540-7700", "county": ""}, "geometry": {"type": "Point", "coordinates": [-94.8811173, 36.8722377]}}, {"type": "Feature", "properties": {"npi": "1992305627", "name": "INTEGRIS MIAMI HOSPITAL", "address": "21 W CENTRAL AVE", "city": "MIAMI", "state": "OK", "zip": "74354", "phone": "918-542-3900", "county": ""}, "geometry": {"type": "Point", "coordinates": [-94.8864503, 36.8741725]}}, {"type": "Feature", "properties": {"npi": "1912508375", "name": "INTEGRIS MIAMI HOSPITAL", "address": "30 B ST SW", "city": "MIAMI", "state": "OK", "zip": "74354", "phone": "918-542-5551", "county": ""}, "geometry": {"type": "Point", "coordinates": [-94.879873, 36.8742712]}}, {"type": "Feature", "properties": {"npi": "1407230790", "name": "JACKSON COUNTY MEMORIAL HOSPITAL AUTHORITY", "address": "101 S PARK LN", "city": "ALTUS", "state": "OK", "zip": "73521", "phone": "580-379-6100", "county": ""}, "geometry": {"type": "Point", "coordinates": [-99.31658, 34.637742]}}, {"type": "Feature", "properties": {"npi": "1972987014", "name": "JACKSON COUNTY MEMORIAL HOSPITAL AUTHORITY", "address": "101 S PARK LN STE 200", "city": "ALTUS", "state": "OK", "zip": "73521", "phone": "580-379-6140", "county": ""}, "geometry": {"type": "Point", "coordinates": [-99.3339754, 34.6381255]}}, {"type": "Feature", "properties": {"npi": "1093199382", "name": "JACKSON COUNTY MEMORIAL HOSPITAL AUTHORITY", "address": "114 S LOUIS TITTLE AVE", "city": "MANGUM", "state": "OK", "zip": "73554", "phone": "580-782-3393", "county": ""}, "geometry": {"type": "Point", "coordinates": [-99.5024316, 34.8726846]}}, {"type": "Feature", "properties": {"npi": "1245614387", "name": "JACKSON COUNTY MEMORIAL HOSPITAL AUTHORITY", "address": "205 S PARK LN", "city": "ALTUS", "state": "OK", "zip": "73521", "phone": "580-379-6650", "county": ""}, "geometry": {"type": "Point", "coordinates": [-99.3165699, 34.6368306]}}, {"type": "Feature", "properties": {"npi": "1942754510", "name": "JEFFERSON COUNTY HEALTHCARE AUTHORITY", "address": "9172 US HWY 70", "city": "WAURIKA", "state": "OK", "zip": "73573", "phone": "580-228-3669", "county": ""}, "geometry": {"type": "Point", "coordinates": [-97.997536, 34.1670371]}}, {"type": "Feature", "properties": {"npi": "1427076074", "name": "JEFFERSON COUNTY HEALTHCARE AUTHORITY", "address": "502 SOUTH 6TH STREET", "city": "RINGLING", "state": "OK", "zip": "73456", "phone": "580-662-2316", "county": ""}, "geometry": {"type": "Point", "coordinates": [-97.5925265, 34.1784265]}}, {"type": "Feature", "properties": {"npi": "1609801836", "name": "JEFFERSON COUNTY HEALTHCARE AUTHORITY", "address": "1104 6TH STREET", "city": "RYAN", "state": "OK", "zip": "73565", "phone": "580-757-2451", "county": ""}, "geometry": {"type": "Point", "coordinates": [-97.9525991, 34.0156949]}}, {"type": "Feature", "properties": {"npi": "1972231041", "name": "JWGLLC", "address": "712 NORTH MCKINLEY AVE", "city": "CALERA", "state": "OK", "zip": "74730", "phone": "580-434-6512", "county": ""}, "geometry": {"type": "Point", "coordinates": [-96.4244843, 33.9386464]}}, {"type": "Feature", "properties": {"npi": "1932634573", "name": "KAY COUNTY OKLAHOMA HOSPITAL COMPANY LLC", "address": "1908 N 14TH ST STE 203", "city": "PONCA CITY", "state": "OK", "zip": "74601", "phone": "580-718-4501", "county": ""}, "geometry": {"type": "Point", "coordinates": [-97.081898, 36.703647]}}, {"type": "Feature", "properties": {"npi": "1255823282", "name": "KIOWA COUNTY HOSPITAL AUTHORITY", "address": "401 W FOREST LN", "city": "HOBART", "state": "OK", "zip": "73651", "phone": "580-726-2000", "county": ""}, "geometry": {"type": "Point", "coordinates": [-99.096676, 35.038992]}}, {"type": "Feature", "properties": {"npi": "1578026571", "name": "LEFLORE COUNTY HOSPITAL AUTHORITY", "address": "104 S EAST BLVD", "city": "POTEAU", "state": "OK", "zip": "74953", "phone": "918-635-3576", "county": ""}, "geometry": {"type": "Point", "coordinates": [-94.613715, 35.0456109]}}, {"type": "Feature", "properties": {"npi": "1558740837", "name": "LEFLORE COUNTY HOSPITAL AUTHORITY", "address": "304 HIGHWAY 59 N", "city": "HEAVENER", "state": "OK", "zip": "74937", "phone": "918-653-2918", "county": ""}, "geometry": {"type": "Point", "coordinates": [-94.600781, 34.8892677]}}, {"type": "Feature", "properties": {"npi": "1043265895", "name": "LEFLORE COUNTY HOSPITAL AUTHORITY", "address": "104 WALL ST", "city": "POTEAU", "state": "OK", "zip": "74953", "phone": "918-647-8635", "county": ""}, "geometry": {"type": "Point", "coordinates": [-94.6123668, 35.0445874]}}, {"type": "Feature", "properties": {"npi": "1437002193", "name": "LEGACY FAMILY MEDICINE PLLC", "address": "207 E TALIAFERRO ST", "city": "MADILL", "state": "OK", "zip": "73446", "phone": "580-667-9500", "county": ""}, "geometry": {"type": "Point", "coordinates": [-96.7700273, 34.0898742]}}, {"type": "Feature", "properties": {"npi": "1497753487", "name": "LOGAN HOSPITAL AND MEDICAL CENTER AUTHORITY", "address": "400 S GRAND", "city": "CRESCENT", "state": "OK", "zip": "73028", "phone": "405-969-2818", "county": ""}, "geometry": {"type": "Point", "coordinates": [-97.5947685, 35.9525414]}}, {"type": "Feature", "properties": {"npi": "1376541136", "name": "LOGAN HOSPITAL AND MEDICAL CENTER AUTHORITY", "address": "2919 S DIVISION ST", "city": "GUTHRIE", "state": "OK", "zip": "73044", "phone": "405-282-6301", "county": ""}, "geometry": {"type": "Point", "coordinates": [-97.4260281, 35.8484785]}}, {"type": "Feature", "properties": {"npi": "1578513792", "name": "LOVE COUNTY HEALTH CENTER", "address": "301 WANDA ST", "city": "MARIETTA", "state": "OK", "zip": "73448", "phone": "580-276-2400", "county": ""}, "geometry": {"type": "Point", "coordinates": [-97.130983, 33.941958]}}, {"type": "Feature", "properties": {"npi": "1992246565", "name": "MARSHALL COUNTY HMA LLC", "address": "907 HOSPITAL DR", "city": "MADILL", "state": "OK", "zip": "73446", "phone": "580-795-0191", "county": ""}, "geometry": {"type": "Point", "coordinates": [-96.7782667, 34.0799639]}}, {"type": "Feature", "properties": {"npi": "1063910925", "name": "MARSHALL COUNTY HMA LLC", "address": "1610 W UNIVERSITY BLVD", "city": "DURANT", "state": "OK", "zip": "74701", "phone": "580-924-3400", "county": ""}, "geometry": {"type": "Point", "coordinates": [-96.3915132, 34.0049891]}}, {"type": "Feature", "properties": {"npi": "1558128421", "name": "MARSHALL COUNTY HMA, LLC", "address": "1400 BRYAN DR STE 301", "city": "DURANT", "state": "OK", "zip": "74701", "phone": "580-920-9063", "county": ""}, "geometry": {"type": "Point", "coordinates": [-96.3776762, 33.9919761]}}, {"type": "Feature", "properties": {"npi": "1003670647", "name": "MARSHALL COUNTY HMA, LLC", "address": "1592 S VIRGINIA AVE", "city": "ATOKA", "state": "OK", "zip": "74525", "phone": "580-889-6621", "county": ""}, "geometry": {"type": "Point", "coordinates": [-96.1402456, 34.3717408]}}, {"type": "Feature", "properties": {"npi": "1326802968", "name": "MARSHALL COUNTY HMA, LLC", "address": "701 HIGHWAY 70 E", "city": "KINGSTON", "state": "OK", "zip": "73439", "phone": "580-624-6070", "county": ""}, "geometry": {"type": "Point", "coordinates": [-96.7198974, 33.9984099]}}, {"type": "Feature", "properties": {"npi": "1649542374", "name": "MARSHALL COUNTY HMA, LLC", "address": "2 HOSPITAL DRIVE", "city": "MADILL", "state": "OK", "zip": "73446", "phone": "580-795-0191", "county": ""}, "geometry": {"type": "Point", "coordinates": [-96.7783422, 34.0804929]}}, {"type": "Feature", "properties": {"npi": "1891341186", "name": "MCCURTAIN MEMORIAL MEDICAL MANAGEMENT, INC", "address": "8901 N US HIGHWAY 259", "city": "BROKEN BOW", "state": "OK", "zip": "74728", "phone": "580-494-6562", "county": ""}, "geometry": {"type": "Point", "coordinates": [-94.7389659, 34.0298629]}}, {"type": "Feature", "properties": {"npi": "1427604719", "name": "MCCURTAIN MEMORIAL MEDICAL MANAGEMENT, INC", "address": "1315 S LYNN LN", "city": "IDABEL", "state": "OK", "zip": "74745", "phone": "580-286-2947", "county": ""}, "geometry": {"type": "Point", "coordinates": [-94.8263281, 33.8956647]}}, {"type": "Feature", "properties": {"npi": "1912248980", "name": "MCCURTAIN MEMORIAL MEDICAL MANAGEMENT, INC.", "address": "102 E TERRI DR", "city": "VALLIANT", "state": "OK", "zip": "74764", "phone": "580-933-9025", "county": ""}, "geometry": {"type": "Point", "coordinates": [-95.0938386, 34.0023293]}}, {"type": "Feature", "properties": {"npi": "1720422785", "name": "MERCY HOSPITAL ADA, INC", "address": "217 WEST SMITH ST", "city": "STRATFORD,", "state": "OK", "zip": "74872", "phone": "580-332-2323", "county": ""}, "geometry": {"type": "Point", "coordinates": [-96.9683282, 34.7966476]}}, {"type": "Feature", "properties": {"npi": "1437467388", "name": "MERCY HOSPITAL HEALDTON, INC.", "address": "3472 HOSPITAL RD", "city": "HEALDTON", "state": "OK", "zip": "73438", "phone": "580-229-0079", "county": ""}, "geometry": {"type": "Point", "coordinates": [-97.4920935, 34.223273]}}, {"type": "Feature", "properties": {"npi": "1538723952", "name": "NEW DIRECTION ACUTE DIALYSIS LLC", "address": "4334 NW EXPRESSWAY STE 165", "city": "OKLAHOMA CITY", "state": "OK", "zip": "73116", "phone": "580-695-1306", "county": ""}, "geometry": {"type": "Point", "coordinates": [-97.5170536, 35.4729886]}}, {"type": "Feature", "properties": {"npi": "1306720099", "name": "NEWMAN MEMORIAL HOSPITAL, INC", "address": "227 S MAIN ST", "city": "MOORELAND", "state": "OK", "zip": "73852", "phone": "580-938-2551", "county": ""}, "geometry": {"type": "Point", "coordinates": [-99.204842, 36.4387055]}}, {"type": "Feature", "properties": {"npi": "1225923543", "name": "NEWMAN MEMORIAL HOSPITAL, INC", "address": "1222 MAIN ST", "city": "WOODWARD", "state": "OK", "zip": "73801", "phone": "580-256-1235", "county": ""}, "geometry": {"type": "Point", "coordinates": [-99.3391918, 36.2777471]}}, {"type": "Feature", "properties": {"npi": "1821554734", "name": "NEWMAN MEMORIAL HOSPITAL, INC", "address": "905 S MAIN ST", "city": "SHATTUCK", "state": "OK", "zip": "73858", "phone": "580-938-5534", "county": ""}, "geometry": {"type": "Point", "coordinates": [-99.8821801, 36.2678378]}}, {"type": "Feature", "properties": {"npi": "1013458652", "name": "NORTHEASTERN HEALTH SYSTEM", "address": "104 LONE OAK CIR", "city": "FORT GIBSON", "state": "OK", "zip": "74434", "phone": "918-478-2101", "county": ""}, "geometry": {"type": "Point", "coordinates": [-95.2437438, 35.7866067]}}, {"type": "Feature", "properties": {"npi": "1306387949", "name": "NORTHEASTERN HEALTH SYSTEM", "address": "1201 E ROSS BYP", "city": "TAHLEQUAH", "state": "OK", "zip": "74464", "phone": "918-207-0991", "county": ""}, "geometry": {"type": "Point", "coordinates": [-94.969956, 35.91537]}}, {"type": "Feature", "properties": {"npi": "1366983850", "name": "NORTHEASTERN HEALTH SYSTEM", "address": "1203 E ROSS BYP STE A", "city": "TAHLEQUAH", "state": "OK", "zip": "74464", "phone": "918-453-1234", "county": ""}, "geometry": {"type": "Point", "coordinates": [-94.969956, 35.91537]}}, {"type": "Feature", "properties": {"npi": "1053477232", "name": "OKEENE MUNICPAL HOSPITAL AND SCHALLMO AUTHORITY", "address": "124 N 6TH ST", "city": "OKEENE", "state": "OK", "zip": "73763", "phone": "580-822-4404", "county": ""}, "geometry": {"type": "Point", "coordinates": [-98.314411, 36.1162949]}}, {"type": "Feature", "properties": {"npi": "1245102433", "name": "OKLAHOMA URGENT CARE ONLINE LLC", "address": "205 6TH ST", "city": "TALIHINA", "state": "OK", "zip": "74571", "phone": "979-676-5758", "county": ""}, "geometry": {"type": "Point", "coordinates": [-95.0427813, 34.7534101]}}, {"type": "Feature", "properties": {"npi": "1023822699", "name": "P.I.N.C. PSYCHIATRIC SERVICES, PLLC", "address": "212 NW 5TH STREET", "city": "GUYMON", "state": "OK", "zip": "73942", "phone": "580-338-7462", "county": ""}, "geometry": {"type": "Point", "coordinates": [-101.4990071, 36.6820679]}}, {"type": "Feature", "properties": {"npi": "1871092494", "name": "PAWHUSKA HOSPITAL INC", "address": "1109 E 15TH ST", "city": "PAWHUSKA", "state": "OK", "zip": "74056", "phone": "918-287-3232", "county": ""}, "geometry": {"type": "Point", "coordinates": [-96.3254047, 36.6728968]}}, {"type": "Feature", "properties": {"npi": "1871108514", "name": "POTEAU COMMUNITY CARE", "address": "1301 S BROADWAY AVE STE 2", "city": "POTEAU", "state": "OK", "zip": "74953", "phone": "918-564-2010", "county": ""}, "geometry": {"type": "Point", "coordinates": [-94.6199966, 35.0568053]}}, {"type": "Feature", "properties": {"npi": "1881923290", "name": "PRAGUE HEALTHCARE AUTHORITY", "address": "1322 KLABZUBA AVENUE", "city": "PRAGUE", "state": "OK", "zip": "74864", "phone": "405-567-4922", "county": ""}, "geometry": {"type": "Point", "coordinates": [-96.6842109, 35.4900584]}}, {"type": "Feature", "properties": {"npi": "1356607824", "name": "PREFERRED HOSPITAL LEASING COLEMAN, INC.", "address": "310 S PECOS ST", "city": "COLEMAN", "state": "TX", "zip": "76834", "phone": "325-625-2135", "county": ""}, "geometry": {"type": "Point", "coordinates": [-96.4191624, 34.2714809]}}, {"type": "Feature", "properties": {"npi": "1912173030", "name": "PREFERRED HOSPITAL LEASING HEMPHILL, INC", "address": "2421 WORTH ST", "city": "HEMPHILL", "state": "TX", "zip": "75948", "phone": "409-787-3300", "county": ""}, "geometry": {"type": "Point", "coordinates": [-97.4785677, 35.2231446]}}, {"type": "Feature", "properties": {"npi": "1578729653", "name": "PREFERRED HOSPITAL LEASING JUNCTION, INC", "address": "399 REID RD", "city": "JUNCTION", "state": "TX", "zip": "76849", "phone": "325-446-3321", "county": ""}, "geometry": {"type": "Point", "coordinates": [-99.7720109, 30.4893555]}}, {"type": "Feature", "properties": {"npi": "1124419163", "name": "PREFERRED HOSPITAL LEASING MULESHOE, INC.", "address": "701 S 1ST ST", "city": "MULESHOE", "state": "TX", "zip": "79347", "phone": "806-272-7531", "county": ""}, "geometry": {"type": "Point", "coordinates": [-102.7239208, 34.226486]}}, {"type": "Feature", "properties": {"npi": "1821484320", "name": "PREFERRED HOSPITAL LEASING MULESHOE, INC.", "address": "708 S 1ST ST STE 701", "city": "MULESHOE", "state": "TX", "zip": "79347", "phone": "806-272-7544", "county": ""}, "geometry": {"type": "Point", "coordinates": [-102.7239208, 34.226486]}}, {"type": "Feature", "properties": {"npi": "1811652977", "name": "PREFERRED HOSPITAL LEASING SHAMROCK, INC.", "address": "1010 S MAIN ST", "city": "SHAMROCK", "state": "TX", "zip": "79079", "phone": "806-256-5148", "county": ""}, "geometry": {"type": "Point", "coordinates": [-97.5999766, 35.2585723]}}, {"type": "Feature", "properties": {"npi": "1235800335", "name": "PROPHYLAXIS HEALTHCARE LLC", "address": "211 S MILL ST", "city": "PRYOR", "state": "OK", "zip": "74361", "phone": "918-825-3777", "county": ""}, "geometry": {"type": "Point", "coordinates": [-95.3198499, 36.3040281]}}, {"type": "Feature", "properties": {"npi": "1285224576", "name": "RAPID CARE, INC.", "address": "9 E DAWES AVE", "city": "BIXBY", "state": "OK", "zip": "74008", "phone": "918-221-7217", "county": ""}, "geometry": {"type": "Point", "coordinates": [-95.8829305, 35.9424618]}}, {"type": "Feature", "properties": {"npi": "1013578954", "name": "REGGIE PENNYPACKER, APRN-CNP, PLLC", "address": "3125 BROOKWOOD AVE", "city": "DUNCAN", "state": "OK", "zip": "73533", "phone": "580-786-4018", "county": ""}, "geometry": {"type": "Point", "coordinates": [-97.9788712, 34.5240303]}}, {"type": "Feature", "properties": {"npi": "1003139155", "name": "RINGROSE CLINIC, INC.", "address": "324 E OKLAHOMA AVE", "city": "GUTHRIE", "state": "OK", "zip": "73044", "phone": "405-282-0232", "county": ""}, "geometry": {"type": "Point", "coordinates": [-97.4223782, 35.8781111]}}, {"type": "Feature", "properties": {"npi": "1407950447", "name": "ROGER MILLS COUNTY HOSPITAL AUTHORITY", "address": "101 FK BUSTER AVE", "city": "CHEYENNE", "state": "OK", "zip": "73628", "phone": "580-497-3333", "county": ""}, "geometry": {"type": "Point", "coordinates": [-99.6714939, 35.6139371]}}, {"type": "Feature", "properties": {"npi": "1295037000", "name": "ROWLAND FLATT CLINIC", "address": "603 NE 2ND ST", "city": "ANTLERS", "state": "OK", "zip": "74523", "phone": "580-298-3351", "county": ""}, "geometry": {"type": "Point", "coordinates": [-95.6139181, 34.2331663]}}, {"type": "Feature", "properties": {"npi": "1831313568", "name": "ROWLAND FLATT HUGO RURAL HEALTH CLINIC", "address": "1201 E JACKSON ST", "city": "HUGO", "state": "OK", "zip": "74743", "phone": "580-326-6423", "county": ""}, "geometry": {"type": "Point", "coordinates": [-95.499516, 34.010684]}}, {"type": "Feature", "properties": {"npi": "1033660022", "name": "SAINT FRANCIS HOSPITAL VINITA, INC", "address": "36488 S HIGHWAY 82", "city": "VINITA", "state": "OK", "zip": "74301", "phone": "918-782-1881", "county": ""}, "geometry": {"type": "Point", "coordinates": [-95.156363, 36.6408372]}}, {"type": "Feature", "properties": {"npi": "1427506633", "name": "SAINT FRANCIS HOSPITAL VINITA, INC", "address": "26300 S HIGHWAY 125", "city": "AFTON", "state": "OK", "zip": "74331", "phone": "918-257-8585", "county": ""}, "geometry": {"type": "Point", "coordinates": [-94.9628672, 36.6939077]}}, {"type": "Feature", "properties": {"npi": "1093395618", "name": "SAINTS MEDICAL GROUP, LLC", "address": "3700 N KICKAPOO AVE", "city": "SHAWNEE", "state": "OK", "zip": "74804", "phone": "405-273-6383", "county": ""}, "geometry": {"type": "Point", "coordinates": [-96.9286386, 35.3694922]}}, {"type": "Feature", "properties": {"npi": "1710842232", "name": "SANDERSON HEALTH CENTER LLC", "address": "315 W 9TH ST", "city": "WELEETKA", "state": "OK", "zip": "74880", "phone": "405-786-2248", "county": ""}, "geometry": {"type": "Point", "coordinates": [-96.1363921, 35.3356496]}}, {"type": "Feature", "properties": {"npi": "1811366032", "name": "SDO GROUP LLC", "address": "201 E 2ND ST", "city": "SKIATOOK", "state": "OK", "zip": "74070", "phone": "918-396-1262", "county": ""}, "geometry": {"type": "Point", "coordinates": [-95.999893, 36.369646]}}, {"type": "Feature", "properties": {"npi": "1356759823", "name": "SEILING MUNICIPAL HOSPITAL AUTHORITY", "address": "US HIGHWAY 60 NE", "city": "SEILING", "state": "OK", "zip": "73663", "phone": "580-922-7361", "county": ""}, "geometry": {"type": "Point", "coordinates": [-98.9244672, 36.1480287]}}, {"type": "Feature", "properties": {"npi": "1689177370", "name": "SEMINOLE HMA LLC", "address": "3700 N KICKAPOO AVE STE 124", "city": "SHAWNEE", "state": "OK", "zip": "74804", "phone": "405-273-6383", "county": ""}, "geometry": {"type": "Point", "coordinates": [-96.9253004, 35.3272928]}}, {"type": "Feature", "properties": {"npi": "1841730017", "name": "SEMINOLE HMA LLC", "address": "2401 W WRANGLER BLVD", "city": "SEMINOLE", "state": "OK", "zip": "74868", "phone": "405-303-4611", "county": ""}, "geometry": {"type": "Point", "coordinates": [-96.6762229, 35.2300087]}}, {"type": "Feature", "properties": {"npi": "1114414760", "name": "SEMINOLE HMA LLC", "address": "2249 BOREN BLVD", "city": "SEMINOLE", "state": "OK", "zip": "74868", "phone": "405-382-6932", "county": ""}, "geometry": {"type": "Point", "coordinates": [-96.699794, 35.245356]}}, {"type": "Feature", "properties": {"npi": "1255648580", "name": "SOUTHEASTERN OKLAHOMA FAMILY SERVICES, INC", "address": "113653 OLD HIGHWAY 69", "city": "CHECOTAH", "state": "OK", "zip": "74426", "phone": "580-565-4235", "county": ""}, "geometry": {"type": "Point", "coordinates": [-95.5230691, 35.4700917]}}, {"type": "Feature", "properties": {"npi": "1033176367", "name": "ST. JOHN PHYSICIANS, INC", "address": "112 NORTH 5TH STREET", "city": "BARNSDALL", "state": "OK", "zip": "74002", "phone": "918-847-2558", "county": ""}, "geometry": {"type": "Point", "coordinates": [-96.1625299, 36.5605368]}}, {"type": "Feature", "properties": {"npi": "1336194406", "name": "ST. JOHN PHYSICIANS, INC.", "address": "1923 S UTICA AVE", "city": "TULSA", "state": "OK", "zip": "74104", "phone": "918-744-2345", "county": ""}, "geometry": {"type": "Point", "coordinates": [-95.9688643, 36.1339564]}}, {"type": "Feature", "properties": {"npi": "1518577675", "name": "STILLWATER MEDICAL CENTER AUTHORITY", "address": "2340 E MAIN ST", "city": "CUSHING", "state": "OK", "zip": "74023", "phone": "918-552-6904", "county": ""}, "geometry": {"type": "Point", "coordinates": [-96.7358615, 35.985698]}}, {"type": "Feature", "properties": {"npi": "1730712647", "name": "STILLWATER MEDICAL CENTER AUTHORITY", "address": "1002 E CHERRY ST", "city": "CUSHING", "state": "OK", "zip": "74023", "phone": "918-306-4515", "county": ""}, "geometry": {"type": "Point", "coordinates": [-96.7586039, 35.979]}}, {"type": "Feature", "properties": {"npi": "1982237244", "name": "STILLWATER MEDICAL CENTER AUTHORITY", "address": "1116 MANVEL AVE", "city": "CHANDLER", "state": "OK", "zip": "74834", "phone": "405-258-5252", "county": ""}, "geometry": {"type": "Point", "coordinates": [-96.8805835, 35.6992031]}}, {"type": "Feature", "properties": {"npi": "1255943114", "name": "STILLWATER MEDICAL CENTER AUTHORITY", "address": "300 BOULDER ST", "city": "PAWNEE", "state": "OK", "zip": "74058", "phone": "918-762-2522", "county": ""}, "geometry": {"type": "Point", "coordinates": [-96.799303, 36.330988]}}, {"type": "Feature", "properties": {"npi": "1720561939", "name": "STILLWATER MEDICAL CENTER AUTHORITY", "address": "505 N 14TH ST", "city": "PERRY", "state": "OK", "zip": "73077", "phone": "580-336-3529", "county": ""}, "geometry": {"type": "Point", "coordinates": [-97.299311, 36.2892069]}}, {"type": "Feature", "properties": {"npi": "1366075616", "name": "STILLWATER MEDICAL CENTER AUTHORITY", "address": "505 E HIGHWAY 33", "city": "PERKINS", "state": "OK", "zip": "74059", "phone": "405-547-4162", "county": ""}, "geometry": {"type": "Point", "coordinates": [-97.0549545, 35.9854415]}}, {"type": "Feature", "properties": {"npi": "1851924773", "name": "STILLWATER MEDICAL CENTER AUTHORITY", "address": "1030 E CHERRY ST", "city": "CUSHING", "state": "OK", "zip": "74023", "phone": "918-725-1901", "county": ""}, "geometry": {"type": "Point", "coordinates": [-96.7583091, 35.9790003]}}, {"type": "Feature", "properties": {"npi": "1457961567", "name": "STILLWATER MEDICAL CENTER AUTHORITY", "address": "1411 W 7TH AVE STE 102", "city": "STILLWATER", "state": "OK", "zip": "74074", "phone": "405-533-6048", "county": ""}, "geometry": {"type": "Point", "coordinates": [-97.0585717, 36.1156306]}}, {"type": "Feature", "properties": {"npi": "1972005981", "name": "STILLWATER MEDICAL CENTER AUTHORITY", "address": "1318 ELM ST", "city": "PERRY", "state": "OK", "zip": "73077", "phone": "580-336-9411", "county": ""}, "geometry": {"type": "Point", "coordinates": [-97.298113, 36.288382]}}, {"type": "Feature", "properties": {"npi": "1538798897", "name": "STILLWATER MEDICAL CENTER AUTHORITY", "address": "1411 W 7TH AVE STE 201", "city": "STILLWATER", "state": "OK", "zip": "74074", "phone": "405-624-8222", "county": ""}, "geometry": {"type": "Point", "coordinates": [-97.0585717, 36.1156306]}}, {"type": "Feature", "properties": {"npi": "1033748207", "name": "STILLWATER MEDICAL CENTER AUTHORITY", "address": "1201 S ADAMS ST", "city": "STILLWATER", "state": "OK", "zip": "74074", "phone": "405-743-7300", "county": ""}, "geometry": {"type": "Point", "coordinates": [-97.0723894, 36.1094395]}}, {"type": "Feature", "properties": {"npi": "1447883780", "name": "STILLWATER MEDICAL CENTER AUTHORITY", "address": "600 S LINWOOD AVE STE A", "city": "CUSHING", "state": "OK", "zip": "74023", "phone": "918-725-1599", "county": ""}, "geometry": {"type": "Point", "coordinates": [-96.7674179, 35.9848686]}}, {"type": "Feature", "properties": {"npi": "1336772680", "name": "STILLWATER MEDICAL CENTER AUTHORITY", "address": "518 E LAKEVIEW RD", "city": "STILLWATER", "state": "OK", "zip": "74075", "phone": "405-533-8990", "county": ""}, "geometry": {"type": "Point", "coordinates": [-97.0465769, 36.1450555]}}, {"type": "Feature", "properties": {"npi": "1730718362", "name": "STILLWATER MEDICAL CENTER AUTHORITY", "address": "1815 W 6TH AVE", "city": "STILLWATER", "state": "OK", "zip": "74074", "phone": "405-742-7300", "county": ""}, "geometry": {"type": "Point", "coordinates": [-97.0813927, 36.1153711]}}, {"type": "Feature", "properties": {"npi": "1467126474", "name": "THE LINBERG CLINIC PLLC", "address": "367 W CLIFF DR", "city": "ATOKA", "state": "OK", "zip": "74525", "phone": "580-364-3646", "county": ""}, "geometry": {"type": "Point", "coordinates": [-96.017838, 34.3284948]}}, {"type": "Feature", "properties": {"npi": "1740970862", "name": "THE MATERNAL SOCIETY", "address": "1701 N MARTIN LUTHER KING AVE", "city": "OKLAHOMA CITY", "state": "OK", "zip": "73111", "phone": "405-424-4623", "county": ""}, "geometry": {"type": "Point", "coordinates": [-97.476826, 35.486716]}}, {"type": "Feature", "properties": {"npi": "1508096447", "name": "TISHOMINGO DOCTOR'S MEDICAL CLINIC, PC", "address": "508 E 24TH ST", "city": "TISHOMINGO", "state": "OK", "zip": "73460", "phone": "580-371-9117", "county": ""}, "geometry": {"type": "Point", "coordinates": [-96.6750948, 34.2232152]}}, {"type": "Feature", "properties": {"npi": "1073456604", "name": "TRITON HEALTH PLLC", "address": "128 W MAIN", "city": "VIAN", "state": "OK", "zip": "74962", "phone": "918-773-5228", "county": ""}, "geometry": {"type": "Point", "coordinates": [-94.9732871, 35.4983046]}}, {"type": "Feature", "properties": {"npi": "1801003934", "name": "VALLEY VIEW REGIONAL HOSPITAL", "address": "217 WEST SMITH ST", "city": "STRATFORD", "state": "OK", "zip": "74872", "phone": "580-759-2336", "county": ""}, "geometry": {"type": "Point", "coordinates": [-96.9665294, 34.7966607]}}, {"type": "Feature", "properties": {"npi": "1366674772", "name": "WAGONER HOSPITAL AUTHORITY", "address": "1202 W CHEROKEE ST STE E", "city": "WAGONER", "state": "OK", "zip": "74467", "phone": "918-485-1877", "county": ""}, "geometry": {"type": "Point", "coordinates": [-95.3756535, 35.9593531]}}, {"type": "Feature", "properties": {"npi": "1518642081", "name": "WILLIAMS MEDICAL GROUP PRACTICE LLC", "address": "2031 W 6TH AVE", "city": "EMPORIA", "state": "KS", "zip": "66801", "phone": "620-481-2520", "county": ""}, "geometry": {"type": "Point", "coordinates": [-97.0791675, 36.7217092]}}, {"type": "Feature", "properties": {"npi": "1528638376", "name": "WILLIAMS MEDICAL GROUP PRACTICE, LLC", "address": "1201 S DIVISION ST", "city": "GUTHRIE", "state": "OK", "zip": "73044", "phone": "405-293-4504", "county": ""}, "geometry": {"type": "Point", "coordinates": [-97.425437, 35.866783]}}, {"type": "Feature", "properties": {"npi": "1063285955", "name": "WILLIAMS MEDICAL GROUP PRACTICE, LLC", "address": "701 W RUTH AVE", "city": "SALLISAW", "state": "OK", "zip": "74955", "phone": "405-445-1210", "county": ""}, "geometry": {"type": "Point", "coordinates": [-94.805931, 35.4496656]}}, {"type": "Feature", "properties": {"npi": "1821668674", "name": "WILLIAMS MEDICAL GROUP PRACTICE, LLC", "address": "3800 10TH ST", "city": "GREAT BEND", "state": "KS", "zip": "67530", "phone": "620-603-4216", "county": ""}, "geometry": {"type": "Point", "coordinates": [-98.7804087, 38.3625063]}}, {"type": "Feature", "properties": {"npi": "1669042404", "name": "WILLIAMS MEDICAL GROUP PRACTICE, LLC", "address": "411 W 3RD ST", "city": "ELK CITY", "state": "OK", "zip": "73644", "phone": "580-303-9293", "county": ""}, "geometry": {"type": "Point", "coordinates": [-99.4087861, 35.4117979]}}, {"type": "Feature", "properties": {"npi": "1275103020", "name": "WILLIAMS MEDICAL GROUP PRACTICE, LLC", "address": "527 W 6TH ST", "city": "JUNCTION CITY", "state": "KS", "zip": "66441", "phone": "785-530-5823", "county": ""}, "geometry": {"type": "Point", "coordinates": [-96.8313978, 39.0286093]}}, {"type": "Feature", "properties": {"npi": "1356910186", "name": "WILLIAMS MEDICAL GROUP PRACTICE, LLC", "address": "550 W SHAWNEE ST", "city": "MUSKOGEE", "state": "OK", "zip": "74401", "phone": "918-910-5186", "county": ""}, "geometry": {"type": "Point", "coordinates": [-95.3688393, 35.7703214]}}, {"type": "Feature", "properties": {"npi": "1790558682", "name": "WILLIAMS MEDICAL GROUP PRACTICE, LLC", "address": "1602 E WRANGLER BLVD", "city": "SEMINOLE", "state": "OK", "zip": "74868", "phone": "405-445-1210", "county": ""}, "geometry": {"type": "Point", "coordinates": [-96.7051547, 35.2465736]}}, {"type": "Feature", "properties": {"npi": "1750950580", "name": "WILLIAMS MEDICAL GROUP PRACTICE, LLC", "address": "7127 S OLYMPIA AVE", "city": "TULSA", "state": "OK", "zip": "74132", "phone": "918-665-9500", "county": ""}, "geometry": {"type": "Point", "coordinates": [-96.0032606, 36.0597666]}}, {"type": "Feature", "properties": {"npi": "1528638368", "name": "WILLIAMS MEDICAL GROUP PRACTICE, LLC", "address": "1327 OKLAHOMA AVE", "city": "WOODWARD", "state": "OK", "zip": "73801", "phone": "580-254-2377", "county": ""}, "geometry": {"type": "Point", "coordinates": [-99.3961503, 36.4335556]}}, {"type": "Feature", "properties": {"npi": "1275103012", "name": "WILLIAMS MEDICAL GROUP PRACTICE, LLC", "address": "106 E 10TH ST", "city": "NEWTON", "state": "KS", "zip": "67114", "phone": "316-836-2005", "county": ""}, "geometry": {"type": "Point", "coordinates": [-97.3447244, 38.0469166]}}, {"type": "Feature", "properties": {"npi": "1639823404", "name": "WILLIAMS MEDICAL GROUP PRACTICE, LLC", "address": "1675 12TH AVE NW", "city": "ARDMORE", "state": "OK", "zip": "73401", "phone": "580-798-0234", "county": ""}, "geometry": {"type": "Point", "coordinates": [-97.1501377, 34.1875665]}}, {"type": "Feature", "properties": {"npi": "1003486846", "name": "WILLIAMS MEDICAL GROUP PRACTICE, LLC", "address": "2525 CHANDLER RD", "city": "MUSKOGEE", "state": "OK", "zip": "74403", "phone": "918-681-7533", "county": ""}, "geometry": {"type": "Point", "coordinates": [-95.3371087, 35.7400386]}}, {"type": "Feature", "properties": {"npi": "1629944459", "name": "WILLIAMS MEDICAL GROUP PRACTICE, LLC", "address": "4475 SUNRISE BLVD", "city": "EDMOND", "state": "OK", "zip": "73034", "phone": "405-445-1210", "county": ""}, "geometry": {"type": "Point", "coordinates": [-97.4649038, 35.6571367]}}, {"type": "Feature", "properties": {"npi": "1386214112", "name": "WILLIAMS MEDICAL GROUP PRACTICE, LLC", "address": "2518 N MAIN ST", "city": "MIAMI", "state": "OK", "zip": "74354", "phone": "918-540-9080", "county": ""}, "geometry": {"type": "Point", "coordinates": [-94.877407, 36.9057835]}}, {"type": "Feature", "properties": {"npi": "1811567654", "name": "WILLIAMS MEDICAL GROUP PRACTICE, LLC", "address": "2215 N HIGHWAY 64", "city": "GUYMON", "state": "OK", "zip": "73942", "phone": "580-754-2280", "county": ""}, "geometry": {"type": "Point", "coordinates": [-101.4815493, 36.6828041]}}, {"type": "Feature", "properties": {"npi": "1063082808", "name": "WILLIAMS MEDICAL GROUP PRACTICE, LLC", "address": "416 N MAIN ST", "city": "ALTUS", "state": "OK", "zip": "73521", "phone": "580-379-0325", "county": ""}, "geometry": {"type": "Point", "coordinates": [-99.3338062, 34.6413666]}}, {"type": "Feature", "properties": {"npi": "1407426240", "name": "WILLIAMS MEDICAL GROUP PRACTICE, LLC", "address": "2088 N HWY 81", "city": "DUNCAN", "state": "OK", "zip": "73533", "phone": "580-786-3200", "county": ""}, "geometry": {"type": "Point", "coordinates": [-97.9578129, 34.5023029]}}, {"type": "Feature", "properties": {"npi": "1295305035", "name": "WILLIAMS MEDICAL GROUP PRACTICE, LLC", "address": "1805 1/2 E 17TH AVE", "city": "HUTCHINSON", "state": "KS", "zip": "67501", "phone": "620-615-7197", "county": ""}, "geometry": {"type": "Point", "coordinates": [-97.9297743, 38.0608444]}}, {"type": "Feature", "properties": {"npi": "1104496942", "name": "WILLIAMS MEDICAL GROUP PRACTICE, LLC", "address": "1021 FLEMING ST", "city": "GARDEN CITY", "state": "KS", "zip": "67846", "phone": "620-277-2010", "county": ""}, "geometry": {"type": "Point", "coordinates": [-100.8726618, 37.9716898]}}, {"type": "Feature", "properties": {"npi": "1558931303", "name": "WILLIAMS MEDICAL GROUP PRACTICE, LLC", "address": "1817 ARLINGTON ST", "city": "ADA", "state": "OK", "zip": "74820", "phone": "580-279-0985", "county": ""}, "geometry": {"type": "Point", "coordinates": [-96.6508045, 34.781548]}}, {"type": "Feature", "properties": {"npi": "1396314118", "name": "WILLIAMS MEDICAL GROUP PRACTICE, LLC", "address": "445 W 15TH ST", "city": "LIBERAL", "state": "KS", "zip": "67901", "phone": "620-417-9012", "county": ""}, "geometry": {"type": "Point", "coordinates": [-97.468648, 35.6564333]}}, {"type": "Feature", "properties": {"npi": "1508435330", "name": "WILLIAMS MEDICAL GROUP PRACTICE, LLC", "address": "220 S VAN BUREN ST", "city": "ENID", "state": "OK", "zip": "73703", "phone": "580-234-9355", "county": ""}, "geometry": {"type": "Point", "coordinates": [-97.8902166, 36.3952769]}}, {"type": "Feature", "properties": {"npi": "1447820295", "name": "WILLIAMS MEDICAL GROUP PRACTICE, LLC", "address": "901 W MAIN ST", "city": "DURANT", "state": "OK", "zip": "74701", "phone": "580-634-2931", "county": ""}, "geometry": {"type": "Point", "coordinates": [-96.385642, 33.993003]}}, {"type": "Feature", "properties": {"npi": "1992375737", "name": "WILLIAMS MEDICAL GROUP PRACTICE, LLC", "address": "411 W GRAND AVE", "city": "CHICKASHA", "state": "OK", "zip": "73018", "phone": "405-244-0056", "county": ""}, "geometry": {"type": "Point", "coordinates": [-97.9382912, 35.0294678]}}, {"type": "Feature", "properties": {"npi": "1184294910", "name": "WILLIAMS MEDICAL GROUP PRACTICE, LLC", "address": "4296 N HARRISON ST", "city": "SHAWNEE", "state": "OK", "zip": "74804", "phone": "405-788-4102", "county": ""}, "geometry": {"type": "Point", "coordinates": [-96.912165, 35.3732895]}}, {"type": "Feature", "properties": {"npi": "1477126753", "name": "WILLIAMS MEDICAL GROUP PRACTICE, LLC", "address": "12 E MACARTHUR ST", "city": "SHAWNEE", "state": "OK", "zip": "74804", "phone": "405-275-1001", "county": ""}, "geometry": {"type": "Point", "coordinates": [-96.9235209, 35.3617811]}}, {"type": "Feature", "properties": {"npi": "1013586841", "name": "WILLIAMS MEDICAL GROUP PRACTICE, LLC", "address": "340 S GEORGE NIGH EXPY", "city": "MCALESTER", "state": "OK", "zip": "74501", "phone": "918-420-9854", "county": ""}, "geometry": {"type": "Point", "coordinates": [-95.7779057, 34.8926428]}}, {"type": "Feature", "properties": {"npi": "1821867557", "name": "WILLIAMS MEDICAL GROUP PRACTICE, LLC", "address": "12190 S WACO AVE STE C", "city": "GLENPOOL", "state": "OK", "zip": "74033", "phone": "918-936-2882", "county": ""}, "geometry": {"type": "Point", "coordinates": [-96.008778, 35.9553523]}}, {"type": "Feature", "properties": {"npi": "1932779782", "name": "WILLIAMS MEDICAL GROUP PRACTICE, LLC", "address": "2501 N 14TH ST", "city": "PONCA CITY", "state": "OK", "zip": "74601", "phone": "580-749-5516", "county": ""}, "geometry": {"type": "Point", "coordinates": [-97.0671439, 36.7338589]}}, {"type": "Feature", "properties": {"npi": "1619740503", "name": "WILLIAMS MEDICAL GROUP PRACTICE, LLC", "address": "11462 S UNION AVE STE F", "city": "JENKS", "state": "OK", "zip": "74037", "phone": "918-518-0220", "county": ""}, "geometry": {"type": "Point", "coordinates": [-95.9683278, 36.0228734]}}, {"type": "Feature", "properties": {"npi": "1083398267", "name": "WILLIAMS MEDICAL GROUP PRACTICE, LLC", "address": "7107 S MERIDIAN ST", "city": "HAYSVILLE", "state": "KS", "zip": "67060", "phone": "405-445-1210", "county": ""}, "geometry": {"type": "Point", "coordinates": [-97.3522675, 37.5644615]}}, {"type": "Feature", "properties": {"npi": "1093385841", "name": "WILLIAMS MEDICAL GROUP PRACTICE, LLC", "address": "1303 N WASHINGTON ST", "city": "WEATHERFORD", "state": "OK", "zip": "73096", "phone": "580-772-2845", "county": ""}, "geometry": {"type": "Point", "coordinates": [-98.7075744, 35.5261633]}}, {"type": "Feature", "properties": {"npi": "1578133328", "name": "WILLIAMS MEDICAL GROUP PRACTICE, LLC", "address": "1513 W WYATT EARP BLVD", "city": "DODGE CITY", "state": "KS", "zip": "67801", "phone": "620-682-8305", "county": ""}, "geometry": {"type": "Point", "coordinates": [-84.2430014, 36.0228202]}}, {"type": "Feature", "properties": {"npi": "1306660691", "name": "WILLIAMS MEDICAL GROUP PRACTICE, LLC", "address": "280 TROWER BLVD", "city": "MANNFORD", "state": "OK", "zip": "74044", "phone": "405-445-1210", "county": ""}, "geometry": {"type": "Point", "coordinates": [-96.3287136, 36.1324167]}}, {"type": "Feature", "properties": {"npi": "1215751508", "name": "WILLIAMS MEDICAL GROUP PRACTICE, LLC", "address": "5688 E 146TH STREET", "city": "COLLINSVILLE", "state": "OK", "zip": "74021", "phone": "405-445-1210", "county": ""}, "geometry": {"type": "Point", "coordinates": [-95.8492254, 36.365453]}}, {"type": "Feature", "properties": {"npi": "1871848069", "name": "WOODWARD HEALTH SYSTEM LLC", "address": "1650 MAIN ST", "city": "WOODWARD", "state": "OK", "zip": "73801", "phone": "580-254-8600", "county": ""}, "geometry": {"type": "Point", "coordinates": [-99.3391918, 36.2777471]}}, {"type": "Feature", "properties": {"npi": "1265804603", "name": "WOODWARD HEALTH SYSTEM LLC", "address": "1611 MAIN ST STE 101", "city": "WOODWARD", "state": "OK", "zip": "73801", "phone": "580-254-8486", "county": ""}, "geometry": {"type": "Point", "coordinates": [-99.3903862, 36.4336481]}}, {"type": "Feature", "properties": {"npi": "1689124497", "name": "WOODWARD HEALTH SYSTEM LLC", "address": "623 AVENUE C", "city": "BEAVER", "state": "OK", "zip": "73932", "phone": "580-625-2273", "county": ""}, "geometry": {"type": "Point", "coordinates": [-100.5183559, 36.8109968]}}, {"type": "Feature", "properties": {"npi": "1447505474", "name": "WOODWARD HEALTH SYSTEM LLC", "address": "916 19TH ST", "city": "WOODWARD", "state": "OK", "zip": "73801", "phone": "580-256-2188", "county": ""}, "geometry": {"type": "Point", "coordinates": [-99.4034167, 36.4380489]}}, {"type": "Feature", "properties": {"npi": "1265149140", "name": "WYNNEWOOD WELLNESS CLINIC", "address": "1202 E KERR BLVD", "city": "WYNNEWOOD", "state": "OK", "zip": "73098", "phone": "405-473-3307", "county": ""}, "geometry": {"type": "Point", "coordinates": [-97.156515, 34.6448618]}}]}